Licensee Name,Street,City,State,Zip,Licensee Number,Channel Type,Account Name,Location
DEL FRISCO'S GRILLE,11800 GRAND PARK AVENUE,ROCKVILLE,MD,20852,BBWLHR856,On Premise,DEL FRISO'S GRILLE OF MARYLAND,"11800 GRAND PARK AVENUE
ROCKVILLE, MD 20852
"
PALADAR LATIN KITCHEN & RUM BAR - G,203 CROWNE PARK AVENUE,GAITHERSBURG,MD,20878,BBWLHR855,On Premise,"PALADAR GAITHERSBURG, LLC","203 CROWNE PARK AVENUE
GAITHERSBURG, MD 20878
"
29 CONVENIENCE MART,10755 COLESVILLE ROAD,SILVER SPRING,MD,20901,DBW125,On/Off-Premise,"JACOB'S MIRAE, INC.","10755 COLESVILLE ROAD
SILVER SPRING, MD 20901
"
ASIA NINE II,254 CROWN PARK ROAD,GAITHERSBURG,MD,20878,BBWLHR861,On Premise,"THAIDEE, INC","254 CROWN PARK ROAD
GAITHERSBURG, MD 20878
"
BLO BLOW DRY BAR,317 ELLINGTON BOULEVARD,GAITHERSBURG,MD,20878,SBSBW0001,On Premise,"YATA MOCO, LLC","317 ELLINGTON BOULEVARD
GAITHERSBURG, MD 20878
"
MAKI MAKI SUSHI,8023 WISCONSIN AVE,BETHESDA,MD,20814,HBW224,On Premise,"JTL, LLC","8023 WISCONSIN AVE
BETHESDA, MD 20814
(38.991082, -77.095581)"
CAMBRIA HOTEL & SUITES,1 HELEN HENEGHAN WAY,ROCKVILLE,MD,20850,BBWLHM20442,On Premise,"CRESENT HOTELS & RESORT, LLC","1 HELEN HENEGHAN WAY
ROCKVILLE, MD 20850
"
CARLUCCIO'S,11826 TRADE STREET,NORTH BETHESDA,MD,20852,BDBWLHR22663,On/Off-Premise,CARLUCCIO'S USA GP,"11826 TRADE STREET
NORTH BETHESDA, MD 20852
"
BRETTON WOODS RECREATION CENTER,15700 RIVER ROAD,GERMANTOWN,MD,20874,CBWLCC006,On Premise,"BRETTON WOODS REC. CENTER, INC","15700 RIVER ROAD
GERMANTOWN, MD 20874
"
TEDS BULLETIN,220 ELLINGTON BOULEVARD,GAITHERSBURG,MD,20878,BBWLHR18583,On Premise,SWEATER VEST LLC,"220 ELLINGTON BOULEVARD
GAITHERSBURG, MD 20878
"
POOLESVILLE GOLF COURSE,16601 WEST WILLARD ROAD,POOLESVILLE,MD,20837,HBW084,On Premise,MONTGOMERY COUNTY REVENUE AUTH,"16601 WEST WILLARD ROAD
POOLESVILLE, MD 20837
"
OLD TOWN POUR HOUSE,212 ELLINGTON BOULEVARD,GAITHERSBURG,MD,20878,BBWLHR18725,On Premise,"BOTTLENECK DTC, LLC","212 ELLINGTON BOULEVARD
GAITHERSBURG, MD 20878
"
,,,,,,,,
TOKYO FIRE,9811 MAIN ST,DAMASCUS,MD,20872,HBW24576,On Premise,TOKYO FIRE INC,"9811 MAIN ST
DAMASCUS, MD 20872
(39.288273, -77.203601)"
IPIC THEATER,11830 GRAND PARK AVENUE,NORTH BETHESDA,MD,20852,BBWLHR863,On Premise,"IPIC-GOLD CLASS ENTERTAINMENT,","11830 GRAND PARK AVENUE
NORTH BETHESDA, MD 20852
"
HYATT REGENCY BETHESDA,ONE BETHESDA METRO,BETHESDA,MD,20814,BBWLHM21674,On Premise,"TMG II BETHESDA HOTEL TRS, LLC","ONE BETHESDA METRO
BETHESDA, MD 20814
"
HOLIDAY INN GAITHERSBURG,TWO MONTGOMERY VILLAGE AVE,GAITHERSBURG,MD,20879,BBWLHM003,On Premise,MONTGOMERY VILLAGE HOSPITALITY,"TWO MONTGOMERY VILLAGE AVE
GAITHERSBURG, MD 20879
"
SMASHBURGER - GAITHERSBURG,200 ELLINGTON BOULEVARD,GAITHERSBURG,MD,20878,BBWLHR847,On Premise,SMASHBURGER ACQUISITION - MD L,"200 ELLINGTON BOULEVARD
GAITHERSBURG, MD 20878
"
GEMELLI'S ITALIAN MARKET,12169 DARNESTOWN ROAD,GAITHERSBURG,MD,20878,DBW151,On/Off-Premise,"GEMELLI'S ITALIAN MARKET, LLC","12169 DARNESTOWN ROAD
GAITHERSBURG, MD 20878
"
DOWNTOWN BEER & WINE,5751 E FISHER LANE,ROCKVILLE,MD,20852,ABWS272,Off Premise,"DOWNTOWN BEER & WINE 2, INC","5751 E FISHER LANE
ROCKVILLE, MD 20852
"
TED'S MONTANA GRILL,105 ELLINGTON BOULEVARD,GAITHERSBURG,MD,20878,BBWLHR21344,On Premise,"TMG OF GAITHERSBURG, LLC","105 ELLINGTON BOULEVARD
GAITHERSBURG, MD 20878
"
URBAN BAR-B-QUE CO.,5566 NORBECK ROAD,ROCKVILLE,MD,20853,BBWLHR689,On Premise,URBAN BURGER COMPANY INC.,"5566 NORBECK ROAD
ROCKVILLE, MD 20853
(39.095463, -77.111687)"
GAITHERSTOWNE BEER & WINE,296 N. FREDERICK AVENUE,GAITHERSBURG,MD,20877,ABWS284,Off Premise,GAITHERSTOWNE BEER & WINE,"296 N. FREDERICK AVENUE
GAITHERSBURG, MD 20877
(39.14483, -77.202679)"
HOLLYWOOD EAST CAFE - WESTFIELD,"11160 VEIRS MILL ROAD, #1",SILVER SPRING,MD,20902,BBWLHR582,On Premise,"FOUR KINGS ENTERPRISES, INC.","11160 VEIRS MILL ROAD, #1
SILVER SPRING, MD 20902
(39.038177, -77.052681)"
ARGYLE COUNTRY CLUB,14600 ARGYLE CLUB ROAD,SILVER SPRING,MD,20906,CBWLCC003,On Premise,ARGYLE LAND COMPANY INC.,"14600 ARGYLE CLUB ROAD
SILVER SPRING, MD 20906
(39.096409, -77.046569)"
THE CAPITAL GRILLE,"5310 WESTERN AVE, SUITE A",CHEVY CHASE,MD,20815,BBWLHR557,On Premise,"GMR MONTGOMERY COUNTY, INC.","5310 WESTERN AVE, SUITE A
CHEVY CHASE, MD 20815
(38.959313, -77.087623)"
THE TAVERN AT RIVER FALLS,10128 RIVER ROAD,POTOMAC,MD,20854,BBWLHR22787,On Premise,"POTOMAC FALLS TAVERN, LLC","10128 RIVER ROAD
POTOMAC, MD 20854
(39.017724, -77.208627)"
JERRYS SUB SHOP,15547 OLD COLUMBIA PIKE,BURTONSVILLE,MD,20866,HBW096,On Premise,"CHAI III, INC.","15547 OLD COLUMBIA PIKE
BURTONSVILLE, MD 20866
(39.109731, -76.934835)"
SILVER SPRING MOOSE LODGE NO. 658,4343 SANDY SPRING ROAD,BURTONSVILLE,MD,20868,CBWLFV011,On Premise,"SILVER SPRING MOOSE 658, LOYAL","4343 SANDY SPRING ROAD
BURTONSVILLE, MD 20868
(39.107745, -76.92158)"
JO'S BEER-WINE,18507 N. FREDERICK ROAD,GAITHERSBURG,MD,20879,ABWS20278,Off Premise,"JO'S BEER-WINE, LLC.","18507 N. FREDERICK ROAD
GAITHERSBURG, MD 20879
(39.162776, -77.225319)"
PERSIMMON,7003 WISCONSIN AVE,CHEVY CHASE,MD,20815,BBWLHR329,On Premise,UNIQUE ASSET LLC,"7003 WISCONSIN AVE
CHEVY CHASE, MD 20815
(38.979382, -77.091731)"
THE GRILLED OYSTER COMPANY,7943 TUCKERMAN LANE,POTOMAC,MD,20854,BBWLHR732,On Premise,"OLLIEJACK'S RESTAURANT, LLC","7943 TUCKERMAN LANE
POTOMAC, MD 20854
(39.040937, -77.160493)"
GEORGETOWN SQUARE WINE & CHEESE,10400 OLD GEORGETOWN ROAD,BETHESDA,MD,20814,ABWS234,Off Premise,H & A WINE & CHEESE INC.,"10400 OLD GEORGETOWN ROAD
BETHESDA, MD 20814
(39.025877, -77.126067)"
RUAN THAI,11407 AMHERST AVE,SILVER SPRING,MD,20902,HBW004,On Premise,RUAN THAI RESTAURANT INC.,"11407 AMHERST AVE
SILVER SPRING, MD 20902
(39.041907, -77.048039)"
MAMMA LUCIA - SHADY GROVE,14921 SHADY GROVE ROAD,ROCKVILLE,MD,20850,BBWLHR341,On Premise,"MAMMA LUCIA'S OF FALLSGROVE, I","14921 SHADY GROVE ROAD
ROCKVILLE, MD 20850
(39.096703, -77.194789)"
COLOMBIAN BREEZE,348 Main Street,Gaithersburg,MD,20878,BBWLHR868,On Premise,"JP II Colombian Breeze, LLC","348 Main Street
Gaithersburg, MD 20878
(39.121333, -77.237717)"
ITALIAN KITCHEN,8201 FENTON STREET,SILVER SPRING,MD,20910,BBWHR21279,On Premise,8201 FENTON STREET LLC,"8201 FENTON STREET
SILVER SPRING, MD 20910
(38.991999, -77.024026)"
LATINO MARKET & GROCERY,"12 EAST DIAMOND AVE, UNIT J",GAITHERSBURG,MD,20877,ABW217,Off Premise,"LATINO MARKET & GROCERY, INC.","12 EAST DIAMOND AVE, UNIT J
GAITHERSBURG, MD 20877
(39.141704, -77.198236)"
SILVER DINER - ROCKVILLE,12276 ROCKVILLE PIKE,ROCKVILLE,MD,20852,BBWLHR614,On Premise,"SILVER DINER ROCKVILLE, LLC","12276 ROCKVILLE PIKE
ROCKVILLE, MD 20852
(39.057704, -77.12054)"
SHALOM STRICTLY KOSHER MEATS,1361 LAMBERTON DRIVE,SILVER SPRING,MD,20902,ABWS103,Off Premise,"SHALOM STRICTLY KOSHER MEATS,","1361 LAMBERTON DRIVE
SILVER SPRING, MD 20902
(39.040993, -77.029595)"
MASTER 8 BILLARDS,2640 UNIVERSITY BOULEVARD,SILVER SPRING,MD,20902,DBWL002,On Premise,"LVDA, LLC","2640 UNIVERSITY BOULEVARD
SILVER SPRING, MD 20902
(39.040664, -77.054029)"
&PIZZA,11626 OLD GEORGETOWN ROAD,NORTH BETHESDA,MD,20852,BBWLHR21281,On Premise,"IMA PIZZA STORE 8,LLC","11626 OLD GEORGETOWN ROAD
NORTH BETHESDA, MD 20852
(39.049703, -77.113658)"
SPRING BEER & WINE,8645 16TH STREET,SILVER SPRING,MD,20910,ABWS145,Off Premise,SPRING BEER & WINE CORPORATION,"8645 16TH STREET
SILVER SPRING, MD 20910
(38.998562, -77.0395)"
"SILVER SPRING BEER, WINE & DELI",8746 GEORGIA AVE,SILVER SPRING,MD,20910,DBW081,On/Off-Premise,"RYANALEX, INC.","8746 GEORGIA AVE
SILVER SPRING, MD 20910
(38.99853, -77.03091)"
DIETLES,11010 ROCKVILLE PIKE,ROCKVILLE,MD,20852,DBW001,On/Off-Premise,DIETLES TAVERN LLC,"11010 ROCKVILLE PIKE
ROCKVILLE, MD 20852
(39.036996, -77.108038)"
ADDIS ABABA RESTAURANT,8233 FENTON STREET,SILVER SPRING,MD,20910,BBWLHR700,On Premise,"ABYE, LLC","8233 FENTON STREET
SILVER SPRING, MD 20910
(38.99275, -77.024071)"
SENOR TEQUILA'S,20021 CENTURY BLVD,GERMANTOWN,MD,20874,BBWLHR21170,On Premise,"SENOR TEQUILA'S OF MARYLAND, INC","20021 CENTURY BLVD
GERMANTOWN, MD 20874
(39.184307, -77.260122)"
VISARTS,"155 GIBBS STREET, SUITE 300",ROCKVILLE,MD,20850,SBWLCPA01,On Premise,METROPOLITAN CENTER FOR THE VI,"155 GIBBS STREET, SUITE 300
ROCKVILLE, MD 20850
(39.086943, -77.151982)"
HERSHEYS RESTAURANT,17030 OAKMONT AVE,GAITHERSBURG,MD,20877,BBWLHR135,On Premise,"GORMAN, INC.","17030 OAKMONT AVE
GAITHERSBURG, MD 20877
(39.135799, -77.177354)"
ANNA'S DELI PLUS,11512 MIDDLEBROOK ROAD,GERMANTOWN,MD,20876,ABWS179,Off Premise,ANNA'S DELI PLUS INC.,"11512 MIDDLEBROOK ROAD
GERMANTOWN, MD 20876
(39.180383, -77.239433)"
BAR LOUIE,150 GIBBS STREET,ROCKVILLE,MD,20850,BBWLHR716,On Premise,"BL RESTAURANT OPERATIONS, LLC","150 GIBBS STREET
ROCKVILLE, MD 20850
(39.086961, -77.151982)"
COURTYARD BY MARRIOTT-SILVER SPRING,8506 FENTON STREET,SILVER SPRING,MD,20910,BBWLHM210,On Premise,SILVER SPRING HOTEL ASSOCIATES,"8506 FENTON STREET
SILVER SPRING, MD 20910
(38.995607, -77.024441)"
STATE LINE MARKET,7817 EASTERN AVE,SILVER SPRING,MD,20910,ABW229,Off Premise,"BAMLAK, LLC","7817 EASTERN AVE
SILVER SPRING, MD 20910
(38.984922, -77.027031)"
KISS & RIDE NEWSSTAND CONV STR,"11171 GEORGIA AVE, UNIT B",SILVER SPRING,MD,20902,ABW215,Off Premise,"KISS & RIDE, LLC","11171 GEORGIA AVE, UNIT B
SILVER SPRING, MD 20902
(39.038529, -77.050744)"
THE COMUS INN,23900 OLD HUNDRED ROAD,DICKERSON,MD,20842,BBWLHR372,On Premise,THE COMUS INN AT SUGARLOAF MT,"23900 OLD HUNDRED ROAD
DICKERSON, MD 20842
(39.247705, -77.349338)"
N-DOWNTOWN BEER AND WINE 3,70 UPPER ROCK CIR,ROCKVILLE,MD,20850,DBW22817,On/Off-Premise,DOWNTOWN BEER & WINE 3 CORP,"70 UPPER ROCK CIR
ROCKVILLE, MD 20850
(39.104, -77.157)"
PACCI'S TRATTORIA,6 POST OFFICE ROAD,SILVER SPRING,MD,20910,BBWLHR680,On Premise,"PACCI'S TRATTORIA, LLC","6 POST OFFICE ROAD
SILVER SPRING, MD 20910
(39.015049, -77.055406)"
RIDERWOOD VILLAGE,3110 GRACEFIELD ROAD,SILVER SPRING,MD,20904,CBWLRC001,On Premise,RIDERWOOD VILLAGE INC.,"3110 GRACEFIELD ROAD
SILVER SPRING, MD 20904
(39.056576, -76.95107)"
ARMAND'S CHICAGO PIZZERIA,1909 SEMINARY ROAD,SILVER SPRING,MD,20910,HBW071,On Premise,RON-RYAN INC.,"1909 SEMINARY ROAD
SILVER SPRING, MD 20910
(39.008647, -77.040908)"
NORMANDIE FARM RESTAURANT,10710 FALLS ROAD,POTOMAC,MD,20854,BBWLHR058,On Premise,"NEW NORMANDIE FARM, INC.","10710 FALLS ROAD
POTOMAC, MD 20854
(39.030049, -77.20159)"
BROOKVILLE EATERY,8921 BROOKVILLE ROAD,SILVER SPRING,MD,20910,ABW026,Off Premise,"BROOKVILLE EATERY ,INC.","8921 BROOKVILLE ROAD
SILVER SPRING, MD 20910
(39.00284, -77.052687)"
ASI ES MI TIERRA,2559 ENNALLS AVE,SILVER SPRING,MD,20902,BBWLHR652,On Premise,"ASI ES MI TIERRA, LLC","2559 ENNALLS AVE
SILVER SPRING, MD 20902
(39.039652, -77.053832)"
MYTHOS MEDITERRANEAN GREEK REST.,8371 SNOUFFER SCHOOL ROAD,GAITHERSBURG,MD,20879,HBW251,On Premise,ROSHANE D. LLC,"8371 SNOUFFER SCHOOL ROAD
GAITHERSBURG, MD 20879
(39.165112, -77.168541)"
WOODSIDE DELI,9329 GEORGIA AVE,SILVER SPRING,MD,20910,DBW047,On/Off-Premise,PAUL ZLONTNICKI & DOV KLIGER,"9329 GEORGIA AVE
SILVER SPRING, MD 20910
(39.008156, -77.040046)"
ASHTON BEER & WINE,7 OLNEY SANDY SPRING ROAD,ASHTON,MD,20861,DBW085,On/Off-Premise,JOCELYN INC.,"7 OLNEY SANDY SPRING ROAD
ASHTON, MD 20861
(39.149313, -77.012706)"
KHUSHBU INDIAN CUISINE,15504 OLD COLUMBIA PIKE,BURTONSVILLE,MD,20866,HBW25669,On Premise,SUNRISERS LLC,"15504 OLD COLUMBIA PIKE
BURTONSVILLE, MD 20866
(39.109754, -76.934809)"
ASPEN HILL RACQUET CLUB,14501 HOMECREST ROAD,SILVER SPRING,MD,20906,DBW010,On/Off-Premise,"ASPEN HILL TENNIS, INC.","14501 HOMECREST ROAD
SILVER SPRING, MD 20906
(39.094722, -77.061778)"
THAI HOUSE RESTAURANT,8369 SNOUFFER SCHOOL ROAD,GAITHERSBURG,MD,20879,DBW135,On/Off-Premise,"AEY, INC.","8369 SNOUFFER SCHOOL ROAD
GAITHERSBURG, MD 20879
(39.166682, -77.17144)"
THE GRILLE AT FLOWER HILL,18257 FLOWER HILL WAY,GAITHERSBURG,MD,20879,BBWLHR806,On Premise,"TWOMOORE HOLDINGS, LLC","18257 FLOWER HILL WAY
GAITHERSBURG, MD 20879
(39.155646, -77.164812)"
LEDO PIZZA - WESTLAKE,10301 WESTLAKE DRIVE,BETHESDA,MD,20817,HBW011,On Premise,WESTLAKE DRIVE PIZZA INC.,"10301 WESTLAKE DRIVE
BETHESDA, MD 20817
(39.026227, -77.148068)"
EL MARIACHI,765 ROCKVILLE PIKE,ROCKVILLE,MD,20852,BBWLHR151,On Premise,"TIO RESTAURANTER, INC.","765 ROCKVILLE PIKE
ROCKVILLE, MD 20852
(39.077772, -77.140569)"
LONGHORN STEAKHOUSE,20017 CENTURY BLVD,GERMANTOWN,MD,20874,BBWLHR059,On Premise,RARE BEVERAGES OF MD INC,"20017 CENTURY BLVD
GERMANTOWN, MD 20874
(39.184367, -77.259991)"
YAMAS MEDITERRANEAN GRILL,4806 RUGBY AVE,BETHESDA,MD,20814,BBWLHR595,On Premise,"4806 RUGBY AVENUE, LLC","4806 RUGBY AVE
BETHESDA, MD 20814
(38.991306, -77.096711)"
HOMEWOOD SUITES SILVER SPRING,8728 COLESVILLE ROAD,SILVER SPRING,MD,20910,BBWLHM020,On Premise,HOSPITALITY ASSOCIATES OF COLE,"8728 COLESVILLE ROAD
SILVER SPRING, MD 20910
(38.998287, -77.026529)"
NEW FORTUNE RESTAURANT,16515 SOUTH FREDERICK AVE,GAITHERSBURG,MD,20877,BBWLHR162,On Premise,"NEW FORTUNE , INC.","16515 SOUTH FREDERICK AVE
GAITHERSBURG, MD 20877
(39.126923, -77.18402)"
GUARDADO'S RESTAURANT,4918 DEL RAY AVE,BETHESDA,MD,20814,BBWLHR220,On Premise,"NICOREY, LLC","4918 DEL RAY AVE
BETHESDA, MD 20814
(38.989274, -77.099389)"
WOODMONT MARKET,"8227 WOODMONT AVE, UNIT A",BETHESDA,MD,20814,ABW213,Off Premise,"WOODMONT MARKET, INC.","8227 WOODMONT AVE, UNIT A
BETHESDA, MD 20814
(38.992449, -77.096986)"
BOMBAY BISTRO,98 W. MONTGOMERY AVE,ROCKVILLE,MD,20850,HBW122,On Premise,BOMBAY BREEZE INTL. INC.,"98 W. MONTGOMERY AVE
ROCKVILLE, MD 20850
(39.084175, -77.154782)"
SAZON INKA,6 NORTH WASHINGTON STREET,ROCKVILLE,MD,20850,BBWLHR18663,On Premise,"SAZON INKA, LLC","6 NORTH WASHINGTON STREET
ROCKVILLE, MD 20850
(39.084664, -77.152921)"
WHITE OAK MARKET,"11700 OLD COLUMBIA PIKE, #H",SILVER SPRING,MD,20904,ABW122,Off Premise,"WHITE OAK MARKET, INC.","11700 OLD COLUMBIA PIKE, #H
SILVER SPRING, MD 20904
(39.049239, -76.979535)"
FOUR U,8120 PINEY BRANCH ROAD,SILVER SPRING,MD,20910,ABW168,Off Premise,"FOUR U, INC.","8120 PINEY BRANCH ROAD
SILVER SPRING, MD 20910
(38.992515, -77.009673)"
WASHINGTON-ROCKVILLE ELKS #15,5 TAFT COURT,ROCKVILLE,MD,20850,CBWLFV019,On Premise,B.P.O. ELKS #15,"5 TAFT COURT
ROCKVILLE, MD 20850
(39.095615, -77.131639)"
GRINGOS & MARCIACHIS,4928 CORDELL AVENUE,BETHESDA,MD,20814,BBWLHR815,On Premise,"G & M GROUP, INC","4928 CORDELL AVENUE
BETHESDA, MD 20814
(38.988607, -77.098863)"
LEDO PIZZA - MONTGOMERY VILLAGE,19200 MONTGOMERY VILLAGE AVE,MONTGOMERY VILLAGE,MD,20886,HBW166,On Premise,"MHI HOTEL SERVICES, LLC","19200 MONTGOMERY VILLAGE AVE
MONTGOMERY VILLAGE, MD 20886
(39.172093, -77.203828)"
VILLAGE BEER & WINE - ROCKVILLE,5526 NORBECK ROAD,ROCKVILLE,MD,20853,DBW018,On/Off-Premise,"A & M II, CORPORATION","5526 NORBECK ROAD
ROCKVILLE, MD 20853
(39.095821, -77.110591)"
POTOMAC EXPRESS MARKET AND DELI,12960 TRAVILLAH ROAD,POTOMAC,MD,20854,ABW23472,Off Premise,"ZARA CORPORATION, INC","12960 TRAVILLAH ROAD
POTOMAC, MD 20854
(39.068727, -77.263266)"
BOOEYMONGER,4600 EAST WEST HIGHWAY,BETHESDA,MD,20814,HBWHR25817,On Premise,"BOOEY OF BETHESDA, INC","4600 EAST WEST HIGHWAY
BETHESDA, MD 20814
(38.98478, -77.09298)"
BISTRO LAZEEZ,8009 NORFOLK AVENUE,BETHESDA,MD,20814,HBW349,On Premise,RAMZI OSSEIRAN,"8009 NORFOLK AVENUE
BETHESDA, MD 20814
(38.990032, -77.099127)"
TALBERTS ICE & BEVERAGE SERVICE,5234 RIVER ROAD,BETHESDA,MD,20816,DBW044,On/Off-Premise,MONTGOMERY ICE CORPORATION,"5234 RIVER ROAD
BETHESDA, MD 20816
(38.965323, -77.10446)"
RUMBA Y CARBON,11222 GRANDVIEW AVE,SILVER SPRING,MD,20902,BBWLHR669,On Premise,PIRATA CORP.,"11222 GRANDVIEW AVE
SILVER SPRING, MD 20902
(39.038918, -77.05233)"
MORTON'S - THE STEAKHOUSE,7400 WISCONSIN AVE,BETHESDA,MD,20814,BBWLHR377,On Premise,MORTON'S OF CHICAGO/BETHESDA,"7400 WISCONSIN AVE
BETHESDA, MD 20814
(38.983602, -77.093911)"
GREGORIO'S TRATTORIA,7745 TUCKERMAN LANE,POTOMAC,MD,20854,BBWLHR801,On Premise,"DK ENTERPRISES OF CHANTALLY, L","7745 TUCKERMAN LANE
POTOMAC, MD 20854
(39.039228, -77.156186)"
FU LIN RESTAURANT,2235 BEL PRE ROAD,SILVER SPRING,MD,20906,HBW162,On Premise,J. CHAN RESTAURANT INC.,"2235 BEL PRE ROAD
SILVER SPRING, MD 20906
(39.090496, -77.048158)"
MELTING POT,9021 GAITHER ROAD,GAITHERSBURG,MD,20877,BBWLHR218,On Premise,BERK INC.,"9021 GAITHER ROAD
GAITHERSBURG, MD 20877
(39.117494, -77.184551)"
FILLMORE,8656 COLESVILLE ROAD,SILVER SPRING,MD,20910,BBWLPA002,On Premise,"FACILITY CONCESSION SERVICES,","8656 COLESVILLE ROAD
SILVER SPRING, MD 20910
(38.997288, -77.027221)"
TIFFIN,1341 UNIVERSITY BLVD. EAST,TAKOMA PARK,MD,20912,HBW138,On Premise,"MAHARAJA RESTAURANT CATERERS,","1341 UNIVERSITY BLVD. EAST
TAKOMA PARK, MD 20912
(38.987143, -76.985031)"
CLYDE'S,5441 WISCONSIN AVE,CHEVY CHASE,MD,20815,BBWLHR157,On Premise,CLYDES OF CHEVY CHASE INC.,"5441 WISCONSIN AVE
CHEVY CHASE, MD 20815
(38.962275, -77.086338)"
MATCHBOX,1699 ROCKVILLE PIKE,ROCKVILLE,MD,20852,BBWLHR617,On Premise,"MATCHBOX ROCKVILLE, LLC","1699 ROCKVILLE PIKE
ROCKVILLE, MD 20852
(39.062186, -77.124443)"
UMBERTO'S ITALIAN REST. & TEX MEX,11230 GRANDVIEW AVE,SILVER SPRING,MD,20902,BBWLHR070,On Premise,UMBERTO'S LLC,"11230 GRANDVIEW AVE
SILVER SPRING, MD 20902
(39.039262, -77.052415)"
NANDO'S PERI PERI - SILVER SPRING,924 ELLSWORTH DRIVE,SILVER SPRING,MD,20910,BBWLHR606,On Premise,"NANDO'S OF SILVER SPRING, LLC","924 ELLSWORTH DRIVE
SILVER SPRING, MD 20910
(38.995585, -77.026826)"
SABAI SABAI...SIMPLY THAI,19847 CENTURY BLVD,GERMANTOWN,MD,20874,BBWLHR549,On Premise,"AGATE, INC","19847 CENTURY BLVD
GERMANTOWN, MD 20874
(39.181864, -77.265583)"
WOODMONT COUNTRY CLUB,1201 ROCKVILLE PIKE,ROCKVILLE,MD,20854,CBWLCC002,On Premise,R.SHARLIN T.GORDON A.KASLOW,"1201 ROCKVILLE PIKE
ROCKVILLE, MD 20854
(39.069103, -77.130391)"
ASPEN HILL LOTTERY BEER & WINE,13745 CONNECTICUT AVE,SILVER SPRING,MD,20906,ABW004,Off Premise,MERC ENTERPRISES INCORPORATED,"13745 CONNECTICUT AVE
SILVER SPRING, MD 20906
(39.08102, -77.080065)"
LA MEXICANA - GERMANTOWN,13016 MIDDLEBROOK ROAD,GERMANTOWN,MD,20874,BBWLHR034,On Premise,EL MEXICANO INC.,"13016 MIDDLEBROOK ROAD
GERMANTOWN, MD 20874
(39.182495, -77.270583)"
GROSVENOR MARKET,"10401 GROSVENOR PLACE, SUITE 2",ROCKVILLE,MD,20852,ABW010,Off Premise,GROSVENOR MARKET INC.,"10401 GROSVENOR PLACE, SUITE 2
ROCKVILLE, MD 20852
(39.028029, -77.10752)"
LA PANETTERIA RESTAURANT,4921 CORDELL AVE,BETHESDA,MD,20814,BBWLHR138,On Premise,"NORE, INC.","4921 CORDELL AVE
BETHESDA, MD 20814
(38.988782, -77.098692)"
UNION JACK'S RIO,9811 WASHINGTONIAN BOULEVARD,GAITHERSBURG,MD,20878,BBWLHR835,On Premise,"UNION JACK OF RIO, LLC.","9811 WASHINGTONIAN BOULEVARD
GAITHERSBURG, MD 20878
(39.115373, -77.198224)"
7-ELEVEN-GLEN ECHO,7305 MACARTHUR BLVD,BETHESDA,MD,20816,ABW24757,Off Premise,"NATI & ABE ENTERPRISES, INC","7305 MACARTHUR BLVD
BETHESDA, MD 20816
(38.968913, -77.139437)"
SLIGO CREEK GOLF COURSE,9701 SLIGO CREEK PKY,SILVER SPRING,MD,20901,HBW269,On Premise,MONTGOMERY CO. REV. AUTHORITY,"9701 SLIGO CREEK PKY
SILVER SPRING, MD 20901
(39.013472, -77.030435)"
PINEY BRANCH BEER & WINE,8204 PINEY BRANCH ROAD,SILVER SPRING,MD,20910,ABW011,Off Premise,"ALAN BEER & WINE, INC.","8204 PINEY BRANCH ROAD
SILVER SPRING, MD 20910
(38.99307, -77.009403)"
BRADLEY FOOD & BEVERAGE,6904 ARLINGTON ROAD,BETHESDA,MD,20814,DBW130,On/Off-Premise,"BRADLEY FOOD & BEVERAGE, INC.","6904 ARLINGTON ROAD
BETHESDA, MD 20814
(38.978576, -77.098735)"
WOODSIDE DELI II,13048 MIDDLEBROOK ROAD,GERMANTOWN,MD,20874,HBW250,On Premise,ZKB CORPORATION,"13048 MIDDLEBROOK ROAD
GERMANTOWN, MD 20874
(39.183335, -77.271684)"
THE BOTTLE SHOP,"350 FORTUNE TERRACE, SUITE 102",ROCKVILLE,MD,20854,DBW156,On/Off-Premise,"THE BOUKALI GROUP, LLC","350 FORTUNE TERRACE, SUITE 102
ROCKVILLE, MD 20854
(39.062399, -77.159582)"
MON AMI GABI,7239 WOODMONT AVE,BETHESDA,MD,20814,BBWLHR330,On Premise,MON AMI BETHESDA LLC,"7239 WOODMONT AVE
BETHESDA, MD 20814
(38.981382, -77.095662)"
LE VIEUX LOGIS,7925 OLD GEORGETOWN ROAD,BETHESDA,MD,20814,BBWLHR833,On Premise,"VERVEINNE, LLC","7925 OLD GEORGETOWN ROAD
BETHESDA, MD 20814
(38.988803, -77.100967)"
WOK EXPRESS,9615 LOST KNIFE ROAD,GAITHERSBURG,MD,20877,HBW20258,On Premise,MU FAMILY INC.,"9615 LOST KNIFE ROAD
GAITHERSBURG, MD 20877
(39.153228, -77.199027)"
GUAPO'S - RIO,9811 WASHINGTONIAN BLVD,GAITHERSBURG,MD,20878,BBWLHR243,On Premise,GUAPO'S III INC.,"9811 WASHINGTONIAN BLVD
GAITHERSBURG, MD 20878
(39.115373, -77.198224)"
CAVA RESTAURANT,9713 TRAVILLE GATEWAY DRIVE,ROCKVILLE,MD,20850,BBWLHR066,On Premise,"DTI, LLC,","9713 TRAVILLE GATEWAY DRIVE
ROCKVILLE, MD 20850
(39.091502, -77.204217)"
DON JORGE'S RESTAURANT BAR & GRILL,108 EAST DIAMOND AVENUE,GAITHERSBURG,MD,20877,BBWLHR852,On Premise,"GARCIAS & FUENTES, INC","108 EAST DIAMOND AVENUE
GAITHERSBURG, MD 20877
(39.141863, -77.19629)"
MARRIOTT HOTEL - BETHESDA,5151 POOKS HILL ROAD,BETHESDA,MD,20814,BBWLHM002,On Premise,MARRIOTT CORPORATION,"5151 POOKS HILL ROAD
BETHESDA, MD 20814
(39.01505, -77.103852)"
ALFIO'S,4515 WILLARD AVENUE,CHEVY CHASE,MD,20815,BBWLHR830,On Premise,"ALFIO'S, LLC","4515 WILLARD AVENUE
CHEVY CHASE, MD 20815
(38.962385, -77.090858)"
ABOL ETHIOPIAN CUISINE,8626 COLESVILLE ROAD,SILVER SPRING,MD,20910,HBW313,On Premise,"ABOL, LLC","8626 COLESVILLE ROAD
SILVER SPRING, MD 20910
(38.996755, -77.027595)"
MOGOTILLO RESTAURANT,7637 NEW HAMPSHIRE AVE,TAKOMA PARK,MD,20912,BBWLHR494,On Premise,"MOGOTILLO RESTAURANT, LLC","7637 NEW HAMPSHIRE AVE
TAKOMA PARK, MD 20912
(38.986861, -76.987872)"
MOM'S ORGANIC MARKET,5566 RANDOLPH ROAD,ROCKVILLE,MD,20852,ABWS037,Off Premise,"MOM'S ORGANIC MARKET,INC","5566 RANDOLPH ROAD
ROCKVILLE, MD 20852
(39.053265, -77.113062)"
CHARM THAI RESTAURANT,"8408 GEORGIA AVE, UNIT A",SILVER SPRING,MD,20910,HBW291,On Premise,"DEEWANDEEKERN, INC.","8408 GEORGIA AVE, UNIT A
SILVER SPRING, MD 20910
(38.993652, -77.026791)"
LA MEXICANA - GAITHERSBURG,16143 SHADY GROVE ROAD,GAITHERSBURG,MD,20877,BBWLHR828,On Premise,LA MEXICANA INC.,"16143 SHADY GROVE ROAD
GAITHERSBURG, MD 20877
(39.120909, -77.179379)"
VACE,4705 MILLER AVE,BETHESDA,MD,20814,ABW136,Off Premise,VACE INC.,"4705 MILLER AVE
BETHESDA, MD 20814
(38.980562, -77.093118)"
QUICK CONVENIENT MART,"8441 SNOUFFER SCHOOL ROAD, UNIT A",GAITHERSBURG,MD,20879,ABWS248,Off Premise,SHUVASHREE CORP.,"8441 SNOUFFER SCHOOL ROAD, UNIT A
GAITHERSBURG, MD 20879
(39.167683, -77.17422)"
ARCLIGHT CINEMAS,7101 DEMOCRACY BOULEVARD,BETHESDA,MD,20817,BBWLHR862,On Premise,PACIFIC THEATRES EXHIBITION,"7101 DEMOCRACY BOULEVARD
BETHESDA, MD 20817
(39.0242, -77.1459)"
HUNAN MANOR RESTAURANT,11237 NEW HAMPSHIRE AVE,SILVER SPRING,MD,20904,BBWLHR718,On Premise,"YANLIN, INC","11237 NEW HAMPSHIRE AVE
SILVER SPRING, MD 20904
(39.040301, -76.990785)"
THAT'S AMORE,15201 SHADY GROVE ROAD,ROCKVILLE,MD,20850,BBWLHR785,On Premise,"W.R.K.B, LLC","15201 SHADY GROVE ROAD
ROCKVILLE, MD 20850
(39.104659, -77.190356)"
PEPPERS CAFE,"216 MARKET STREET, WEST",GAITHERSBURG,MD,20878,DBW20505,On/Off-Premise,MONSOON KITCHENS LLC,"216 MARKET STREET, WEST
GAITHERSBURG, MD 20878
(39.121125, -77.235515)"
BEL PRE BEER & WINE,2251 BEL PRE ROAD,SILVER SPRING,MD,20906,DBW103,On/Off-Premise,REAL ESTATE SERVICES INC.,"2251 BEL PRE ROAD
SILVER SPRING, MD 20906
(39.090491, -77.048388)"
PASSAGE TO INDIA,4931 CORDELL AVE,BETHESDA,MD,20814,BBWLHR368,On Premise,PASSAGE TO INDIA INC.,"4931 CORDELL AVE
BETHESDA, MD 20814
(38.988543, -77.098926)"
WINGSTOP - SILVER SPRING,13633 CONNECTICUT AVENUE,SILVER SPRING,MD,20906,BBWLHR845,On Premise,"REDCOW POLITY IV, LLC","13633 CONNECTICUT AVENUE
SILVER SPRING, MD 20906
(39.078366, -77.080723)"
SOL Y MAR,2407 PRICE AVENUE,SILVER SPRING,MD,20902,BBWLHR849,On Premise,"SANDOVAL & SANDOVAL, INC","2407 PRICE AVENUE
SILVER SPRING, MD 20902
(39.040242, -77.050703)"
SILVER,7150 WOODMONT AVENUE,BETHESDA,MD,20814,BBWLHR22814,On Premise,"SILVER BETHESDA, LLC","7150 WOODMONT AVENUE
BETHESDA, MD 20814
(38.981485, -77.095784)"
DRYBAR,4840 BETHESDA AVENUE,BETHESDA,MD,20814,SBSBW0005,On Premise,"DRYBAR HOLDINGS, LLC","4840 BETHESDA AVENUE
BETHESDA, MD 20814
(38.980895, -77.096956)"
CAMPEON,902 MERRIMAC DRIVE,TAKOMA PARK,MD,20912,HBW321,On Premise,"CAMPEON, INC","902 MERRIMAC DRIVE
TAKOMA PARK, MD 20912
(38.992363, -76.99251)"
THE BARKING DOG,4723 ELM STREET,BETHESDA,MD,20814,BBWLHR205,On Premise,SMC INC,"4723 ELM STREET
BETHESDA, MD 20814
(38.982174, -77.095184)"
NAVA THAI RESTAURANT,11301 FERN STREET,SILVER SPRING,MD,20902,BBWLHR535,On Premise,NAVA THAI RESTAURANT CORPORATI,"11301 FERN STREET
SILVER SPRING, MD 20902
(39.040344, -77.049529)"
LE PAIN QUOTIDIEN - BETHESDA,7140 BETHESDA LANE,BETHESDA,MD,20814,BBWLHR526,On Premise,"PQ BETHESDA, INC.","7140 BETHESDA LANE
BETHESDA, MD 20814
(38.98159, -77.097706)"
NIBBLER,18556 WOODFIELD ROAD,GAITHERSBURG,MD,20879,HBW083,On Premise,NIBBLER INC.,"18556 WOODFIELD ROAD
GAITHERSBURG, MD 20879
(39.16112, -77.158917)"
PARTY TIME BEER & WINE,11443 GEORGIA AVE,SILVER SPRING,MD,20902,ABW095,Off Premise,NONE,"11443 GEORGIA AVE
SILVER SPRING, MD 20902
(39.042484, -77.05194)"
GRILLMARX STEAKHOUSE,18149 TOWN CENTER DRIVE,OLNEY,MD,20832,BBWLHR658,On Premise,"GRILLMARX, LLC","18149 TOWN CENTER DRIVE
OLNEY, MD 20832
(39.151736, -77.061839)"
JEWEL OF INDIA,10151 NEW HAMPSHIRE AVE,SILVER SPRING,MD,20903,BBWLHR661,On Premise,"JEWEL OF INDIA, CORP.","10151 NEW HAMPSHIRE AVE
SILVER SPRING, MD 20903
(39.021404, -76.976903)"
EL ENCANTO,"8035 SNOUFFER SCHOOL ROAD, #1",GAITHERSBURG,MD,20879,HBW19272,On Premise,"EL ENCANTO, INC.","8035 SNOUFFER SCHOOL ROAD, #1
GAITHERSBURG, MD 20879
(39.160773, -77.163002)"
VILLAGE CAFE,19230 MONTGOMERY VILLAGE AVE,MONTGOMERY VILLAGE,MD,20886,BBWLHR118,On Premise,MONTGOMERY VILLAGE PIZZA & PUB,"19230 MONTGOMERY VILLAGE AVE
MONTGOMERY VILLAGE, MD 20886
(39.172062, -77.203832)"
NEW KAM FONG RESTAURANT,"2400 UNIVERSITY BLVD, WEST",SILVER SPRING,MD,20902,HBW242,On Premise,"NEW KAM FONG RESTAURANT, INC.","2400 UNIVERSITY BLVD, WEST
SILVER SPRING, MD 20902
(39.041565, -77.050539)"
COUNTRY CHICKEN - POLLO SABROSO,11216 GRANDVIEW AVE,SILVER SPRING,MD,20902,BBWLHR69000,On Premise,MD CAMACO CORP.,"11216 GRANDVIEW AVE
SILVER SPRING, MD 20902
(39.038832, -77.052324)"
LEDO PIZZA - WHEATON,"2638 UNIVERSITY BLVD, WEST",SILVER SPRING,MD,20902,HBW176,On Premise,SHRI CORPORATION,"2638 UNIVERSITY BLVD, WEST
SILVER SPRING, MD 20902
(39.040721, -77.053876)"
ROSSMOOR LEISURE WORLD,3700 ROSSMOOR BLVD,SILVER SPRING,MD,20906,CBWLCC001,On Premise,"MARYLAND CLUBHOUSE SERV., INC.","3700 ROSSMOOR BLVD
SILVER SPRING, MD 20906
(39.10095, -77.074651)"
KOI ASIAN CUISINE,12046 CHERRY HILL RD,SILVER SPRING,MD,20904,BBWLHR21737,On Premise,"Jasmine Garden, LLC","12046 CHERRY HILL RD
SILVER SPRING, MD 20904
(39.054246, -76.953598)"
SAFFRON INDIAN CUISINE,1321-C ROCKVILLE PIKE,ROCKVILLE,MD,20852,BBWLHR20277,On Premise,"MARIA FOODS, INC","1321-C ROCKVILLE PIKE
ROCKVILLE, MD 20852
(39.068705, -77.130007)"
SEIBELS RESTAURANT,15540 OLD COLUMBIA PIKE,BURTONSVILLE,MD,20866,BBWLHR144,On Premise,"SEIBEL'S DAIRY BAR, INC.","15540 OLD COLUMBIA PIKE
BURTONSVILLE, MD 20866
(39.110479, -76.933921)"
MANOR COUNTRY CLUB,14901 CARROLTON ROAD,ROCKVILLE,MD,20853,CBWLCC017,On Premise,"MANOR COUNTRY CLUB, INC.","14901 CARROLTON ROAD
ROCKVILLE, MD 20853
(39.100316, -77.086427)"
WHITE OAK CONVENIENCE STORE,11407 LOCKWOOD DRIVE,SILVER SPRING,MD,20904,ABW159,Off Premise,WHITE OAK CONVENIENCE STORE,"11407 LOCKWOOD DRIVE
SILVER SPRING, MD 20904
(39.040695, -76.988389)"
PASSION FIN ASIAN BISTRO,4611 SANGAMORE ROAD,BETHESDA,MD,20816,BBWLHR722,On Premise,"PASSION SUSHI, INC.","4611 SANGAMORE ROAD
BETHESDA, MD 20816
(38.94866, -77.119725)"
IL PORTO,245 MUDDY BRANCH ROAD,GAITHERSBURG,MD,20878,BBWLHR235,On Premise,"JCD,INC.","245 MUDDY BRANCH ROAD
GAITHERSBURG, MD 20878
(39.129366, -77.20798)"
LEBANESE TAVERNA - BETHESDA,7141 ARLINGTON ROAD,BETHESDA,MD,20814,BBWLHR496,On Premise,"LEBANESE TAVERNA BETHESDA, INC","7141 ARLINGTON ROAD
BETHESDA, MD 20814
(38.982135, -77.098491)"
NANTUCKET'S REEF,9755 TRAVILLE GATEWAY DRIVE,ROCKVILLE,MD,20850,BBWLHR799,On Premise,"ACK RESTAURANT GROUP, LLC","9755 TRAVILLE GATEWAY DRIVE
ROCKVILLE, MD 20850
(39.091962, -77.203789)"
BOMBAY INDIAN RESTAURANT,11229 NEW HAMPSHIRE AVENUE,SILVER SPRING,MD,20904,HBW344,On Premise,"RAINE & RYAN, INC.","11229 NEW HAMPSHIRE AVENUE
SILVER SPRING, MD 20904
(39.040291, -76.99078)"
MI MARIACHI LATIN RESTAURANT,"2715 UNIVERSITY BLVD, WEST",SILVER SPRING,MD,20902,BBWLHR23047,On Premise,"MI MARIACHI LATIN RESTAURANT, INC","2715 UNIVERSITY BLVD, WEST
SILVER SPRING, MD 20902
(39.039582, -77.056347)"
BELLA MODA,10118 RIVER ROAD,POTOMAC,MD,20854,SBSBW18693,On Premise,DOGAN BEAUTY SALON LLC,"10118 RIVER ROAD
POTOMAC, MD 20854
(39.017801, -77.208746)"
SKKY MARKET,108 OLDE TOWNE AVE,GAITHERSBURG,MD,20877,ABWS125,Off Premise,"AYALA ANDRADE, INC.","108 OLDE TOWNE AVE
GAITHERSBURG, MD 20877
(39.140701, -77.194726)"
"STEVES BEER, WINE & DELI",12132 DARNESTOWN ROAD,GAITHERSBURG,MD,20878,DBW043,On/Off-Premise,MANHO CORPORATION,"12132 DARNESTOWN ROAD
GAITHERSBURG, MD 20878
(39.117525, -77.251935)"
FENWICK BEER & WINE,1327 FENWICK LANE,SILVER SPRING,MD,20910,DBW117,On/Off-Premise,"CAT MAN DO, INC.","1327 FENWICK LANE
SILVER SPRING, MD 20910
(38.996817, -77.032505)"
"ROLLINS BEER, WINE & DELI",151 ROLLINS AVE,ROCKVILLE,MD,20852,DBW031,On/Off-Premise,"EASTWARD, INC.","151 ROLLINS AVE
ROCKVILLE, MD 20852
(39.058698, -77.123729)"
CORK 57 BEER & WINE,4910 BETHESDA AVE,BETHESDA,MD,20814,DBW102,On/Off-Premise,NONE,"4910 BETHESDA AVE
BETHESDA, MD 20814
(38.980817, -77.098948)"
ATU TRAINING & EDUCATION CENTER,10000 NEW HAMPSHIRE AVENUE,SILVER SPRING,MD,20903,BBWLCT26487,On Premise,"ATU TRAINING & EDUCATION CEN, INC","10000 NEW HAMPSHIRE AVENUE
SILVER SPRING, MD 20903
(39.022221, -76.97755)"
I ROCK KARAOKE LOUNGE,15964 SHADY GROVE ROAD,GAITHERSBURG,MD,20877,DBWL001,On Premise,"BRICKSTONE, LLC","15964 SHADY GROVE ROAD
GAITHERSBURG, MD 20877
(39.118792, -77.182787)"
EL RINCONCITO CAFE,9423 GEORGIA AVE,SILVER SPRING,MD,20910,BBWLHR810,On Premise,EL RINCONCITO CAFE INC.,"9423 GEORGIA AVE
SILVER SPRING, MD 20910
(39.009162, -77.040419)"
POSITANO RISTORANTE ITALIANO,4940 FAIRMONT AVE,BETHESDA,MD,20814,BBWLHR171,On Premise,"MANGIARE, INC.","4940 FAIRMONT AVE
BETHESDA, MD 20814
(38.987611, -77.097439)"
SEVEN-ELEVEN STORE,14101 GEORGIA AVE.,SILVER SPRING,MD,20906,ABW100,Off Premise,MCMAHON-DENT INC.,"14101 GEORGIA AVE.
SILVER SPRING, MD 20906
(39.085052, -77.078294)"
BETHESDA ROW CAFE,7235 WOODMONT AVE,BETHESDA,MD,20814,BBWLHR777,On Premise,"CINEMA BEVERAGES HOLDING CO, L","7235 WOODMONT AVE
BETHESDA, MD 20814
(38.981345, -77.095615)"
THE STONEHOUSE GRILLE,18701 NORTH FREDERICK ROAD,GAITHERSBURG,MD,20879,BBWLHR822,On Premise,"MERALATA, INC.","18701 NORTH FREDERICK ROAD
GAITHERSBURG, MD 20879
(39.162363, -77.224722)"
GRAPESEED,4865 CORDELL AVE,BETHESDA,MD,20814,BBWLHR124,On Premise,"VIN RESTAURANT CONCEPTS ,INC.","4865 CORDELL AVE
BETHESDA, MD 20814
(38.989752, -77.097776)"
ZEN ASIAN GRILL SUSHI,15602 OLD COLUMBIA PIKE,BURTONSVILLE,MD,20866,BBWLHR654,On Premise,ZEN-AN CORPORATION,"15602 OLD COLUMBIA PIKE
BURTONSVILLE, MD 20866
(39.112066, -76.93258)"
BETE ETHIOPIAN CUISINE & CAFE,811 ROEDER ROAD,SILVER SPRING,MD,20910,HBW254,On Premise,"TADELECH ZEKELE DUBALE, INC.","811 ROEDER ROAD
SILVER SPRING, MD 20910
(38.997632, -77.025895)"
BARREL & CROW,4867 CORDELL AVENUE,BETHESDA,MD,20814,BBWLHR20279,On Premise,"FREDDY'S LOBSTER & CLAMS, LLC","4867 CORDELL AVENUE
BETHESDA, MD 20814
(38.989812, -77.097717)"
EL ANDARIEGO,5 OLNEY SANDY SPRING ROAD,ASHTON,MD,20861,BBWLHR111,On Premise,EL ANDARIEGO,"5 OLNEY SANDY SPRING ROAD
ASHTON, MD 20861
(39.149311, -77.012764)"
GOLF ULTRA LOUNGE,8123 GEORGIA AVE,SILVER SPRING,MD,20910,BBWLHR21250,On Premise,MXM LLC,"8123 GEORGIA AVE
SILVER SPRING, MD 20910
(38.991188, -77.026398)"
T.G.I. FRIDAYS - SILVER SPRING,12281 TECH ROAD,SILVER SPRING,MD,20904,BBWLHR366,On Premise,"ATLANTA RESTAURANT PARTNERS, L","12281 TECH ROAD
SILVER SPRING, MD 20904
(39.056538, -76.967159)"
PASSION NAIL SPA - CLARKSBURG,"12051 CHESTNUT BRANCH WAY, C-2",CLARKSBURG,MD,20871,SBSBW0004,On Premise,"KCD NGUYEN II, LLC","12051 CHESTNUT BRANCH WAY, C-2
CLARKSBURG, MD 20871
(39.231073, -77.251252)"
MANDALAY RESTAURANT & CAFE,930 BONIFANT STREET,SILVER SPRING,MD,20910,BBWLHR373,On Premise,"MANDALAY ENTERPRISES, INC.","930 BONIFANT STREET
SILVER SPRING, MD 20910
(38.993846, -77.0253)"
AL SOSPIRO TRATTORIA,18035 GEORGIA AVE,OLNEY,MD,20832,BBWLHR425,On Premise,TT & C LLC,"18035 GEORGIA AVE
OLNEY, MD 20832
(39.151658, -77.06672)"
SATSUMA,8003 NORFOLK AVE,BETHESDA,MD,20814,BBWLHR474,On Premise,"JAPAN RESTAURANT SERVICES,LLC","8003 NORFOLK AVE
BETHESDA, MD 20814
(38.989943, -77.098994)"
"GLENMONT BEER, WINE & DELI",12351 GEORGIA AVE,SILVER SPRING,MD,20906,ABW176,Off Premise,"JYL,INC.","12351 GEORGIA AVE
SILVER SPRING, MD 20906
(39.059317, -77.050221)"
PUENTE DE ORO RESTAURANT,11123 VEIRS MILL ROAD,SILVER SPRING,MD,20902,BBWLHR24387,On Premise,"CASTRO & CEDILLOS, INC","11123 VEIRS MILL ROAD
SILVER SPRING, MD 20902
(39.038047, -77.052296)"
TWINBROOK DELICATESSEN,2208 VEIRS MILL ROAD,ROCKVILLE,MD,20851,ABW148,Off Premise,SANAIE CORPORATION,"2208 VEIRS MILL ROAD
ROCKVILLE, MD 20851
(39.074665, -77.114546)"
FRIENDSHIP GOURMET MARKET,5550 FRIENDSHIP BLVD,CHEVY CHASE,MD,20815,DBW082,On/Off-Premise,"TAAF, LLC","5550 FRIENDSHIP BLVD
CHEVY CHASE, MD 20815
(38.964038, -77.089536)"
THE DISH & DRAM,10301 KENSINGTON PARKWAY,KENSINGTON,MD,20895,BKBWLHR26097,On Premise,"LEFTFORK, INC","10301 KENSINGTON PARKWAY
KENSINGTON, MD 20895
(39.024992, -77.071473)"
SAM'S PIZZA & SUBS,"RICHA ENTERPRISES, INC.",ROCKVILLE,MD,20855,DBW160,On/Off-Premise,15855 REDLAND ROAD,"RICHA ENTERPRISES, INC.
ROCKVILLE, MD 20855
"
NOVA EUROPA RESTAURANT,1311 LAMBERTON DRIVE,SILVER SPRING,MD,20902,BBWLHR091,On Premise,"NOVA EUROPA RESTURANT, INC.","1311 LAMBERTON DRIVE
SILVER SPRING, MD 20902
(39.040887, -77.029848)"
BROOKEVILLE FARMS COUNTRY INN,19501 GEORGIA AVE,BROOKEVILLE,MD,20833,BBWLHR186,On Premise,BKC LLC,"19501 GEORGIA AVE
BROOKEVILLE, MD 20833
(39.176469, -77.05827)"
MUSSEL BAR BY RW,7262 WOODMONT AVE,BETHESDA,MD,20814,BBWLHR592,On Premise,"BECMAR, LLC","7262 WOODMONT AVE
BETHESDA, MD 20814
(38.981963, -77.096055)"
DOMINIC'S ITALIAN GRILLE,12854 NEW HAMPSHIRE AVE,SILVER SPRING,MD,20904,BBWLHR804,On Premise,"PATRON ENTERPRISES, LLC","12854 NEW HAMPSHIRE AVE
SILVER SPRING, MD 20904
(39.066292, -77.000959)"
DIAMOND SQUARE BEER & WINE,38 BUREAU DRIVE,GAITHERSBURG,MD,20878,ABWS283,Off Premise,"J&J BEER AND WINE, INC.","38 BUREAU DRIVE
GAITHERSBURG, MD 20878
(39.143446, -77.217086)"
BACCHUS OF LEBANON,7945 NORFOLK AVE,BETHESDA,MD,20814,BBWLHR230,On Premise,"U.H.B., INC.","7945 NORFOLK AVE
BETHESDA, MD 20814
(38.989702, -77.098601)"
ANTOJITOS RESTAURANT,"12 EAST DIAMOND AVE, UNIT E",GAITHERSBURG,MD,20877,BDBWLHR1062189,On Premise,"ANTOJITOS RESTAURANT, INC.","12 EAST DIAMOND AVE, UNIT E
GAITHERSBURG, MD 20877
(39.141704, -77.198236)"
PETER CHANG'S CHINA BISTRO,20-A MARYLAND AVENUE,ROCKVILLE,MD,20850,HBW20013,On Premise,"PETER CHANGE NINE, LLC","20-A MARYLAND AVENUE
ROCKVILLE, MD 20850
(39.07961, -77.154652)"
QUINCYS SOUTH BAR & GRILLE,11401 WOODGLEN DRIVE,ROCKVILLE,MD,20852,BBWLHR831,On Premise,"THE RAT PACK OF MD, LLC","11401 WOODGLEN DRIVE
ROCKVILLE, MD 20852
(39.043577, -77.113422)"
QUICK STOP BEER & WINE,"21101 FREDERICK ROAD, UNIT A",GERMANTOWN,MD,20876,ABWS267,Off Premise,"LEW LIQUORS, LLC.","21101 FREDERICK ROAD, UNIT A
GERMANTOWN, MD 20876
(39.203746, -77.245729)"
POLLO-MEX,13436 NEW HAMPSHIRE AVE,SILVER SPRING,MD,20904,BBWLHR659,On Premise,"LATIN FLAVOR GROUP, INC.","13436 NEW HAMPSHIRE AVE
SILVER SPRING, MD 20904
(39.07648, -77.001881)"
TAKOMA PARK SILVER SPRING COOP,201 ETHAN ALLEN AVENUE,TAKOMA PARK,MD,20912,ABWS21343,Off Premise,TAKOMA PARK SILVER SPRING COOP,"201 ETHAN ALLEN AVENUE
TAKOMA PARK, MD 20912
(38.978047, -77.005855)"
CAVA MEZZE GRILL,4832 BETHESDA AVE,BETHESDA,MD,20814,BBWLHR633,On Premise,"CAVAMEZZE GRILL BETHESDA, LLC","4832 BETHESDA AVE
BETHESDA, MD 20814
(38.980905, -77.096705)"
TARA ASIA,"199 EAST MONTGOMERY AVE, UNIT D",ROCKVILLE,MD,20850,BBWLHR130,On Premise,"TARA ASIA, INC.","199 EAST MONTGOMERY AVE, UNIT D
ROCKVILLE, MD 20850
(39.084089, -77.150358)"
LOS COBANOS RESTAURANT,11210 GRANDVIEW AVE,SILVER SPRING,MD,20902,BBWLHR008,On Premise,"MERSAL, INC.","11210 GRANDVIEW AVE
SILVER SPRING, MD 20902
(39.038672, -77.052318)"
KENWOOD GOLF & COUNTRY CLUB,5601 RIVER ROAD,BETHESDA,MD,20816,CBWLCC014,On Premise,"KENWOOD GOLF & CC., INC.","5601 RIVER ROAD
BETHESDA, MD 20816
(38.970382, -77.114403)"
DOGFISH HEAD ALEHOUSE,800 W. DIAMOND AVE,GAITHERSBURG,MD,20878,BBWLHR337,On Premise,"JMGM GROUP, LLC","800 W. DIAMOND AVE
GAITHERSBURG, MD 20878
(39.141584, -77.217209)"
SMOKE BBQ,4858 CORDELL AVE,BETHESDA,MD,20814,BBWLHR756,On Premise,"DESIGNS BY M, LLP","4858 CORDELL AVE
BETHESDA, MD 20814
(38.990235, -77.097299)"
SOLE D'ITALIA RESTAURANT,14324 LAYHILL ROAD,SILVER SPRING,MD,20906,BBWLHR286,On Premise,"ANTONICOLA, INC.","14324 LAYHILL ROAD
SILVER SPRING, MD 20906
(39.09091, -77.044945)"
BEER & WINE INTERNATIONAL,"4011 NORBECK ROAD, UNIT B",ROCKVILLE,MD,20853,ABW218,Off Premise,"AKSHAT, LLC","4011 NORBECK ROAD, UNIT B
ROCKVILLE, MD 20853
(39.109483, -77.077695)"
EZ MART & CAFE,5901 MONTROSE ROAD,ROCKVILLE,MD,20852,DBW274,On/Off-Premise,"RICHA LLC,","5901 MONTROSE ROAD
ROCKVILLE, MD 20852
(39.052973, -77.1192)"
TIA OCHI,806 BALTIMORE ROAD,ROCKVILLE,MD,20851,DBW012,On/Off-Premise,"TIA OCHI, INC.","806 BALTIMORE ROAD
ROCKVILLE, MD 20851
(39.084451, -77.135265)"
WHEATON WINERY,"2211 UNIVERSITY BLVD, WEST, UNIT B",SILVER SPRING,MD,20902,ABW139,Off Premise,JOHNNY & PRUM INC.,"2211 UNIVERSITY BLVD, WEST, UNIT B
SILVER SPRING, MD 20902
(39.041539, -77.049039)"
DON RAMON RESTAURANT,13816 OLD COLUMBIA PIKE,SILVER SPRING,MD,20904,BBWLHR22080,On Premise,"RC ARBAIZA ENTERPRISE, INC","13816 OLD COLUMBIA PIKE
SILVER SPRING, MD 20904
(39.083266, -76.952083)"
SILVER SPRING HILTON HOTEL,8727 COLESVILLE ROAD,SILVER SPRING,MD,20910,BBWLHM017,On Premise,HOSPITALITY ASSOCIATES OF SS,"8727 COLESVILLE ROAD
SILVER SPRING, MD 20910
(38.998592, -77.02633)"
TANDOORI NIGHTS,106 MARKET STREET,GAITHERSBURG,MD,20878,BBWLHR696,On Premise,"DLV, LLC.","106 MARKET STREET
GAITHERSBURG, MD 20878
(39.122874, -77.234917)"
FAMILY MARKET,15432 NEW HAMPSHIRE AVE,SILVER SPRING,MD,20905,ABW056,Off Premise,"BAGZ,INC.","15432 NEW HAMPSHIRE AVE
SILVER SPRING, MD 20905
(39.109082, -76.99748)"
RUANG KHAO THAI CUISINE,939 BONIFANT STREET,SILVER SPRING,MD,20910,BBWHR24321,On/Off-Premise,TON KHAO RESTAURANT THAI CUISINE,"939 BONIFANT STREET
SILVER SPRING, MD 20910
(38.993884, -77.025216)"
FUDDRUCKERS,"1592 ROCKVILLE PIKE, UNIT A",ROCKVILLE,MD,20852,BBWLHR643,On Premise,LUBY'S FUDDRUCKERS RESTAURANTS,"1592 ROCKVILLE PIKE, UNIT A
ROCKVILLE, MD 20852
(39.062807, -77.124766)"
IRISH INN AT GLEN ECHO,6119 TULANE AVE,GLEN ECHO,MD,20812,BBWLHR101,On Premise,"BALLYMAHON, CORP.","6119 TULANE AVE
GLEN ECHO, MD 20812
(38.965169, -77.137015)"
CHIPOTLE MEXICAN GRILL - KENTLANDS,96 MAIN STREET,GAITHERSBURG,MD,20878,BBWLHR541,On Premise,CHIPOTLE MEXICAN GRILL OF MARY,"96 MAIN STREET
GAITHERSBURG, MD 20878
(39.124758, -77.237171)"
DEMPSEYS OF ASHTON,1 OLNEY SANDY SPRING ROAD,ASHTON,MD,20861,BBWLHR731,On Premise,IRM SLONIN INC MICHAEL SLONIN,"1 OLNEY SANDY SPRING ROAD
ASHTON, MD 20861
(39.149308, -77.01288)"
LAREDO GRILLE,347 MUDDY BRANCH ROAD,GAITHERSBURG,MD,20878,BBWLHR258,On Premise,LAREDO GRILLE INC.,"347 MUDDY BRANCH ROAD
GAITHERSBURG, MD 20878
(39.126948, -77.210595)"
CONVENIENCE EXPRESS,948 WAYNE AVE,SILVER SPRING,MD,20910,ABW030,Off Premise,"JOACHIM & JOYCE, INC.","948 WAYNE AVE
SILVER SPRING, MD 20910
(38.994573, -77.025832)"
RENATO'S @ RIVER FALLS,10120 RIVER ROAD,POTOMAC,MD,20854,BBWLHR1051306,On Premise,POTOMAC RESTAURANT GROUP,"10120 RIVER ROAD
POTOMAC, MD 20854
(39.017785, -77.208722)"
DON POLLO OF GAITHERSBURG,9083 GAITHER ROAD,GAITHERSBURG,MD,20878,BBWLHR18665,On Premise,"DON POLLO OF GAITHERSBURG, INC","9083 GAITHER ROAD
GAITHERSBURG, MD 20878
(39.117542, -77.185807)"
LESAAC CAFE,8200 FENTON STREET,SILVER SPRING,MD,20910,BBWLHR708,On Premise,LESAAC INC.,"8200 FENTON STREET
SILVER SPRING, MD 20910
(38.99189, -77.024021)"
THE BURGER JOINT - GAITHERSBURG,229 BOARD WALK PLACE,GAITHERSBURG,MD,20878,BBWLHR726,On Premise,"BGR WASHINGTONIAN, LLC","229 BOARD WALK PLACE
GAITHERSBURG, MD 20878
(39.116834, -77.198406)"
QUENCH! BEER & WINE,13423 NEW HAMPSHIRE AVE,SILVER SPRING,MD,20904,BDBWLHR1056030,On/Off-Premise,"BREW 1729, INC.","13423 NEW HAMPSHIRE AVE
SILVER SPRING, MD 20904
(39.07618, -77.001741)"
QUALITY BEER & WINE,13826 OLD COLUMBIA PIKE,SILVER SPRING,MD,20904,ABW1071811,Off Premise,"BONG & KWON, INC","13826 OLD COLUMBIA PIKE
SILVER SPRING, MD 20904
(39.083744, -76.951534)"
DERWOOD BEER & WINE,17601 REDLAND ROAD,DERWOOD,MD,20855,DBW133,On/Off-Premise,"SUBH LAXMI, INC.","17601 REDLAND ROAD
DERWOOD, MD 20855
(39.143931, -77.144644)"
LAKEWOOD COUNTRY CLUB,13901 GLEN MILL ROAD,ROCKVILLE,MD,20850,CBWLCC015,On Premise,LAKEWOOD COUNTRY CLUB INC,"13901 GLEN MILL ROAD
ROCKVILLE, MD 20850
(39.08403, -77.197986)"
SN BEER & WINE,12801 WISTERIA DRIVE,GERMANTOWN,MD,20874,ABW173,Off Premise,SONG SAKANIN CORPORATION,"12801 WISTERIA DRIVE
GERMANTOWN, MD 20874
(39.176372, -77.269216)"
BEST WESTERN MOTEL,1251 WEST MONTGOMERY AVE,ROCKVILLE,MD,20850,BBWLHM010,On Premise,ROCKVILLE MOTEL ASSOCIATES LLC,"1251 WEST MONTGOMERY AVE
ROCKVILLE, MD 20850
(39.089189, -77.177707)"
PLAZA AZTECA RESTAURANT,10430 AUTO PARK AVE,BETHESDA,MD,20817,BBWLHR527,On Premise,"CASA AZTECCA RESTAURANT, INC.","10430 AUTO PARK AVE
BETHESDA, MD 20817
(39.027186, -77.14547)"
GHAR-E-KABAB,944 WAYNE AVE,SILVER SPRING,MD,20910,HBW161,On Premise,"GHAR-E-KABAB, LLC","944 WAYNE AVE
SILVER SPRING, MD 20910
(38.994607, -77.025742)"
LA BAMBA,8241 GEORGIA AVE,SILVER SPRING,MD,20910,HBW053,On Premise,"LA BAMBA, INC.","8241 GEORGIA AVE
SILVER SPRING, MD 20910
(38.992811, -77.026557)"
SUSHIKO CHEVY CHASE,5455 WISCONSIN AVENUE,CHEVY CHASE,MD,20815,BBWLHR851,On Premise,"SUSHIKO CHEVY CHASE, LLC.","5455 WISCONSIN AVENUE
CHEVY CHASE, MD 20815
(38.963042, -77.086756)"
"BEER, WINE, & CO.",7029 WISCONSIN AVE,CHEVY CHASE,MD,20815,DBW22948,On/Off-Premise,"GOLDEN TRADE, LLC","7029 WISCONSIN AVE
CHEVY CHASE, MD 20815
(38.979875, -77.091974)"
SALA THAI BETHESDA,4828 CORDELL AVE,BETHESDA,MD,20814,BBWLHR178,On Premise,"JA-ROEN-D, INC.","4828 CORDELL AVE
BETHESDA, MD 20814
(38.990601, -77.096937)"
EN BISTRO AND SUSHI,9945 FALLS ROAD,POTOMAC,MD,20854,BBWHR18910,On/Off-Premise,EN BISTRO POTOMAC LLC,"9945 FALLS ROAD
POTOMAC, MD 20854
(39.018513, -77.208723)"
YUZU,"7345 WISCONSIN AVE, UNIT B",BETHESDA,MD,20814,BBWLHR783,On Premise,"GINZA GAKYU, LLC","7345 WISCONSIN AVE, UNIT B
BETHESDA, MD 20814
(38.983055, -77.093489)"
TIA QUETA RESTAURANT,4839 DEL RAY AVE,BETHESDA,MD,20814,BBWLHR160,On Premise,"TIA QUETA RESTAURANT, INC.","4839 DEL RAY AVE
BETHESDA, MD 20814
(38.990098, -77.098623)"
LOTUS CAFE,8077 GEORGIA AVE,SILVER SPRING,MD,20910,BBWLHR635,On Premise,"BAC LIEU, INC.","8077 GEORGIA AVE
SILVER SPRING, MD 20910
(38.989915, -77.026572)"
IL FORNO II/METRO DHABA,8941 N WESTLAND DRIVE,GAITHERSBURG,MD,20877,HBW069,On Premise,JAI & NAYAR LLC,"8941 N WESTLAND DRIVE
GAITHERSBURG, MD 20877
(39.128425, -77.184365)"
MARINA'S POLLO A LA BRASA,13820 OLD COLUMBIA PIKE,SILVER SPRING,MD,20904,BBWLHR414,On Premise,"ARMONIA, LLC","13820 OLD COLUMBIA PIKE
SILVER SPRING, MD 20904
(39.083685, -76.951593)"
SAFEWAY,3333 SPARTAN ROAD,OLNEY,MD,20832,ABWS18689,Off Premise,"NAI SATUEN EASTERN, LLC","3333 SPARTAN ROAD
OLNEY, MD 20832
(39.150058, -77.065238)"
MIX BAR & GRILLE,9812 FALLS ROAD,POTOMAC,MD,20854,BBWLHR303,On Premise,"BFJ RESTAURANTS, LLC","9812 FALLS ROAD
POTOMAC, MD 20854
(39.016792, -77.210355)"
EL AGUILA - GEORGIA AVENUE,7926 GEORGIA AVENUE,SILVER SPRING,MD,20910,BBWLHR840,On Premise,"JID, LLC","7926 GEORGIA AVENUE
SILVER SPRING, MD 20910
(38.985759, -77.026642)"
AMERICAN LEGION POST #86,2013 VEIRS MILL ROAD,ROCKVILLE,MD,20851,CBWLFV016,On Premise,"HENDERSON-SMITH-EDMONDS#86, INC","2013 VEIRS MILL ROAD
ROCKVILLE, MD 20851
(39.075188, -77.116441)"
WILLIAMS BEER & WINE,15440 OLD COLUMBIA PIKE,BURTONSVILLE,MD,20866,ABW170,Off Premise,KUSH P. CORP.,"15440 OLD COLUMBIA PIKE
BURTONSVILLE, MD 20866
(39.109308, -76.935328)"
FOX HILL CLUB & RESIDENCES,8300 BURDETTE ROAD,BETHESDA,MD,20817,BBWLHR800,On Premise,"SUNRISE BETHESDA (SL-AU), LLC","8300 BURDETTE ROAD
BETHESDA, MD 20817
(38.992678, -77.150858)"
REDMILL MARKET BEER & WINE,7248 MUNCASTER MILL ROAD,DERWOOD,MD,20855,DBW090,On/Off-Premise,"SR GROUP, INC.","7248 MUNCASTER MILL ROAD
DERWOOD, MD 20855
(39.146431, -77.145579)"
LUKE'S LOBSTER,7129 BETHESDA LANE,BETHESDA,MD,20814,DBW147,On/Off-Premise,LUKE'S LOBSTER X LLC,"7129 BETHESDA LANE
BETHESDA, MD 20814
(38.981922, -77.09783)"
LANCE'S BEER & WINE,4701 MILLER AVE,BETHESDA,MD,20814,DBW120,On/Off-Premise,"GUTHWORKS, LLC","4701 MILLER AVE
BETHESDA, MD 20814
(38.980608, -77.092503)"
CHAPALA RESTAURANT,"15530 OLD COLUMBIA PIKE, UNIT B",BURTONSVILLE,MD,20866,BBWLHR068,On Premise,"CHAPALA RESTAURANT, INC","15530 OLD COLUMBIA PIKE, UNIT B
BURTONSVILLE, MD 20866
(39.110257, -76.934196)"
FLOWER HILL BEER & WINE,18253 FLOWER HILL WAY,GAITHERSBURG,MD,20879,ABW092,Off Premise,"HBJ, INC","18253 FLOWER HILL WAY
GAITHERSBURG, MD 20879
(39.155794, -77.164963)"
YU-ZHOU CAFE,576 NORTH FREDERICK AVE,GAITHERSBURG,MD,20877,HBW288,On Premise,LLDC GROUP INC.,"576 NORTH FREDERICK AVE
GAITHERSBURG, MD 20877
(39.149643, -77.208608)"
LEDO PIZZA - GERMANTOWN,"12619 WISTERIA DRIVE, UNIT B",GERMANTOWN,MD,20874,HBW024,On Premise,"JABELLA, INC.","12619 WISTERIA DRIVE, UNIT B
GERMANTOWN, MD 20874
(39.169977, -77.261737)"
INDIA PALACE BAR & TANDOOR,19743 FREDERICK ROAD,GERMANTOWN,MD,20876,BBWLHR380,On Premise,SIMRAN INC,"19743 FREDERICK ROAD
GERMANTOWN, MD 20876
(39.178418, -77.238433)"
CLARKSBURG BEER & WINE,23329 FREDERICK ROAD,CLARKSBURG,MD,20871,ABW025,Off Premise,"APOLLO GROUP,LLC","23329 FREDERICK ROAD
CLARKSBURG, MD 20871
(39.23888, -77.279526)"
POTOMAC PIZZA - GAITHERSBURG,625 CENTER POINT WAY,GAITHERSBURG,MD,20878,BBWLHR006,On Premise,"PIZZA ZONE OF KENTLANDS, INC.","625 CENTER POINT WAY
GAITHERSBURG, MD 20878
(39.121914, -77.234481)"
NEW YORK J & P PIZZA,26027 RIDGE ROAD,DAMASCUS,MD,20872,HBW309,On Premise,ROMA INC.,"26027 RIDGE ROAD
DAMASCUS, MD 20872
(39.285041, -77.209743)"
UNPLUGGED SPORT BAR & RESTAURANT,11305-C GEORGIA AVE,WHEATON,MD,20902,BBWLHR23147,On Premise,"UNPLUGGED SPORT BAR & REST., INC","11305-C GEORGIA AVE
WHEATON, MD 20902
(39.040455, -77.051351)"
HUNAN DELIGHT,18220 VILLAGE CENTER DRIVE,OLNEY,MD,20832,BBWLHR043,On Premise,"JETTA CHINESE RESTAURANT, INC.","18220 VILLAGE CENTER DRIVE
OLNEY, MD 20832
(39.152915, -77.063387)"
VFW POST #9862,211 NORTH FREDERICK AVE,GAITHERSBURG,MD,20879,CBWLFV014,On Premise,VETERANS OF FOREIGN WARS #9862,"211 NORTH FREDERICK AVE
GAITHERSBURG, MD 20879
(39.144255, -77.201986)"
SHERATON - SILVER SPRING,8777 GEORGIA AVE,SILVER SPRING,MD,20910,BBWLHM216,On Premise,"IC SILVER SPRING, LLC","8777 GEORGIA AVE
SILVER SPRING, MD 20910
(38.998936, -77.031138)"
EL BOQUERON REST. NIGHT CLUB II,1330 EAST GUDE DRIVE,ROCKVILLE,MD,20850,BBWLHR320,On Premise,COMTRERAS ENTERPRISES INC.,"1330 EAST GUDE DRIVE
ROCKVILLE, MD 20850
(39.096901, -77.135288)"
CAFE 20/20,4870 BOILING BROOK PARKWAY,ROCKVILLE,MD,20852,BBWLHR479,On Premise,"JON & KIM, INC.","4870 BOILING BROOK PARKWAY
ROCKVILLE, MD 20852
(39.047135, -77.098247)"
TJ LIQUOR STORE,7669 NEW HAMPSHIRE AVENUE,TAKOMA PARK,MD,20912,ABWLTP002,Off Premise,KKR KIM. INC.,"7669 NEW HAMPSHIRE AVENUE
TAKOMA PARK, MD 20912
(38.987682, -76.98777)"
SPRING GARDEN RESTAURANT,8613 16TH STREET,SILVER SPRING,MD,20910,HBW076,On Premise,"WHZ, INC.","8613 16TH STREET
SILVER SPRING, MD 20910
(38.997779, -77.037869)"
NOODLES & COMPANY - BETHESDA,7101 DEMOCRACY BLVD,BETHESDA,MD,20817,BBWLHR556,On Premise,"THE NOODLE SHOP, CO.- MARYLAND","7101 DEMOCRACY BLVD
BETHESDA, MD 20817
(39.0242, -77.1459)"
WOODMONT DELI,8225 WOODMONT AVE,BETHESDA,MD,20814,DBW051,On/Off-Premise,WOODMONT DELI CORPORATION,"8225 WOODMONT AVE
BETHESDA, MD 20814
(38.992411, -77.096996)"
SARDI'S POLLO A LA BRASA,430 NORTH FREDERICK AVE,GAITHERSBURG,MD,20877,BBWLHR599,On Premise,"SARDI'S CHICKEN II, INC.","430 NORTH FREDERICK AVE
GAITHERSBURG, MD 20877
(39.147395, -77.205776)"
TOTAL BEER & WINE,405 NORTH FREDERICK AVENUE,GAITHERSBURG,MD,20877,ABW277,Off Premise,"A-PLUS GROUPS LTD, INC.","405 NORTH FREDERICK AVENUE
GAITHERSBURG, MD 20877
(39.145969, -77.20406)"
ERTTERS MARKET,521 DALE DR.,SILVER SPRING,MD,20910,ABW005,Off Premise,"HAHNS ERTTERS, INC.","521 DALE DR.
SILVER SPRING, MD 20910
(39.000175, -77.017563)"
FRATERNAL ORDER OF EAGLES #3509,15966 SHADY GROVE ROAD,GAITHERSBURG,MD,20877,CBWLFV008,On Premise,"GAITHERSBURG AERIE #3509, INC.","15966 SHADY GROVE ROAD
GAITHERSBURG, MD 20877
(39.11882, -77.182767)"
WOOMI GARDEN KOREAN JAPANESE REST.,2423 HICKERSON DRIVE,SILVER SPRING,MD,20902,BBWLHR618,On Premise,"YSK RESTAURANT, INC.","2423 HICKERSON DRIVE
SILVER SPRING, MD 20902
(39.04235, -77.051066)"
AMERICAN LEGION POST #41,905 SLIGO AVE,SILVER SPRING,MD,20910,CBWLFV012,On Premise,"CISSEL-SAXON POST #41, INC.","905 SLIGO AVE
SILVER SPRING, MD 20910
(38.990209, -77.024654)"
RAKU AN ASIAN DINER,7240 WOODMONT AVE,BETHESDA,MD,20814,BBWLHR263,On Premise,"D.G. HOLDINGS , INC.","7240 WOODMONT AVE
BETHESDA, MD 20814
(38.981858, -77.096025)"
AY! JALISCO,8401 SNOUFFER SCHOOL ROAD,GAITHERSBURG,MD,20879,BBWLHR187,On Premise,"ABI II, INC.","8401 SNOUFFER SCHOOL ROAD
GAITHERSBURG, MD 20879
(39.167014, -77.172286)"
BATIK ASIAN CUISINE/DUMPLING BAR,200 MAIN STREET,GAITHERSBURG,MD,20878,HBW244,On Premise,ICHTHYS CORPORATION,"200 MAIN STREET
GAITHERSBURG, MD 20878
(39.123041, -77.23857)"
CHAMPION,7912 GEORGIA AVENUE,SILVER SPRING,MD,20910,BBWLHR821,On Premise,"EXOB & ADDISU, LLC","7912 GEORGIA AVENUE
SILVER SPRING, MD 20910
(38.985537, -77.026635)"
SAMANTHA'S,631 UNIVERSITY BLVD EAST,SILVER SPRING,MD,20901,BBWLHR117,On Premise,GARCIA'S & VENTURA'S INC.,"631 UNIVERSITY BLVD EAST
SILVER SPRING, MD 20901
(39.000482, -76.995644)"
ARIRANG RESTAURANT,1314 EAST GUDE DRIVE,ROCKVILLE,MD,20850,BBWLHR020,On Premise,PLEROMA INC.,"1314 EAST GUDE DRIVE
ROCKVILLE, MD 20850
(39.097026, -77.135469)"
PACCI'S BRICK OVEN PIZZERIA,8113 GEORGIA AVE,SILVER SPRING,MD,20910,BBWLHR679,On Premise,"PACCI'S BRICK OVEN PIZZA, LLC","8113 GEORGIA AVE
SILVER SPRING, MD 20910
(38.990912, -77.026393)"
CHIPOTLE MEXICAN GRILL - GAITH,"564 NORTH FREDERICK AVE, UNIT4",GAITHERSBURG,MD,20877,BBWLHR315,On Premise,CHIPOLTE MEXICAN GRILL OF MD L,"564 NORTH FREDERICK AVE, UNIT4
GAITHERSBURG, MD 20877
(39.149656, -77.208624)"
CUBAN CORNER,825 HUNGERFORD DRIVE,ROCKVILLE,MD,20850,BBWLHR405,On Premise,BICANA INC.,"825 HUNGERFORD DRIVE
ROCKVILLE, MD 20850
(39.094798, -77.153222)"
RED MAPLE RESTAURANT,10110 COLESVILLE ROAD,SILVER SPRING,MD,20901,BBWLHR742,On Premise,"RED MAPLE ASSOCIATES, LLC","10110 COLESVILLE ROAD
SILVER SPRING, MD 20901
(39.020604, -77.012589)"
WOODMONT GRILL,7715 WOODMONT AVE,BETHESDA,MD,20814,BBWLHR241,On Premise,"HILLSTONE RESTAURANT GROUP,INC","7715 WOODMONT AVE
BETHESDA, MD 20814
(38.987858, -77.095985)"
VEGETABLE GARDEN,3830 INTERNATIONAL DRIVE,SILVER SPRING,MD,20906,HBW338,On Premise,"VEGETABLE GARDEN, INC","3830 INTERNATIONAL DRIVE
SILVER SPRING, MD 20906
(39.103685, -77.075753)"
KOREAN KORNER,12207 VEIRS MILL ROAD,SILVER SPRING,MD,20906,ABW107,Off Premise,YOUNG NAM AND SUN HYANG NAM,"12207 VEIRS MILL ROAD
SILVER SPRING, MD 20906
(39.056376, -77.08277)"
MAPLE BEER AND WINE,8125 WISCONSIN AVENUE,BETHESDA,MD,20814,ABWS22685,Off Premise,"MY 523, LLC","8125 WISCONSIN AVENUE
BETHESDA, MD 20814
(38.991734, -77.095714)"
NANDO'S PERI PERI - BETHESDA,4839 BETHESDA AVE,BETHESDA,MD,20814,BBWLHR681,On Premise,"NANDO'S OF BETHESDA, LLC","4839 BETHESDA AVE
BETHESDA, MD 20814
(38.980903, -77.097128)"
VINO VOLO,7243 WOODMONT AVE,BETHESDA,MD,20814,DBW145,On/Off-Premise,"VINO VOLO BETHESDA, LLC","7243 WOODMONT AVE
BETHESDA, MD 20814
(38.981427, -77.095716)"
HOUSE OF MILAE,4932 SAINT ELMO AVENUE,BETHESDA,MD,20814,HBW326,On Premise,"LYON & MILAE, LLC","4932 SAINT ELMO AVENUE
BETHESDA, MD 20814
(38.98798, -77.098225)"
TACO MEX RESTAURANT,13830 OLD COLUMBIA PIKE,SILVER SPRING,MD,20904,BBWLHR284,On Premise,"ERICK & EDWIN, INC.","13830 OLD COLUMBIA PIKE
SILVER SPRING, MD 20904
(39.083754, -76.951524)"
"KEMP MILL BEER, WINE & DELI",1339 LAMBERTON DRIVE,SILVER SPRING,MD,20902,ABWS067,Off Premise,"JAI SHREE GANESH, INC.","1339 LAMBERTON DRIVE
SILVER SPRING, MD 20902
(39.040946, -77.029706)"
FANTASY NAIL SPA,9321 GEORGIA AVE,SILVER SPRING,MD,20910,SBSBW23745,On Premise,FANTASY NAIL SPA 9321 INC,"9321 GEORGIA AVE
SILVER SPRING, MD 20910
(39.00807, -77.040011)"
BONCHON CHICKEN,"107 GIBBS STREET, UNIT A",ROCKVILLE,MD,20850,BBWLHR760,On Premise,"CLWY, LLC.","107 GIBBS STREET, UNIT A
ROCKVILLE, MD 20850
(39.086479, -77.15198)"
PANSA LLENA,"11279 NEW HAMPSHIRE AVE, UNIT A",SILVER SPRING,MD,20904,BBWLHR473,On Premise,"RED GROUP, INC.","11279 NEW HAMPSHIRE AVE, UNIT A
SILVER SPRING, MD 20904
(39.040354, -76.990808)"
WYNDHAM GARDEN HOTEL,805 RUSSELL AVENUE,GAITHERSBURG,MD,20879,BBWLHM220,On Premise,"ROCKVILLE LEGACY SERVICES, LLC","805 RUSSELL AVENUE
GAITHERSBURG, MD 20879
(39.155868, -77.21094)"
LA RUMBA RESTAURANT,2311 PRICE AVE,SILVER SPRING,MD,20902,BBWLHR703,On Premise,"PORSAN CORPORATION, INC","2311 PRICE AVE
SILVER SPRING, MD 20902
(39.040298, -77.050405)"
CLYDE'S TOWER OAKS LODGE,2 PRESERVE PARKWAY,ROCKVILLE,MD,20852,BBWLHR339,On Premise,CLYDE'S TOWER OAKS LODGE LLC,"2 PRESERVE PARKWAY
ROCKVILLE, MD 20852
(39.063277, -77.150736)"
SAKURA JAPANESE STEAK & SEAFOOD,11502 MIDDLEBROOK ROAD,GERMANTOWN,MD,20876,BBWLHR116,On Premise,GERMANTOWN SAKURA INC,"11502 MIDDLEBROOK ROAD
GERMANTOWN, MD 20876
(39.180222, -77.239591)"
AMALFI RISTORANTE,12307 WILKINS AVE,ROCKVILLE,MD,20852,BBWLHR013,On Premise,AMALFI RISTORANTE ITALIANO INC,"12307 WILKINS AVE
ROCKVILLE, MD 20852
(39.057965, -77.112933)"
FOUR STREAMS,19501 DARNESTOWN ROAD,BEALLSVILLE,MD,20839,CBWLCC023,On Premise,"FOUR STREAMS, LLC.","19501 DARNESTOWN ROAD
BEALLSVILLE, MD 20839
(39.176292, -77.407886)"
BJ'S BEER & WINE,20032 GOSHEN ROAD,GAITHERSBURG,MD,20879,ABW156,Off Premise,KIM GALAXY INC,"20032 GOSHEN ROAD
GAITHERSBURG, MD 20879
(39.186868, -77.187081)"
COURTYARD BY MARRIOTT-ROCKVILLE,2500 RESEARCH BOULEVARD,ROCKVILLE,MD,20850,BBWLHM19293,On Premise,COURTYARD MANAGEMENT INC.,"2500 RESEARCH BOULEVARD
ROCKVILLE, MD 20850
(39.104654, -77.188343)"
EL AMATE RESTAURANT,11452 CHERRY HILL ROAD,BELTSVILLE,MD,20705,BBWLHR172,On Premise,"EL AMATE RESTAURANT, INC.","11452 CHERRY HILL ROAD
BELTSVILLE, MD 20705
(39.044095, -76.951304)"
RESIDENCE INN - BETHESDA,7335 WISCONSIN AVE,BETHESDA,MD,20814,BBWLHR735,On Premise,"RLJ R BETHESDA LESSEE, LLC","7335 WISCONSIN AVE
BETHESDA, MD 20814
(38.982817, -77.093375)"
WAYSIDE FARM MARKET,11790 CHERRY HILL ROAD,SILVER SPRING,MD,20904,ABW065,Off Premise,YINGROUY CORPORATION,"11790 CHERRY HILL ROAD
SILVER SPRING, MD 20904
(39.047177, -76.952061)"
TAKO GRILL,4914 HAMPDEN LANE,BETHESDA,MD,20814,BBWLHR311,On Premise,S.K.O. CORPORATION,"4914 HAMPDEN LANE
BETHESDA, MD 20814
(38.982686, -77.096889)"
GREEN BAMBOO ASIAN BISTRO,"5751 FISHERS LANE, UNIT F",ROCKVILLE,MD,20852,BBWLHR656,On Premise,"YEUNG ENTERPRISE, LLC","5751 FISHERS LANE, UNIT F
ROCKVILLE, MD 20852
(39.062749, -77.11774)"
WASHINGTONIAN CENTER MARRIOTT,9751 WASHINGTONIAN BLVD,GAITHERSBURG,MD,20878,BBWLHM011,On Premise,MARRIOTT CORPORATION,"9751 WASHINGTONIAN BLVD
GAITHERSBURG, MD 20878
(39.113941, -77.194334)"
7 LOCKS BREWING,12227 WILKINS AVENUE,ROCKVILLE,MD,20852,DBW21275,On/Off-Premise,"SLIGO MILL BREWING COMPANY, LLC","12227 WILKINS AVENUE
ROCKVILLE, MD 20852
(39.056019, -77.111787)"
MAMMA LUCIA - BETHESDA,4916 ELM STREET,BETHESDA,MD,20814,BBWLHR385,On Premise,"MAMMA LUCIA OF BETHESDA, INC.","4916 ELM STREET
BETHESDA, MD 20814
(38.982114, -77.096884)"
DULCINEA BAR & GRILL,9103 GAITHER ROAD,GAITHERSBURG,MD,20877,BBWLHR24474,On Premise,DULCINEA BAR & GRILL,"9103 GAITHER ROAD
GAITHERSBURG, MD 20877
(39.117554, -77.186616)"
YOUNG GOURMET BEER & WINE,3422 OLNEY LAYTONSVILLE ROAD,OLNEY,MD,20832,ABW247,Off Premise,"JAEJUNG FAMILY, INC","3422 OLNEY LAYTONSVILLE ROAD
OLNEY, MD 20832
(39.15336, -77.067294)"
BETHESDA BEER & WINE,8015 WISCONSIN AVE,BETHESDA,MD,20814,ABW121,Off Premise,BSBB LIMITED INC.,"8015 WISCONSIN AVE
BETHESDA, MD 20814
(38.990866, -77.095534)"
SQUIRE'S ROCK CREEK CHOPHOUSE,2405 PRICE AVE,WHEATON,MD,20902,BBWLHR23699,On Premise,"2405 PRICE, LLC","2405 PRICE AVE
WHEATON, MD 20902
(39.040272, -77.05054)"
NOODLES & COMPANY - SILVER SPRING,905 ELLSWORTH DR.,SILVER SPRING,MD,20910,BBWLHR369,On Premise,"THE NOODLE SHOP, CO.","905 ELLSWORTH DR.
SILVER SPRING, MD 20910
(38.99601, -77.026329)"
DAILY GRILL,1 BETHESDA METRO CENTER,BETHESDA,MD,20814,BBWLHR789,On Premise,"GRILL CONCEPTS, INC.","1 BETHESDA METRO CENTER
BETHESDA, MD 20814
(38.984073, -77.095624)"
ALL SET,8630 FENTON STREET,SILVER SPRING,MD,20910,BBWLHR18690,On Premise,"ALL SET HOSPITALITY, LLC","8630 FENTON STREET
SILVER SPRING, MD 20910
(38.998182, -77.028167)"
LEGENDS CAFE,11317 ELKIN STREET,SILVER SPRING,MD,20902,BBWLHR150,On Premise,"MEGA 112,INC.","11317 ELKIN STREET
SILVER SPRING, MD 20902
(39.040788, -77.050372)"
MAKI BAR,6831 WISCONSIN AVENUE,BETHESDA,MD,20815,HBW22695,On Premise,"NEW JOURNEY, LLC","6831 WISCONSIN AVENUE
BETHESDA, MD 20815
(38.978176, -77.091106)"
CITY LIGHTS OF CHINA,4953 BETHESDA AVENUE,BETHESDA,MD,20814,BBWLHR1071900,On Premise,Q & Q RESTAURANT,"4953 BETHESDA AVENUE
BETHESDA, MD 20814
(38.980785, -77.100052)"
QUINCY'S BAR & GRILLE,616 QUINCE ORCHARD ROAD,GAITHERSBURG,MD,20878,BBWLHR536,On Premise,"COTY GROUP, LLC","616 QUINCE ORCHARD ROAD
GAITHERSBURG, MD 20878
(39.142232, -77.221095)"
H & L MARKET,"11235 OAKLEAF DRIVE, B-07",SILVER SPRING,MD,20901,ABW246,Off Premise,H & L MARKET LLC,"11235 OAKLEAF DRIVE, B-07
SILVER SPRING, MD 20901
(39.040673, -76.995509)"
FONTINA GRILLE,801 PLEASANT DRIVE,ROCKVILLE,MD,20850,BBWLHR520,On Premise,"HIBA, LLC","801 PLEASANT DRIVE
ROCKVILLE, MD 20850
(39.113806, -77.171304)"
YETT GOL RESTAURANT,12337 GEORGIA AVE,SILVER SPRING,MD,20906,BBWLHR234,On Premise,EAST HILL CORPORATION,"12337 GEORGIA AVE
SILVER SPRING, MD 20906
(39.059268, -77.050193)"
CAVA MEZZE-OLNEY,3124 OLNEY SANDY SPRING RD,OLNEY,MD,20832,BBWLHR22697,On Premise,"DTI 108, LLC","3124 OLNEY SANDY SPRING RD
OLNEY, MD 20832
(39.15152, -77.063671)"
THE GREENE TURTLE,19961 CENTURY BOULEVARD,GERMANTOWN,MD,20874,BBWLHR23532,On Premise,"WILMUR, LLC","19961 CENTURY BOULEVARD
GERMANTOWN, MD 20874
(39.183531, -77.262122)"
TIMPANO ITALIAN CHOPHOUSE,12021 ROCKVILLE PIKE,ROCKVILLE,MD,20852,BBWLHR146,On Premise,"E-BRANDS ACQUISITIONS, LLC","12021 ROCKVILLE PIKE
ROCKVILLE, MD 20852
(39.054279, -77.117491)"
OM INDIAN RESTAURANT,"785 ROCKVILLE PIKE, UNIT K",ROCKVILLE,MD,20852,HBW220,On Premise,"JACREAS ENTERPRISES, INC","785 ROCKVILLE PIKE, UNIT K
ROCKVILLE, MD 20852
(39.077229, -77.139818)"
URBAN BUTCHER,8226 GEORGIA AVENUE,SILVER SPRING,MD,20910,BBWLHR813,On Premise,"URBAN8226,LLC","8226 GEORGIA AVENUE
SILVER SPRING, MD 20910
(38.992482, -77.026715)"
TASTE OF EUROPE,630 QUINCE ORCHARD ROAD,GAITHERSBURG,MD,20878,ABW266,Off Premise,"TASTE OF EUROPE, INC","630 QUINCE ORCHARD ROAD
GAITHERSBURG, MD 20878
(39.141949, -77.221189)"
FOUNDING FARMERS,12505 PARK POTOMAC AVE,POTOMAC,MD,20854,BBWLHR677,On Premise,FOUNDING FARMERS POTOMAC LLC,"12505 PARK POTOMAC AVE
POTOMAC, MD 20854
(39.060806, -77.157996)"
CHINA PAVILION,"4611 SANGAMORE ROAD, UNIT A",BETHESDA,MD,20816,BBWLHR749,On Premise,"CHINA PAVILION, INC","4611 SANGAMORE ROAD, UNIT A
BETHESDA, MD 20816
(38.94866, -77.119725)"
SHANGHAI VILLAGE,4929 BETHESDA AVE,BETHESDA,MD,20814,BBWLHR129,On Premise,"SHANGHAI VILLAGE, INC.","4929 BETHESDA AVE
BETHESDA, MD 20814
(38.980798, -77.099581)"
N-WINTHORPE VALENTINE'S COMMUNITY RESTAURANT,7700 NORFOLK AVE,BETHESDA,MD,20814,BBWLHR24199,On Premise,"COMMUNITY BETHESDA, LLC","7700 NORFOLK AVE
BETHESDA, MD 20814
(38.988305, -77.096202)"
&PIZZA,258 CROWN PARK AVENUE,GAITHERSBURG,MD,20878,BBWLHR22947,On Premise,"IMA PIZZA STORE 5, LLC","258 CROWN PARK AVENUE
GAITHERSBURG, MD 20878
(39.1459, -77.194234)"
COURTYARD BY MARRIOTT - PROSPERITY,12521 PROSPERITY DRIVE,SILVER SPRING,MD,20904,BBWLHM214,On Premise,COURTYARD II ASSOCIATES LIMITE,"12521 PROSPERITY DRIVE
SILVER SPRING, MD 20904
(39.061563, -76.960776)"
SCION,1200 EAST-WEST HIGHWAY,SILVER SPRING,MD,20910,BBWLHR781,On Premise,"ZODIAC RESTAURANT GROUP, INC.","1200 EAST-WEST HIGHWAY
SILVER SPRING, MD 20910
(38.99041, -77.02938)"
LEBANESE TAVERNA CAFE - SS,933 ELLSWORTH DRIVE,SILVER SPRING,MD,20910,BBWLHR392,On Premise,LEBANESE TAVERNA CAFE CONGRESS,"933 ELLSWORTH DRIVE
SILVER SPRING, MD 20910
(38.995549, -77.026869)"
BECLAWS,2404 UNIVERSITY BOULEVARD,SILVER SPRING,MD,20902,BBWLHR21333,On Premise,"SHP ENTERPRISES, LLC","2404 UNIVERSITY BOULEVARD
SILVER SPRING, MD 20902
(39.041559, -77.050678)"
LEDO PIZZA - ROCKVILLE,10058 DARNESTOWN ROAD,ROCKVILLE,MD,20850,HBW133,On Premise,"DARNESTOWN ROAD PIZZA, INC.","10058 DARNESTOWN ROAD
ROCKVILLE, MD 20850
(39.097003, -77.206989)"
N- THE PUB,2017 VEIRS MILL ROAD,ROCKVILLE,MD,20851,BBWLHR24263,On Premise,THE PUB,"2017 VEIRS MILL ROAD
ROCKVILLE, MD 20851
(39.075178, -77.116406)"
SANDY NAILS,7815 OLD GEORGETOWN RD,BETHESDA,MD,20814,SBSBW22599,On Premise,"SANDY NAILS, CORP","7815 OLD GEORGETOWN RD
BETHESDA, MD 20814
(38.987745, -77.099182)"
BOBBY'S BURGER PALACE,7101 DEMOCRACY BOULEVARD,BETHESDA,MD,20817,BBWLHR823,On Premise,"MONTGOMERY MALL CONDO, LLC","7101 DEMOCRACY BOULEVARD
BETHESDA, MD 20817
(39.0242, -77.1459)"
GOURMET INSPIRATIONS,2646 UNIVERSITY BOULEVARD,WHEATON,MD,20902,BBWLHR869,On Premise,"A&C FINE DINING, INC","2646 UNIVERSITY BOULEVARD
WHEATON, MD 20902
(39.040536, -77.054303)"
TRATTORIA SORRENTO,4930 CORDELL AVE,BETHESDA,MD,20814,BBWLHR177,On Premise,"SORRENTO, INC.","4930 CORDELL AVE
BETHESDA, MD 20814
(38.988549, -77.09892)"
REDGATE GOLF COURSE,14500 AVERY ROAD,ROCKVILLE,MD,20853,HBW307,On Premise,"REDGATE BEVERAGE, LLC","14500 AVERY ROAD
ROCKVILLE, MD 20853
(39.096445, -77.124614)"
MAPLEWOOD PARK PLACE,9707 OLD GEORGETOWN ROAD,BETHESDA,MD,20814,CBWLRC002,On Premise,SUNRISE SENIOR LIVING SERVICES,"9707 OLD GEORGETOWN ROAD
BETHESDA, MD 20814
(39.013165, -77.11728)"
MAMMA LUCIA - SILVER SPRING,1286 EAST-WEST HIGHWAY,SILVER SPRING,MD,20910,BBWLHR386,On Premise,"IMOSS, INC.","1286 EAST-WEST HIGHWAY
SILVER SPRING, MD 20910
(38.992156, -77.03098)"
LA BRASA ROTISSERIE,12401 PARKLAWN DR.,ROCKVILLE,MD,20852,DBW016,On/Off-Premise,"LA BRASA ROTISSERIE, INC.","12401 PARKLAWN DR.
ROCKVILLE, MD 20852
(39.061085, -77.11177)"
FISH TACO-CHEVY CHASE,7015 WISCONSIN AVENUE,CHEVY CHASE,MD,20815,BBWLHR26486,On Premise,"CITYBURGER, INC","7015 WISCONSIN AVENUE
CHEVY CHASE, MD 20815
(38.979628, -77.091847)"
OLD WORLD FAVORITES,3854 INTERNATIONAL DR.,SILVER SPRING,MD,20906,DBW027,On/Off-Premise,"SATSHIV, INC.","3854 INTERNATIONAL DR.
SILVER SPRING, MD 20906
(39.103712, -77.076025)"
MUDDY BRANCH BEER & WINE,836 MUDDY BRANCH ROAD,GAITHERSBURG,MD,20878,DBW075,On/Off-Premise,"WORLD OF WINE, INC.","836 MUDDY BRANCH ROAD
GAITHERSBURG, MD 20878
(39.113301, -77.216233)"
ADEGA WINE CELLARS,8519 FENTON STREET,SILVER SPRING,MD,20910,DBW068,On/Off-Premise,"ASIAN RESTAURANT CONCEPTS, INC","8519 FENTON STREET
SILVER SPRING, MD 20910
(38.997078, -77.025747)"
LILIT CAFE,7921 OLD GEORGETOWN ROAD,BETHESDA,MD,20814,DBW057,On/Off-Premise,DJ MANAGEMENT LLC,"7921 OLD GEORGETOWN ROAD
BETHESDA, MD 20814
(38.988722, -77.100831)"
BEDFORD COURT,3701 INTERNATIONAL DRIVE,SILVER SPRING,MD,20906,CBWLRC003,On Premise,"MARRIOTT RETIREMENT COMM., INC","3701 INTERNATIONAL DRIVE
SILVER SPRING, MD 20906
(39.101368, -77.075429)"
HONEY PIG,19727 FREDERICK ROAD,GERMANTOWN,MD,20876,BBWLHR824,On Premise,"HONEY PIG, INC","19727 FREDERICK ROAD
GERMANTOWN, MD 20876
(39.178575, -77.238426)"
HILTON GARDEN INN BETHESDA,7301 WAVERLY STREET,BETHESDA,MD,20814,BBWLHM023,On Premise,"BETHESDA HOTEL ASSOCIATES, LLC","7301 WAVERLY STREET
BETHESDA, MD 20814
(38.98313, -77.092282)"
MI RANCHO - ROCKVILLE,"1488 ROCKVILLE PIKE, UNIT B",ROCKVILLE,MD,20852,BBWLHR545,On Premise,"1488-B, INC.","1488 ROCKVILLE PIKE, UNIT B
ROCKVILLE, MD 20852
(39.065516, -77.126921)"
BOWLMOR LANES,5353 WESTBARD AVE,BETHESDA,MD,20816,BBWLHR328,On Premise,WESTWOOD LANES LLC,"5353 WESTBARD AVE
BETHESDA, MD 20816
(38.963256, -77.106399)"
GIANT FOOD STORE 350,11221 NEW HAMPSHIRE AVE,SILVER SPRING,MD,20901,ABW085,Off Premise,GIANT OF MARYLAND LLC,"11221 NEW HAMPSHIRE AVE
SILVER SPRING, MD 20901
(39.040633, -76.990934)"
RAINBOW SUSHI,18076 MATENY ROAD,GERMANTOWN,MD,20874,HBW074,On Premise,"HUAFU INTERNATIONAL, LLC","18076 MATENY ROAD
GERMANTOWN, MD 20874
(39.147294, -77.271996)"
TRAPEZARIA MEDITERRANEAN KUZINA,11 NORTH WASHINGTON STREET,ROCKVILLE,MD,20850,BBWLHR793,On Premise,"SNF GROUP II, LLC.","11 NORTH WASHINGTON STREET
ROCKVILLE, MD 20850
(39.084711, -77.152924)"
CADDIES,4922 CORDELL AVE,BETHESDA,MD,20814,BBWLHR100,On Premise,CORDELL RESTAURANT ASS. LLC,"4922 CORDELL AVE
BETHESDA, MD 20814
(38.988757, -77.098716)"
NANDO'S PERI PERI - GAITHERSBURG,224 BOARDWALK PLACE,GAITHERSBURG,MD,20878,BBWLHR666,On Premise,"NANDO'S OF GAITHERSBURG, LLC","224 BOARDWALK PLACE
GAITHERSBURG, MD 20878
(39.116804, -77.198364)"
WILD TOMATO,"7945 MACARTHUR BLVD, #103",CABIN JOHN,MD,20818,BBWLHR631,On Premise,"CLEMENTINE CAFE, LLC","7945 MACARTHUR BLVD, #103
CABIN JOHN, MD 20818
(38.974827, -77.163372)"
CANCUN MEXICAN CUISINE,117 EAST DIAMOND AVE,GAITHERSBURG,MD,20877,BBWLHR249,On Premise,"CANCUN MEXICAN CUISINE, INC.","117 EAST DIAMOND AVE
GAITHERSBURG, MD 20877
(39.141878, -77.196152)"
NANDO'S PERI PERI,11160 VEIRS MILL ROAD SPACE P205,WHEATON,MD,20902,BBWLHR23474,On Premise,"NANDO'S OF WHEATON, LLC","11160 VEIRS MILL ROAD SPACE P205
WHEATON, MD 20902
(39.038177, -77.052681)"
ACAJUTLA RESTAURANT,18554 WOODFIELD ROAD,GAITHERSBURG,MD,20879,BBWLHR293,On Premise,"ARCOR, INC.","18554 WOODFIELD ROAD
GAITHERSBURG, MD 20879
(39.161128, -77.158912)"
FM KARAOKE,2131 VEIRS MILL ROAD,ROCKVILLE,MD,20851,BBWLHR768,On Premise,CAFE PM INC,"2131 VEIRS MILL ROAD
ROCKVILLE, MD 20851
(39.074434, -77.114269)"
MISO CAFE,33-E MARYLAND AVENUE,ROCKVILLE,MD,20850,DBWL21554,On Premise,"LOYAL 2020, LLC","33-E MARYLAND AVENUE
ROCKVILLE, MD 20850
(39.085577, -77.150992)"
TEMARI CAFE,1043 ROCKVILLE PIKE,ROCKVILLE,MD,20852,HBW139,On Premise,"NAKA, INC.","1043 ROCKVILLE PIKE
ROCKVILLE, MD 20852
(39.071216, -77.132431)"
GRAPE AND GRAIN BOUTIQUE,19223 WATKINS MILL ROAD,MONTGOMERY VILLAGE,MD,20886,ABW063,Off Premise,"GRAPE & GRAIN BOUTIQUE, INC.","19223 WATKINS MILL ROAD
MONTGOMERY VILLAGE, MD 20886
(39.17121, -77.208737)"
WALIA ETHIOPIAN RESTAURANT,6846 NEW HAMPSHIRE AVE,TAKOMA PARK,MD,20912,BBWLHR222,On Premise,"ABYSSINIA RESTAURANT, INC.","6846 NEW HAMPSHIRE AVE
TAKOMA PARK, MD 20912
(38.973889, -76.995879)"
SPICE GRILL,12611-G WISTERIA DRIVE,GERMANTOWN,MD,20874,HBW346,On Premise,"INDIA GARDEN, INC","12611-G WISTERIA DRIVE
GERMANTOWN, MD 20874
(39.170091, -77.261846)"
LEDO PIZZA - DERWOOD,7213 MUNCASTER MILL ROAD,ROCKVILLE,MD,20855,HBW266,On Premise,"BOGEY ENTERPRISES, INC.","7213 MUNCASTER MILL ROAD
ROCKVILLE, MD 20855
(39.146155, -77.145077)"
BETHESDA MARKET,"4611 SANGAMORE ROAD, UNIT D",BETHESDA,MD,20816,DBW146,On/Off-Premise,OM SAI RAM INC.,"4611 SANGAMORE ROAD, UNIT D
BETHESDA, MD 20816
(38.94866, -77.119725)"
GERMANTOWN BEER WINE & PLUS,19590 N. FREDERICK ROAD,GERMANTOWN,MD,20876,DBW132,On/Off-Premise,"SSDC, INC.","19590 N. FREDERICK ROAD
GERMANTOWN, MD 20876
(39.177416, -77.238634)"
GROG BEER WINE & DELI,464 N. FREDERICK AVE,GAITHERSBURG,MD,20877,ABW117,Off Premise,"SWASTIK, INC.","464 N. FREDERICK AVE
GAITHERSBURG, MD 20877
(39.148474, -77.207174)"
COURTYARD OF CHEVY CHASE,5520 WISCONSIN AVE,CHEVY CHASE,MD,20815,BBWLHM209,On Premise,5520 WISCONSIN LLC,"5520 WISCONSIN AVE
CHEVY CHASE, MD 20815
(38.964264, -77.087517)"
IRON AGE,1054 ROCKVILLE PIKE,ROCKVILLE,MD,20852,BBWLHR724,On Premise,"IRON AGE ROCKVILLE, LLC","1054 ROCKVILLE PIKE
ROCKVILLE, MD 20852
(39.072616, -77.133601)"
EL PAISANO,9112 ROTHBURY DRIVE,MONTGOMERY VILLAGE,MD,20886,BBWLHR214,On Premise,EL PAISANO INC.,"9112 ROTHBURY DRIVE
MONTGOMERY VILLAGE, MD 20886
(39.185538, -77.189348)"
HAMPSHIRE GREENS GOLF COURSE,616 FIRESTONE DRIVE,SILVER SPRING,MD,20905,HBW178,On Premise,MONTGOMERY CO REVENUE AUTHORIT,"616 FIRESTONE DRIVE
SILVER SPRING, MD 20905
(39.126419, -77.001201)"
MI RANCHO - SILVER SPRING,8701 RAMSEY AVE,SILVER SPRING,MD,20910,BBWLHR077,On Premise,8701 RAM INC.,"8701 RAMSEY AVE
SILVER SPRING, MD 20910
(38.996355, -77.030258)"
INTIPUQUENO,2504 ENNALLS AVE,SILVER SPRING,MD,20902,BBWLHR463,On Premise,"INTIPUQUENO, LLC","2504 ENNALLS AVE
SILVER SPRING, MD 20902
(39.039875, -77.053271)"
HECKMAN'S DELICATESSEN,4914 CORDELL AVENUE,BETHESDA,MD,20814,BBWLHR842,On Premise,"BIG TREE, LLC","4914 CORDELL AVENUE
BETHESDA, MD 20814
(38.989, -77.098478)"
PAZZO POMODORO,"12051 CHESTNUT BRANCH WAY, C-5",CLARKSBURG,MD,20871,BBWLHR18787,On Premise,"THE CRAZY TOMATO MD, LLC","12051 CHESTNUT BRANCH WAY, C-5
CLARKSBURG, MD 20871
(39.231073, -77.251252)"
SIRIWAN THAI RESTAURANT,736 CLOVERLY STREET,SILVER SPRING,MD,20905,HBW275,On Premise,"SIRIWAN THAI RESTAURANT, INC.","736 CLOVERLY STREET
SILVER SPRING, MD 20905
(39.109116, -76.995715)"
BETHESDA N. MARRIOTT HOTEL/CONF CTR,5701 MARINELLI ROAD,ROCKVILLE,MD,20852,BBWLHC001,On Premise,"MARRIOTT HOTEL SERVICES, INC.","5701 MARINELLI ROAD
ROCKVILLE, MD 20852
(39.04651, -77.115146)"
THE TAVERN,"18200 GEORGIA AVE, #F",OLNEY,MD,20832,BBWLHR510,On Premise,"AROMA LATIN CUISINE, LLC","18200 GEORGIA AVE, #F
OLNEY, MD 20832
(39.154725, -77.066969)"
HILTON WASHINGTON DC/ROCKVILLE EMC,1750 ROCKVILLE PIKE,ROCKVILLE,MD,20852,BBWLHM23552,On Premise,"MARYLAND SPECIAL SERVICING, LLC","1750 ROCKVILLE PIKE
ROCKVILLE, MD 20852
(39.060847, -77.123048)"
HAMPTON INN & SUITES,960 FREDERICK AVENUE,GAITHERSBURG,MD,20879,DBW153,On/Off-Premise,"MCC HOSPITALITY, LLC","960 FREDERICK AVENUE
GAITHERSBURG, MD 20879
(39.158191, -77.21856)"
FAR EAST RESTAURANT,5055 NICHOLSON LANE,ROCKVILLE,MD,20852,BBWLHR134,On Premise,"S & S SUEN CO.,INC.","5055 NICHOLSON LANE
ROCKVILLE, MD 20852
(39.046058, -77.10405)"
BENJARONG THAI,885 ROCKVILLE PIKE,ROCKVILLE,MD,20852,BBWLHR462,On Premise,"THAI LUMP SUM, INC.","885 ROCKVILLE PIKE
ROCKVILLE, MD 20852
(39.074603, -77.136069)"
CALIFORNIA PIZZA KITCHEN - GAITH,136 BOARDWALK PLACE,GAITHERSBURG,MD,20878,BBWLHR674,On Premise,"CALIFORNIA PIZZA KITCHEN, INC","136 BOARDWALK PLACE
GAITHERSBURG, MD 20878
(39.1135, -77.1925)"
WANG JJA JANG,1613 EAST GUDE DRIVE,ROCKVILLE,MD,20850,BBWLHR694,On Premise,"JYS ENTERPRISES, INC","1613 EAST GUDE DRIVE
ROCKVILLE, MD 20850
(39.09391, -77.132371)"
RIVERSIDE HOTPOT CUISINE,820 MUDDY BRANCH ROAD,GAITHERSBURG,MD,20878,HBW341,On Premise,CHONGGING SUNNYSANDS REST.MGT.,"820 MUDDY BRANCH ROAD
GAITHERSBURG, MD 20878
(39.113498, -77.216155)"
ERTA ALE ETHIOPIAN RESTAURANT & CAFE,2310-2316 PRICE AVE,WHEATON,MD,20902,BBWLHR21856,On Premise,"ERTA ALE ENTERPRISES, LLC","2310-2316 PRICE AVE
WHEATON, MD 20902
(39.040298, -77.050405)"
MIA'S PIZZAS,4926 CORDELL AVE,BETHESDA,MD,20814,BBWLHR055,On Premise,"M & M ADVENTURES, LLC,","4926 CORDELL AVE
BETHESDA, MD 20814
(38.989005, -77.098472)"
PIZZA PASS,4924 ST. ELMO AVENUE,BETHESDA,MD,20814,BBW134,On/Off-Premise,"PIZZAPASS, LLC","4924 ST. ELMO AVENUE
BETHESDA, MD 20814
(38.988207, -77.098009)"
CREMCAFE,199 E. MONTGOMERY AVE SUITE J,ROCKVILLE,MD,20852,HBW20986,On Premise,"CREMCAFE, LLC","199 E. MONTGOMERY AVE SUITE J
ROCKVILLE, MD 20852
(39.084089, -77.150358)"
EGGSPECTATION,923 ELLSWORTH DRIVE,SILVER SPRING,MD,20910,BBWLHR123,On Premise,"MID-ATLANTIC EATERIES, INC.","923 ELLSWORTH DRIVE
SILVER SPRING, MD 20910
(38.995594, -77.026816)"
OUTTA THE WAY CAFE,17503 REDLAND ROAD,DERWOOD,MD,20855,BBWLHR063,On Premise,REST. MNGMT. ACQ. INC.,"17503 REDLAND ROAD
DERWOOD, MD 20855
(39.143314, -77.144293)"
FALLS ROAD GOLF COURSE,10800 FALLS ROAD,POTOMAC,MD,20854,HBW013,On Premise,MONTGOMERY CO. REV AUTHORITY,"10800 FALLS ROAD
POTOMAC, MD 20854
(39.033855, -77.195496)"
MCGINTY'S PUBLIC HOUSE AND REST.,911 ELLSWORTH DRIVE,SILVER SPRING,MD,20910,BBWLHR362,On Premise,"WOLFISH, LLC,","911 ELLSWORTH DRIVE
SILVER SPRING, MD 20910
(38.995838, -77.026522)"
THE AIRPORT CAFE,7940 AIRPARK ROAD,GAITHERSBURG,MD,20879,HBW345,On Premise,"SAVORY SAGE, INC","7940 AIRPARK ROAD
GAITHERSBURG, MD 20879
(39.168006, -77.162214)"
TARA THAI REASTAURANT,9811 WASHINGTONIAN BLVD,GAITHERSBURG,MD,20878,BBWLHR199,On Premise,EAST ASIATIC INC.,"9811 WASHINGTONIAN BLVD
GAITHERSBURG, MD 20878
(39.115373, -77.198224)"
ADDISU GEBEYA,8107 FENTON STREET,SILVER SPRING,MD,20910,ABW252,Off Premise,"ADDISU GEBEYA, LLC","8107 FENTON STREET
SILVER SPRING, MD 20910
(38.990675, -77.023987)"
COLOR MUSIC STUDIO & CAFE,"2403 UNIVERSITY BLVD, WEST",SILVER SPRING,MD,20902,BBWLHR534,On Premise,NONE,"2403 UNIVERSITY BLVD, WEST
SILVER SPRING, MD 20902
(39.041678, -77.050314)"
COLUMBIA COUNTRY CLUB,7900 CONNECTICUT AVE,CHEVY CHASE,MD,20815,CBWLCC009,On Premise,COLUMBIA COUNTRY CLUB INC.,"7900 CONNECTICUT AVE
CHEVY CHASE, MD 20815
(38.988992, -77.077231)"
THE 4 CORNER'S PUB,10111 SUTHERLAND ROAD,SILVER SPRING,MD,20901,BBWLHR745,On Premise,"HOSS & DOG, LLC","10111 SUTHERLAND ROAD
SILVER SPRING, MD 20901
(39.021172, -77.013289)"
CENTER FOR LEADERSHIP EXCELLENCE,6777 ROCKLEDGE DRIVE,BETHESDA,MD,20817,BBWLCT001,On Premise,"BENCHMARK HOSPITALITY OF MD, I","6777 ROCKLEDGE DRIVE
BETHESDA, MD 20817
(39.030317, -77.136313)"
SARITA'S CHICKEN RESTAURANT,2545 ENNALLS AVE,SILVER SPRING,MD,20902,BBWLHR778,On Premise,SARITA'S CHICKEN RESTAURANT,"2545 ENNALLS AVE
SILVER SPRING, MD 20902
(39.039745, -77.053616)"
CUBANO'S,1201 FIDLER LANE,SILVER SPRING,MD,20910,BBWLHR028,On Premise,WICHO & WICHO,"1201 FIDLER LANE
SILVER SPRING, MD 20910
(38.996148, -77.029841)"
CAPITAL BEER & WINE,7903 NORFOLK AVE,BETHESDA,MD,20814,ABWS233,Off Premise,"BETHESDA BEER & WINE, LLC","7903 NORFOLK AVE
BETHESDA, MD 20814
(38.98904, -77.097454)"
FARYAB RESTAURANT,4917 CORDELL AVE,BETHESDA,MD,20814,HBW116,On Premise,"SAHA, INC.","4917 CORDELL AVE
BETHESDA, MD 20814
(38.98889, -77.098586)"
NOODLES & COMPANY - GERMANTOWN,20952 FREDERICK ROAD,GERMANTOWN,MD,20876,BBWLHR818,On Premise,"THE NOODLE SHOP, CO.- MD, INC","20952 FREDERICK ROAD
GERMANTOWN, MD 20876
(39.19954, -77.245223)"
TEXAS PARRILLADA,9631 LOST KNIFE ROAD,GAITHERSBURG,MD,20879,BBWLHR361,On Premise,"HENRIQUEZ BATRES, INC.","9631 LOST KNIFE ROAD
GAITHERSBURG, MD 20879
(39.156531, -77.202597)"
WARREN STREET DELI,9226 WARREN STREET,SILVER SPRING,MD,20910,ABW115,Off Premise,WARREN STREET DELI INC.,"9226 WARREN STREET
SILVER SPRING, MD 20910
(39.007224, -77.049155)"
LUCY ETHIOPIAN RESTAURANT,8301 GEORGIA AVE,SILVER SPRING,MD,20910,BBWLHR715,On Premise,"SENO, LLC","8301 GEORGIA AVE
SILVER SPRING, MD 20910
(38.993058, -77.026571)"
STROMBOLI FAMILY RESTAURANT,7023 WISCONSIN AVE,CHEVY CHASE,MD,20815,DBW046,On/Off-Premise,STROMBOLI FAMILY REST. INC.,"7023 WISCONSIN AVE
CHEVY CHASE, MD 20815
(38.979721, -77.091895)"
ELBE'S BEER AND WINE,"2522 UNIVERSITY BLVD, WEST",SILVER SPRING,MD,20902,DBW045,On/Off-Premise,"ELBE'S, INC.","2522 UNIVERSITY BLVD, WEST
SILVER SPRING, MD 20902
(39.041171, -77.05265)"
WORLD GOURMET WINE & BEER,7905 TUCKERMAN LANE,POTOMAC,MD,20854,DBW017,On/Off-Premise,WORLD GOURMET WINE AND BEER IN,"7905 TUCKERMAN LANE
POTOMAC, MD 20854
(39.039769, -77.157005)"
NEWS EXPRESS,4853 CORDELL AVE,BETHESDA,MD,20814,ABW262,Off Premise,NEWS EXPRESS,"4853 CORDELL AVE
BETHESDA, MD 20814
(38.989989, -77.097543)"
HIBACHI SUSHI SUPREME BUFFET,8 BUREAU DRIVE,GAITHERSBURG,MD,20878,HBW342,On Premise,"CHINA KING SUPER BUFFET, INC.","8 BUREAU DRIVE
GAITHERSBURG, MD 20878
(39.142391, -77.217428)"
SNIDERS SUPERMARKET,1936 SEMINARY ROAD,SILVER SPRING,MD,20910,ABW017,Off Premise,"SNIDERS, INC.","1936 SEMINARY ROAD
SILVER SPRING, MD 20910
(39.008733, -77.041645)"
EL NORTENO,8917 BROOKVILLE ROAD,SILVER SPRING,MD,20910,BBWLHR367,On Premise,"DALISSON,LLC","8917 BROOKVILLE ROAD
SILVER SPRING, MD 20910
(39.002307, -77.053098)"
BLUE MASH GOLF COURSE,5821 OLNEY LAYTONSVILLE ROAD,GAITHERSBURG,MD,20882,BBWLHR650,On Premise,"BLUE MASH GOLF COURSE, LLC","5821 OLNEY LAYTONSVILLE ROAD
GAITHERSBURG, MD 20882
(39.187759, -77.119068)"
COAL FIRE,116 MAIN STREET,GAITHERSBURG,MD,20878,BBWLHR586,On Premise,"COAL FIRE PIZZA OF KENTLANDS,","116 MAIN STREET
GAITHERSBURG, MD 20878
(39.124158, -77.238126)"
PASSION FISH,7187 WOODMONT AVENUE,BETHESDA,MD,20814,BBWLHR22665,On Premise,"PASSION FOOD EIGHT, LLC","7187 WOODMONT AVENUE
BETHESDA, MD 20814
(38.981182, -77.095402)"
&PIZZA,19823 CENTURY BOULEVARD,GERMANTOWN,MD,20874,BBWLHR21278,On Premise,"IMA PIZZA STORE 6, LLC","19823 CENTURY BOULEVARD
GERMANTOWN, MD 20874
(39.180908, -77.267311)"
FISH TACO,7945 MACARTHUR BLVD,CABIN JOHN,MD,20818,BBWLHR797,On Premise,"FISH TACO, INC","7945 MACARTHUR BLVD
CABIN JOHN, MD 20818
(38.974827, -77.163372)"
LIA'S,4445 WILLARD AVE,CHEVY CHASE,MD,20815,BBWLHR413,On Premise,"CG3,INC.","4445 WILLARD AVE
CHEVY CHASE, MD 20815
(38.962016, -77.088421)"
LE PAIN QUOTIDIEN - WILDWOOD,10217 OLD GEORGETOWN ROAD,BETHESDA,MD,20814,BBWLHR757,On Premise,"PQ WILDWOOD, INC.","10217 OLD GEORGETOWN ROAD
BETHESDA, MD 20814
(39.022943, -77.123824)"
GIUSEPPI'S PIZZA PLUS - ROCKVILLE,"199 EAST MONTGOMERY AVE, UNIT L",ROCKVILLE,MD,20850,HBW097,On Premise,"SPENSCO, INC.","199 EAST MONTGOMERY AVE, UNIT L
ROCKVILLE, MD 20850
(39.084089, -77.150358)"
FAIRFIELD INN,20025 CENTURY BOULEVARD,GERMANTOWN,MD,20874,DBW158,On/Off-Premise,"HOSPITALITY SERVICES 2, LLC","20025 CENTURY BOULEVARD
GERMANTOWN, MD 20874
(39.184335, -77.260059)"
CHIPOTLE MEXICAN GRILL - OLNEY,3333 OLNEY SANDY SPRING ROAD,OLNEY,MD,20832,BBWLHR316,On Premise,CHIPOTLE MEXICAN GRILL OF MD L,"3333 OLNEY SANDY SPRING ROAD
OLNEY, MD 20832
(39.152917, -77.06617)"
MAMMA LUCIA - OLNEY,18224 VILLAGE MART DRIVE,OLNEY,MD,20832,BBWLHR204,On Premise,"MAMMA LUCIA OF OLNEY, INC.","18224 VILLAGE MART DRIVE
OLNEY, MD 20832
(39.152955, -77.063374)"
LA FRONTERA RESTAURANT,3 RUSSELL AVE,GAITHERSBURG,MD,20877,BBWLHR604,On Premise,LA FRONTERA RESTAURANT INC.,"3 RUSSELL AVE
GAITHERSBURG, MD 20877
(39.142429, -77.196524)"
HARD TIMES CAFE,1117 NELSON STREET,ROCKVILLE,MD,20850,BBWLHR578,On Premise,"MORGAN HOWARD, LLC","1117 NELSON STREET
ROCKVILLE, MD 20850
(39.090711, -77.174355)"
GREEK VILLAGE RESTAURANT,13476 NEW HAMPSHIRE AVE,SILVER SPRING,MD,20904,BBWLHR295,On Premise,"GREEK VILLAGE RESTAURANT, INC.","13476 NEW HAMPSHIRE AVE
SILVER SPRING, MD 20904
(39.077081, -77.001785)"
KADHAI INDIAN CUISINE,7905 NORFOLK AVE,BETHESDA,MD,20814,BBWLHR766,On Premise,"KADHAI, INC","7905 NORFOLK AVE
BETHESDA, MD 20814
(38.989072, -77.09751)"
CAVA MEZZE GRILL - MONT. MALL,7101 DEMOCRACY BOULEVARD,BETHESDA,MD,20817,BBWLHR866,On Premise,CAVA MEZZE GRILL MONT MALL,"7101 DEMOCRACY BOULEVARD
BETHESDA, MD 20817
(39.0242, -77.1459)"
AMICI MIEI,"1093 SEVEN LOCKS ROAD, UNIT A",ROCKVILLE,MD,20854,BBWLHR343,On Premise,"CONVIVIO, INC.","1093 SEVEN LOCKS ROAD, UNIT A
ROCKVILLE, MD 20854
(39.062214, -77.160795)"
WESTERN MARKET,4840 WESTERN AVE,BETHESDA,MD,20816,ABW018,Off Premise,WESTERN MARKET INC.,"4840 WESTERN AVE
BETHESDA, MD 20816
(38.95252, -77.096301)"
NOT YOUR AVERAGE JOE'S - SILVER SPRING,8661 COLESVILLE ROAD,SILVER SPRING,MD,20910,BBWLHR23669,On Premise,NOT YOUR AVERAGE JOE'S MD LLC,"8661 COLESVILLE ROAD
SILVER SPRING, MD 20910
(38.997214, -77.027331)"
PINKY & PEPE'S GRAPE ESCAPE,223 KENTLANDS BLVD,GAITHERSBURG,MD,20878,DBW126,On/Off-Premise,"PINKY & PEPE VENTURES, INC.","223 KENTLANDS BLVD
GAITHERSBURG, MD 20878
(39.123185, -77.235495)"
THE OFFICE CAFE & LOUNGE,6860 OLNEY LAYTONSVILLE ROAD,LAYTONSVILLE,MD,20882,BBWLHR1059218,On Premise,"ATLANTIC DEVELOPMENT, LLC","6860 OLNEY LAYTONSVILLE ROAD
LAYTONSVILLE, MD 20882
(39.205089, -77.140556)"
SHEBA RESTAURANT,5071 NICHOLSON LANE,ROCKVILLE,MD,20852,HBW303,On Premise,"PASTA PRONTO, LLC","5071 NICHOLSON LANE
ROCKVILLE, MD 20852
(39.046005, -77.104123)"
CAFE DELUXE - BETHESDA,4910 ELM STREET,BETHESDA,MD,20814,BBWLHR620,On Premise,"CLOVER ELM STREET, LLC.","4910 ELM STREET
BETHESDA, MD 20814
(38.982109, -77.097113)"
QUARRY HOUSE TEMPORARY,8402 GEORGIA AVENUE,SILVER SPRING,MD,20910,BBWLHR21917,On Premise,"8402 GEORGIA HOSPITALITY, LLC","8402 GEORGIA AVENUE
SILVER SPRING, MD 20910
(38.993604, -77.026786)"
TIJUANA MEXICAN CAFE - S.S.,949 EAST UNIVERSITY BLVD,SILVER SPRING,MD,20912,BBWLHR486,On Premise,"TIJUANA TAKOMA, INC.","949 EAST UNIVERSITY BLVD
SILVER SPRING, MD 20912
(38.992906, -76.991805)"
SMASHBURGER - GERMANTOWN,"20640 SENECA MEADOWS PKWY, SUITE D1",GERMANTOWN,MD,20876,BBWLHR808,On Premise,"SMASHBURGER ACQUISITION-MD, LL","20640 SENECA MEADOWS PKWY, SUITE D1
GERMANTOWN, MD 20876
(39.197908, -77.254308)"
STRATHMORE MUSIC CENTER & MANSION,5301 TUCKERMAN LANE,ROCKVILLE,MD,20852,BBWLPA001,On Premise,"STRATHMORE HALL FOUNDATION, IN","5301 TUCKERMAN LANE
ROCKVILLE, MD 20852
(39.030937, -77.103528)"
LEDO PIZZA - DAMASCUS,9805 MAIN STREET,DAMASCUS,MD,20872,HBW310,On Premise,MAIN STREET INN INC.,"9805 MAIN STREET
DAMASCUS, MD 20872
(39.287692, -77.201742)"
BLU WATER DAY SPA,5234 NICHOLSON LANE,KENSINGTON,MD,20895,SBSBW0002,On Premise,"CIRCLE P SPA, INC","5234 NICHOLSON LANE
KENSINGTON, MD 20895
(39.04497, -77.106276)"
TOMATILLO MEXICAN GRILL,2232 VEIRS MILL ROAD,ROCKVILLE,MD,20851,HBW241,On Premise,"EL PRIMER PASO, INC.","2232 VEIRS MILL ROAD
ROCKVILLE, MD 20851
(39.074592, -77.114343)"
CABIN JOHN MEMORIAL VFW POST 5633,11511 MACARTHUR BLVD.,POTOMAC,MD,20854,CBWLC002,On Premise,CABIN JOHN MEMORIAL VFW 5633,"11511 MACARTHUR BLVD.
POTOMAC, MD 20854
(38.995723, -77.237668)"
AZUCAR RESTAURANT,14418 LAYHILL ROAD,SILVER SPRING,MD,20906,BBWLHR389,On Premise,"JAR-RAM & JAG, INC.","14418 LAYHILL ROAD
SILVER SPRING, MD 20906
(39.091837, -77.04516)"
OLD TOWN MARKET,10251 KENSINGTON PARKWAY,KENSINGTON,MD,20895,ABWS243,Off Premise,"COOPERSMITH, INC","10251 KENSINGTON PARKWAY
KENSINGTON, MD 20895
(39.022263, -77.071885)"
URBAN BAR B QUE - SANDY SPRING,805 OLNEY SANDY SPRING ROAD,SANDY SPRING,MD,20860,BBWLHR610,On Premise,UBQ3. LLC,"805 OLNEY SANDY SPRING ROAD
SANDY SPRING, MD 20860
(39.149486, -77.02588)"
MRS. K'S TOLL HOUSE,9201 COLESVILLE ROAD,SILVER SPRING,MD,20910,BBWLHR181,On Premise,"QUICK CUISINE, INC.","9201 COLESVILLE ROAD
SILVER SPRING, MD 20910
(39.005673, -77.022489)"
LAYTONSVILLE GOLF COURSE,7130 DORSEY ROAD,GAITHERSBURG,MD,20882,HBW018,On Premise,MONTGOMERY CO.REV. AUTHORITY,"7130 DORSEY ROAD
GAITHERSBURG, MD 20882
(39.197471, -77.144151)"
LA TASCA,"141 GIBBS STREET, SUITE 305",ROCKVILLE,MD,20850,BBWLHR259,On Premise,"LA TASCA, INC.","141 GIBBS STREET, SUITE 305
ROCKVILLE, MD 20850
(39.087005, -77.151982)"
BUMP N GRIND,1200 EAST WEST HIGHWAY,SILVER SPRING,MD,20910,DBW164,On/Off-Premise,"BUMP N GRIND, LLC","1200 EAST WEST HIGHWAY
SILVER SPRING, MD 20910
(38.99041, -77.02938)"
AL CARBON,200 PARK ROAD,ROCKVILLE,MD,20850,BBWLHR624,On Premise,"CMV GROUP, INC.","200 PARK ROAD
ROCKVILLE, MD 20850
(39.08557, -77.146427)"
CORK & FORK,7110 BETHESDA LANE,BETHESDA,MD,20814,DBW094,On/Off-Premise,THE LANDRAGIN OPERATING COMPAN,"7110 BETHESDA LANE
BETHESDA, MD 20814
(38.981971, -77.097832)"
DESSIE ETHIOPIAN REST.& EXOTIC FOOD,2655 UNIVERSITY BLVD W.,SILVER SPRING,MD,20902,BBWLHR395,On Premise,DESSIE ETHIOPIAN REST & EXOTIC,"2655 UNIVERSITY BLVD W.
SILVER SPRING, MD 20902
(39.040321, -77.055012)"
HINODE RESTAURANT,134 CONGRESSIONAL LANE,ROCKVILLE,MD,20852,HBW168,On Premise,"K.K. SUSHI, INC.","134 CONGRESSIONAL LANE
ROCKVILLE, MD 20852
(39.062684, -77.128498)"
VISIONS RESTAURANT,4926 ST. ELMO AVE,BETHESDA,MD,20814,BBWLHR448,On Premise,"AUDACE, LLC","4926 ST. ELMO AVE
BETHESDA, MD 20814
(38.988152, -77.098062)"
KINGSVIEW BEER & WINE,13406 KINGSVIEW VILLAGE AVENUE,GERMANTOWN,MD,20874,ABWS172,Off Premise,"3U CPRPORATION, INC","13406 KINGSVIEW VILLAGE AVENUE
GERMANTOWN, MD 20874
(39.159897, -77.279944)"
NOODLES & COMPANY - ROCKVILLE,"1609 ROCKVILLE PIKE, UNIT B",ROCKVILLE,MD,20852,BBWLHR370,On Premise,"THE NOODLE SHOP, CO. - MARYLAN","1609 ROCKVILLE PIKE, UNIT B
ROCKVILLE, MD 20852
(39.064053, -77.125963)"
CHIPOTLE MEXICAN GRILL- CC,4471 WILLARD AVE,CHEVY CHASE,MD,20815,BBWLHR540,On Premise,CHIPOTLE MEXICAN GRILL OF MARY,"4471 WILLARD AVE
CHEVY CHASE, MD 20815
(38.962047, -77.088572)"
STAINED GLASS PUB,12510 LAYHILL ROAD,SILVER SPRING,MD,20906,BBWLHR192,On Premise,"THE PUB OF GLENMONT, INC.","12510 LAYHILL ROAD
SILVER SPRING, MD 20906
(39.061794, -77.050934)"
VIET PHO & GRILL,1640 ELTON ROAD,SILVER SPRING,MD,20903,HBW279,On Premise,VIET PHO & GRILL INC.,"1640 ELTON ROAD
SILVER SPRING, MD 20903
(39.020218, -76.975814)"
NOODLES & COMPANY - GAITHERSBURG,"177 KENTLANDS BLVD, #100",GAITHERSBURG,MD,20878,BBWLHR554,On Premise,"THE NOODLE SHOP, CO.-MD INC.","177 KENTLANDS BLVD, #100
GAITHERSBURG, MD 20878
(39.123104, -77.234311)"
ETHIO-ADDIS BEER & WINE MARKET,14 RANDOLPH ROAD,SILVER SPRING,MD,20904,ABW282,Off Premise,"COTTAGE TRADING, LLC","14 RANDOLPH ROAD
SILVER SPRING, MD 20904
(39.075608, -77.003141)"
MI LA CAY RESTAURANT,2409 UNIVERSITY BLVD,SILVER SPRING,MD,20902,HBW319,On Premise,MI LA CAY RESTAURANT,"2409 UNIVERSITY BLVD
SILVER SPRING, MD 20902
(39.041677, -77.050401)"
GIUSEPPI'S PIZZA PLUS - GAITH,335 KENTLANDS BOULEVARD,GAITHERSBURG,MD,20878,HBW068,On Premise,"STEEL CITY PIZZA, INC.","335 KENTLANDS BOULEVARD
GAITHERSBURG, MD 20878
(39.124464, -77.240938)"
CARBONAZO,9627 LOST KNIFE ROAD,GAITHERSBURG,MD,20877,BBWLHR565,On Premise,CARBONAZO,"9627 LOST KNIFE ROAD
GAITHERSBURG, MD 20877
(39.156501, -77.202561)"
YURAKU JAPANESE RESTAURANT,19773 FREDERICK ROAD,GERMANTOWN,MD,20874,HBW276,On Premise,"SUNY'S SUSHI BISTRO, INC.","19773 FREDERICK ROAD
GERMANTOWN, MD 20874
(39.179587, -77.238367)"
THE STANFORD GRILL,2000 TOWER OAKS BOULEVARD,ROCKVILLE,MD,20852,BBWLHR23452,On Premise,"TOWER OAKS REST HOLDINGS, LLC","2000 TOWER OAKS BOULEVARD
ROCKVILLE, MD 20852
(39.066282, -77.153935)"
THE LIMERICK PUB,11301 ELKIN STREET,SILVER SPRING,MD,20902,BBWLHR637,On Premise,"THE LIMERICK PUB, LLC","11301 ELKIN STREET
SILVER SPRING, MD 20902
(39.040448, -77.050349)"
WINGSTOP - GAITHRSBURG,"20201 GOSHEN ROAD, SPACE G",GAITHERSBURG,MD,20879,DBW093,On/Off-Premise,"WINGIT ENTERPRISES, LLC","20201 GOSHEN ROAD, SPACE G
GAITHERSBURG, MD 20879
(39.188656, -77.186143)"
LUNA ITALIA,400 MAIN STREET,GAITHERSBURG,MD,20878,DBW110,On/Off-Premise,"SABEKAH, INC.","400 MAIN STREET
GAITHERSBURG, MD 20878
(39.12103, -77.237158)"
THE KOSHER PASTRY OVEN,1372 LAMBERTON DRIVE,SILVER SPRING,MD,20902,HBW216,On Premise,"KOSHER PASTRY OVEN, INC.","1372 LAMBERTON DRIVE
SILVER SPRING, MD 20902
(39.040989, -77.029604)"
HYATT HOUSE,200 SKIDMORE BOULEVARD,GAITHERSBURG,MD,20877,BBWLHM218,On Premise,HYATT HOUSE,"200 SKIDMORE BOULEVARD
GAITHERSBURG, MD 20877
(39.126524, -77.180812)"
BESTWAY MARYLAND SUPERMARKET,8540 PINEY BRANCH ROAD,SILVER SPRING,MD,20901,ABW082,Off Premise,GREEN CASTLE INTERNATIONAL INC,"8540 PINEY BRANCH ROAD
SILVER SPRING, MD 20901
(38.998377, -77.001774)"
"TIGER BEER, WINE & DELI",303 NORTH WASHINGTON STREET,ROCKVILLE,MD,20850,ABWS123,Off Premise,"J.E.N., INC.","303 NORTH WASHINGTON STREET
ROCKVILLE, MD 20850
(39.089034, -77.153717)"
NORTHWEST GOLF COURSE,15701 LAYHILL ROAD,SILVER SPRING,MD,20906,HBW231,On Premise,MONTGOMERY CO. REV. AUTHORITY,"15701 LAYHILL ROAD
SILVER SPRING, MD 20906
(39.112134, -77.037099)"
BUFFALO WILD WINGS - ROCKVILLE,33 MARYLAND AVE,ROCKVILLE,MD,20850,BBWLHR564,On Premise,"WAA-ROCKVILLE, LLC","33 MARYLAND AVE
ROCKVILLE, MD 20850
(39.085577, -77.150992)"
SHERATON ROCKVILLE HOTEL,920 KING FARM BLVD,ROCKVILLE,MD,20850,BBWLHM024,On Premise,"GRAND PRIX ROCKVILLE, LLC","920 KING FARM BLVD
ROCKVILLE, MD 20850
(39.11016, -77.183174)"
PHO HIEP HOA,"921 ELLSWORTH DRIVE, UNIT G",SILVER SPRING,MD,20905,HBW044,On Premise,"PHH, LLC","921 ELLSWORTH DRIVE, UNIT G
SILVER SPRING, MD 20905
(38.995603, -77.026805)"
BUFFALO WINGS & BEER - SS,15412 NEW HAMPSHIRE AVE,SILVER SPRING,MD,20905,BBWLHR476,On Premise,"WINGS CREATIONS , LLC.","15412 NEW HAMPSHIRE AVE
SILVER SPRING, MD 20905
(39.108884, -76.997708)"
ZIKI JAPANESE STEAK HOUSE,10009 FIELDS ROAD,GAITHERSBURG,MD,20878,BBWLHR121,On Premise,"ZIKI COMPANY, LLC","10009 FIELDS ROAD
GAITHERSBURG, MD 20878
(39.116276, -77.20679)"
VERIDIAN MARKET & WINE,"8010 BLAIR MILL WAY, UNIT B",SILVER SPRING,MD,20910,ABW211,Off Premise,"EMC VERIDIAN, INC.","8010 BLAIR MILL WAY, UNIT B
SILVER SPRING, MD 20910
(38.989159, -77.027518)"
IL PIZZICO,15209 FREDERICK ROAD,ROCKVILLE,MD,20850,BBWLHR741,On Premise,LIVIA INC.,"15209 FREDERICK ROAD
ROCKVILLE, MD 20850
(39.105609, -77.157591)"
RUBY TUESDAY - GAITHERSBURG,701 RUSSELL AVE,GAITHERSBURG,MD,20877,BBWLHR142,On Premise,"RUBY TUESDAY, INC.","701 RUSSELL AVE
GAITHERSBURG, MD 20877
(39.15102, -77.205231)"
OLAZZO,7921 NORFOLK AVE,BETHESDA,MD,20814,BBWLHR242,On Premise,LAZIOS INC,"7921 NORFOLK AVE
BETHESDA, MD 20814
(38.989234, -77.097801)"
SUSHIJIN,"8555 FENTON STREET, UNIT A",SILVER SPRING,MD,20910,HBW145,On Premise,"SUSHIJIN, LLC","8555 FENTON STREET, UNIT A
SILVER SPRING, MD 20910
(38.99765, -77.026954)"
EL GOLFO RESTAURANT,8739 FLOWER AVE,SILVER SPRING,MD,20901,BBWLHR215,On Premise,"EL MEZCAL RESTAURANT, INC.","8739 FLOWER AVE
SILVER SPRING, MD 20901
(38.999742, -77.003957)"
MIX BAR & GRILL,8241 GEORGIA AVENUE,SILVER SPRING,MD,20910,BBWLHR20197,On Premise,"BP HOSPITALITY GROUP, LLC","8241 GEORGIA AVENUE
SILVER SPRING, MD 20910
(38.992811, -77.026557)"
HOLLYWOOD BALLROOM DANCE CENTER,2126 INDUSTRIAL PARKWAY,SILVER SPRING,MD,20904,HBW296,On Premise,HOLLYWOOD BALLROOM DANCE CENTE,"2126 INDUSTRIAL PARKWAY
SILVER SPRING, MD 20904
(39.053915, -76.968991)"
RIO GRANDE CAFE - GAITHERSBURG,231 RIO BLVD,GAITHERSBURG,MD,20878,BBWLHR048,On Premise,"THE MEXICAN RESTAURANT,INC.","231 RIO BLVD
GAITHERSBURG, MD 20878
(39.118015, -77.20042)"
SIRIWAN THAI RESTUARANT,12115 DARNESTOWN RD,GAITHERSBURG,MD,20878,HBW26242,On Premise,"SIRIWAN M.X.B., LLC","12115 DARNESTOWN RD
GAITHERSBURG, MD 20878
(39.117441, -77.251178)"
ZANE JAPANESE EATERY,19833 CENTURY BLVD.,GERMANTOWN,MD,20874,HBW26283,On Premise,"ZANE EATERY, LLC","19833 CENTURY BLVD.
GERMANTOWN, MD 20874
(39.181304, -77.266593)"
DA MARCO,20630 SENECA MEADOWS PKWY,GERMANTOWN,MD,20876,BBWLHR26273,On Premise,"B&N CONSULTING, LLC","20630 SENECA MEADOWS PKWY
GERMANTOWN, MD 20876
(39.198076, -77.254758)"
CHUY'S,12266 ROCKVILLE PIKE,ROCKVILLE,MD,20852,BBWLHR26488,On Premise,"CHUY'S OPCO, INC","12266 ROCKVILLE PIKE
ROCKVILLE, MD 20852
(39.057821, -77.120638)"
BISCOTTI RISTORANTE ITALIANO,7212 MUNCASTER MILL ROAD,DERWOOD,MD,20855,HBW045,On Premise,"LIZAMA, INC.","7212 MUNCASTER MILL ROAD
DERWOOD, MD 20855
(39.146186, -77.14515)"
WESTLAKE BEER & WINE,10442 AUTO PARK AVE,BETHESDA,MD,20817,ABW263,Off Premise,A-ONE GROUPS LTD,"10442 AUTO PARK AVE
BETHESDA, MD 20817
(39.027365, -77.145462)"
RUBY TUESDAY - GERMANTOWN,19800 CENTURY BLVD,GERMANTOWN,MD,20874,BBWLHR031,On Premise,"RUBY TUESDAY, INC.","19800 CENTURY BLVD
GERMANTOWN, MD 20874
(39.180536, -77.267921)"
PHO VIET STAR,13825 OUTLET DRIVE,SILVER SPRING,MD,20904,HBW19200,On Premise,"PHO VIET STAR, LLC.","13825 OUTLET DRIVE
SILVER SPRING, MD 20904
(39.082746, -76.946397)"
"LAKESIDE BEER, WINE CHEESE & SUBS",9621 LOST KNIFE ROAD,GAITHERSBURG,MD,20877,ABW144,Off Premise,"USK, INC.","9621 LOST KNIFE ROAD
GAITHERSBURG, MD 20877
(39.154949, -77.200992)"
SHOPHOUSE SILVER SPRING,935 ELLSWORTH DRIVE,SILVER SPRING,MD,20910,BBWLHR24272,On Premise,"SHOPHOUSE MARYLAND, LLC","935 ELLSWORTH DRIVE
SILVER SPRING, MD 20910
(38.99554, -77.026879)"
ORIENTAL EAST,1312 EAST WEST HIGHWAY,SILVER SPRING,MD,20910,BBWLHR188,On Premise,"ORIENTAL INN, INC.","1312 EAST WEST HIGHWAY
SILVER SPRING, MD 20910
(38.992846, -77.031616)"
"HOLLYWOOD BEER, WINE & DELI",12703 NEW HAMPSHIRE AVE,SILVER SPRING,MD,20904,ABW031,Off Premise,"DYO ENTERPRISES,INC.","12703 NEW HAMPSHIRE AVE
SILVER SPRING, MD 20904
(39.064291, -76.999428)"
JALEO,7271 WOODMONT AVE,BETHESDA,MD,20814,BBWLHR321,On Premise,TAPAS Y MAS INC,"7271 WOODMONT AVE
BETHESDA, MD 20814
(38.981739, -77.095974)"
JOE'S NOODLE HOUSE,1488-C ROCKVILLE PIKE,ROCKVILLE,MD,20852,HBW21676,On Premise,YONG SHENG CORPORATION,"1488-C ROCKVILLE PIKE
ROCKVILLE, MD 20852
(39.065516, -77.126921)"
BUFFALO WINGS & BEER - GERM,18307 LEAMAN FARM ROAD,GERMANTOWN,MD,20874,BBWLHR682,On Premise,"BDUB, LLC","18307 LEAMAN FARM ROAD
GERMANTOWN, MD 20874
(39.158222, -77.278921)"
ZPIZZA,815 ELLSWORTH DRIVE,SILVER SPRING,MD,20910,HBW24577,On Premise,"IPZP SILVER SPRING, LLC","815 ELLSWORTH DRIVE
SILVER SPRING, MD 20910
(38.997372, -77.02506)"
PASSION NAIL SPA - GERMANTOWN,19847-H CENTURY BOULEVARD,GERMANTOWN,MD,20874,SBSBW0003,On Premise,"KDC NGUYEN, LLC","19847-H CENTURY BOULEVARD
GERMANTOWN, MD 20874
(39.181864, -77.265583)"
SAIGONESE RESTAURANT,11232 GRANDVIEW AVE,SILVER SPRING,MD,20902,HBW034,On Premise,SAIGONESE RESTAURANT INC.,"11232 GRANDVIEW AVE
SILVER SPRING, MD 20902
(39.039248, -77.05241)"
LA MADELEINE-SILVER SPRING.,8435 GEORGIA AVE,SILVER SPRING,MD,20910,BBWLHR776,On Premise,"LA MADELEINE OF MARYLAND, LLC","8435 GEORGIA AVE
SILVER SPRING, MD 20910
(38.99388, -77.026646)"
BRICKSIDE,4866 CORDELL AVE,BETHESDA,MD,20814,BBWLHR759,On Premise,"BRICKSIDE, LLC","4866 CORDELL AVE
BETHESDA, MD 20814
(38.989684, -77.097844)"
CESCO OSTERIA,7401 WOODMONT AVE,BETHESDA,MD,20814,BBWLHR691,On Premise,CESCO LLC,"7401 WOODMONT AVE
BETHESDA, MD 20814
(38.983086, -77.096162)"
EL CARACOL CAFE,609 SLIGO AVE,SILVER SPRING,MD,20910,BBWLHR1063665,On Premise,SNS CORPORATION,"609 SLIGO AVE
SILVER SPRING, MD 20910
(38.991285, -77.013271)"
SERGIO RISTORANTE ITALIANO,8727 COLESVILLE ROAD,SILVER SPRING,MD,20910,BBWLHR226,On Premise,SERIGO ENTERPRISE INC.,"8727 COLESVILLE ROAD
SILVER SPRING, MD 20910
(38.998592, -77.02633)"
HOP N GRAPE,11416 ROCKVILLE PIKE,ROCKVILLE,MD,20852,ABWS26365,Off Premise,"HOP N GRAPE, INC","11416 ROCKVILLE PIKE
ROCKVILLE, MD 20852
(39.043142, -77.111123)"
MEZEH MEDITERRANEAN GRILL,262 CROWN PARK AVENUE,GAITHERSBURG,MD,20878,HBW26341,On Premise,"MEZEH-DOWNTOWN CROWN, LLC","262 CROWN PARK AVENUE
GAITHERSBURG, MD 20878
(39.113457, -77.204466)"
KAYPI RESTAURANT,2005 VEIRS MILL ROAD,ROCKVILLE,MD,20851,BBWLHR22684,On Premise,"KAYPI RESTAURANT, LLC","2005 VEIRS MILL ROAD
ROCKVILLE, MD 20851
(39.075208, -77.116511)"
POCKET BAR AND GRILL,15535 NEW HAMPSHIRE AVENUE,SILVER SPRING,MD,20905,BBWLHR26281,On Premise,"POCKET BAR AND GRILL, LLC","15535 NEW HAMPSHIRE AVENUE
SILVER SPRING, MD 20905
(39.111457, -76.995333)"
PIZZA STOP,2231 BEL PRE ROAD,SILVER SPRING,MD,20906,BBWHR26321,On/Off-Premise,JSL RESTAURANT GROUP INC.,"2231 BEL PRE ROAD
SILVER SPRING, MD 20906
(39.090504, -77.047571)"
SHOPHOUSE - BETHESDA,4820 BETHESDA AVENUE,BETHESDA,MD,20814,BBWLHR809,On Premise,"SHOPHOUSE MARYLAND, LLC","4820 BETHESDA AVENUE
BETHESDA, MD 20814
(38.98092, -77.096328)"
WING STOP # 238,14925 SHADY GROVE ROAD,ROCKVILLE,MD,20850,BBWLHR839,On Premise,"RED COW POLITY, LLC","14925 SHADY GROVE ROAD
ROCKVILLE, MD 20850
(39.096741, -77.194766)"
AMY'S RESTAURANT,621 SLIGO AVENUE,SILVER SPRING,MD,20910,BBWLHR22219,On Premise,"AMY'S RESTAURANT, INC","621 SLIGO AVENUE
SILVER SPRING, MD 20910
(38.991126, -77.014576)"
CHIPOTLE MEXICAN GRILL - BETHESDA,7624 OLD GEORGETOWN ROAD,BETHESDA,MD,20814,BBWLHR299,On Premise,"CHIPOTLE MEXICAN GRILL, INC.","7624 OLD GEORGETOWN ROAD
BETHESDA, MD 20814
(38.986047, -77.096371)"
SEVEN SEAS CHINESE RESTAURANT,1776 E. JEFFERSON STREET,ROCKVILLE,MD,20852,BBWLHR069,On Premise,"GOURMET,INC.","1776 E. JEFFERSON STREET
ROCKVILLE, MD 20852
(39.057447, -77.126308)"
H RESTAURANT AND NIGHT CLUB,11300 GEORGIA AVENUE,WHEATON,MD,20902,BBWLHR24274,On Premise,"H RESTAURANT AND NIGHT CLUB, LLC","11300 GEORGIA AVENUE
WHEATON, MD 20902
(39.040765, -77.051603)"
"LUMPIA, PANSIT ATBP",11160 VEIRS MILL ROAD #164,WHEATON,MD,20902,BBWLHR20031,On Premise,"ORTEGA ENTERPRISES, INC","11160 VEIRS MILL ROAD #164
WHEATON, MD 20902
(39.038177, -77.052681)"
NAPLES RISTORANTE,"7101 DEMOCRACY BLVD., #2350",BETHESDA,MD,20817,BBWLHR20459,On Premise,"NAPLES OF MONTGOMERY, LLC","7101 DEMOCRACY BLVD., #2350
BETHESDA, MD 20817
(39.0242, -77.1459)"
CHEVY CHASE SUPERMARKET,8531 CONNECTICUT AVE,CHEVY CHASE,MD,20815,ABW006,Off Premise,"CHEVY CHASE SUPERMARKET, INC.","8531 CONNECTICUT AVE
CHEVY CHASE, MD 20815
(38.995322, -77.07706)"
"BARONESSA ITAL.REST.,BAR, PIZZERIA",1302 E. GUDE DRIVE,ROCKVILLE,MD,20850,BBWLHR382,On Premise,ANTONIA INCORPORATED,"1302 E. GUDE DRIVE
ROCKVILLE, MD 20850
(39.09712, -77.135605)"
THAI AT SILVER SPRING,"921 ELLSWORTH DRIVE, UNIT E",SILVER SPRING,MD,20910,BBWLHR056,On Premise,"JJNPP, INC.,","921 ELLSWORTH DRIVE, UNIT E
SILVER SPRING, MD 20910
(38.995603, -77.026805)"
FLANAGAN'S HARP & FIDDLE RESTAURANT,4844 CORDELL AVE,BETHESDA,MD,20814,BBWLHR365,On Premise,"CELTIC CONNECTIONS, LLC","4844 CORDELL AVE
BETHESDA, MD 20814
(38.990253, -77.097281)"
PEPINO'S,15721 COLUMBIA PIKE,BURTONSVILLE,MD,20866,HBW187,On Premise,PEPINO'S KITCHEN,"15721 COLUMBIA PIKE
BURTONSVILLE, MD 20866
(39.113079, -76.932681)"
RIDGEWELLS,5520 CLIPPER LANE,BETHESDA,MD,20816,CATBWL19232,On Premise,RIDGEWELLS,"5520 CLIPPER LANE
BETHESDA, MD 20816
(38.964332, -77.101793)"
KNIGHTS OF COLUMBUS #2797,5417 WEST CEDAR LANE,BETHESDA,MD,20814,CBWLFV010,On Premise,ROCK CREEK COUNCIL #2797,"5417 WEST CEDAR LANE
BETHESDA, MD 20814
(39.004525, -77.109348)"
AZUL BAR & GRILL,18749 NORTH FREDERICK ROAD,GAITHERSBURG,MD,20879,BBWLHR767,On Premise,SCUMV GROUP INC.,"18749 NORTH FREDERICK ROAD
GAITHERSBURG, MD 20879
(39.16348, -77.226137)"
MANNEQUIN PIS,18064 GEORGIA AVE,OLNEY,MD,20832,HBW038,On Premise,"GOMES D'CRUZE, INC.,","18064 GEORGIA AVE
OLNEY, MD 20832
(39.152206, -77.066884)"
BLACK'S BAR & KITCHEN,7750 WOODMONT AVE,BETHESDA,MD,20814,BBWLHR301,On Premise,"I.T.B., EIGHT,LLC","7750 WOODMONT AVE
BETHESDA, MD 20814
(38.987794, -77.095973)"
CAFE PROMENADE,5225 POOKS HILL ROAD,BETHESDA,MD,20814,BBWLHR546,On Premise,"EL MOZOTE, LLC","5225 POOKS HILL ROAD
BETHESDA, MD 20814
(39.015149, -77.10793)"
TIJUANA MEXICAN CAFE - ROCKVILLE,2007 VEIRS MILL ROAD,ROCKVILLE,MD,20851,BBWLHR255,On Premise,MARIO CORPORATION,"2007 VEIRS MILL ROAD
ROCKVILLE, MD 20851
(39.075203, -77.116493)"
NORBECK COUNTRY CLUB,17200 CASHELL ROAD,ROCKVILLE,MD,20853,CBWLCC016,On Premise,NORBECK COUNTRY CLUB INC.,"17200 CASHELL ROAD
ROCKVILLE, MD 20853
(39.140725, -77.091665)"
JOSE'S GRILL,11423 GEORGIA AVENUE,WHEATON,MD,20902,BBWLHR26447,On Premise,CARDENAS INC,"11423 GEORGIA AVENUE
WHEATON, MD 20902
(39.042002, -77.051826)"
N-VERIDIAN MARKET AND WINE,8010 BLAIR MILL WAY,SILVER SPRING,MD,20910,ABW26668,Off Premise,"MCH VERIDIAN, INC","8010 BLAIR MILL WAY
SILVER SPRING, MD 20910
(38.989029, -77.027752)"
CHAPEL BEER & WINE,19737 FREDERICK RD,GERMANTOWN,MD,20876,ABW25734,Off Premise,"ROSARY BEER & WINE, INC","19737 FREDERICK RD
GERMANTOWN, MD 20876
(39.179119, -77.238399)"
UMBERTO'S-OLNEY,5500 OLNEY LAYTONSVILLE ROAD,OLNEY,MD,20832,BDBWLHR26637,On/Off-Premise,"ITALIAN RESTAURANT CARRYOUT, INC","5500 OLNEY LAYTONSVILLE ROAD
OLNEY, MD 20832
(39.182987, -77.110225)"
LA FRONTERA II,4217 RANDOLPH ROAD,SILVER SPRING,MD,20906,BBWLHR394,On Premise,"LA FRONTERA II, INC.,","4217 RANDOLPH ROAD
SILVER SPRING, MD 20906
(39.056673, -77.081909)"
THE CLASSICS RESTAURANT,8606 COLESVILLE ROAD,SILVER SPRING,MD,20910,BBWLHR791,On Premise,"ARS SILVER SPRING, LLC","8606 COLESVILLE ROAD
SILVER SPRING, MD 20910
(38.996457, -77.027808)"
LEBANESE TAVERNA CAFE - ROCKVILLE,1605 ROCKVILLE PIKE,ROCKVILLE,MD,20852,BBWLHR042,On Premise,LEBANESE TAVERNA CAFE CONGRESS,"1605 ROCKVILLE PIKE
ROCKVILLE, MD 20852
(39.064169, -77.126054)"
BANGKOK GARDEN RESTAURANT,4906 ST. ELMO AVE,BETHESDA,MD,20814,BBWLHR012,On Premise,"THAI GARDEN, INC.","4906 ST. ELMO AVE
BETHESDA, MD 20814
(38.988727, -77.097515)"
OLD ANGLERS INN,10801 MACARTHUR BLVD.,POTOMAC,MD,20854,BBWLHR060,On Premise,"MARYLAND CATERING CO., INC.","10801 MACARTHUR BLVD.
POTOMAC, MD 20854
(38.982416, -77.226666)"
AY! JALISCO II,425 S. FREDERICK AVE,GAITHERSBURG,MD,20878,BBWLHR169,On Premise,"ABI III, CORP.","425 S. FREDERICK AVE
GAITHERSBURG, MD 20878
(39.135455, -77.191793)"
WHITE OAK BOWLING LANES,11207 NEW HAMPSHIRE AVE,SILVER SPRING,MD,20904,HB008,On Premise,"WHITE OAK BOWLING LANES, INC.","11207 NEW HAMPSHIRE AVE
SILVER SPRING, MD 20904
(39.040263, -76.990767)"
BOYDS COUNTRY STORE,"15110 BARNESVILLE RD., PO 117",BOYDS,MD,20841,ABW012,Off Premise,"BOYDS COUNTRY STORE, INC.","15110 BARNESVILLE RD., PO 117
BOYDS, MD 20841
(39.18479, -77.314224)"
MARK'S KITCHEN,7006 CARROLL AVE,TAKOMA PARK,MD,20912,HBW243,On Premise,"MARK'S KITCHEN, LLC","7006 CARROLL AVE
TAKOMA PARK, MD 20912
(38.97481, -77.011983)"
MULU ETHIOPIAN RESTAURANT & CARRY OUT,7833 EASTERN AVE,SILVER SPRING,MD,20910,BBWHR22694,On Premise,MULU MESOB INC,"7833 EASTERN AVE
SILVER SPRING, MD 20910
(38.985724, -77.028097)"
SUMMIT HILLS MINI MART,8518 16TH STREET,SILVER SPRING,MD,20910,ABW245,Off Premise,AMAZING AIM INC.,"8518 16TH STREET
SILVER SPRING, MD 20910
(38.998333, -77.039521)"
HOWARD DELI,"4222 HOWARD AVE, UNIT D",KENSINGTON,MD,20895,ABW154,Off Premise,RHEE & RHEE INC,"4222 HOWARD AVE, UNIT D
KENSINGTON, MD 20895
(39.031002, -77.083165)"
PALADAR LATIN KITCHEN & RUM BAR -R,"11333 WOODGLEN DR., SUITE 101",ROCKVILLE,MD,20852,BBWLHR795,On Premise,"PALADAR ROCKVILLE, LLC","11333 WOODGLEN DR., SUITE 101
ROCKVILLE, MD 20852
(39.042845, -77.113365)"
RED HOT & BLUE,16811 CRABBS BRANCH WAY,DERWOOD,MD,20855,BBWLHR451,On Premise,"RED, HOT, & BLUE GAITHERSBURG,","16811 CRABBS BRANCH WAY
DERWOOD, MD 20855
(39.130149, -77.168139)"
MARKHAM'S BAR & GRILL,7141 WISCONSIN AVENUE,BETHESDA,MD,20814,BBWLHR832,On Premise,"OREGON AVENUE, LLC.","7141 WISCONSIN AVENUE
BETHESDA, MD 20814
(38.980901, -77.092478)"
LA POSADA RESTAURANT,8545 PINEY BRANCH ROAD,SILVER SPRING,MD,20901,BBWLHR621,On Premise,"RHH ENTERPRISES, INC.","8545 PINEY BRANCH ROAD
SILVER SPRING, MD 20901
(38.998399, -77.001362)"
SAKURA JAPANESE SEAFOOD HOUSE,18147 VILLAGE MART DRIVE,OLNEY,MD,20832,BBWLHR364,On Premise,"OLNEY SAKURA, INC.","18147 VILLAGE MART DRIVE
OLNEY, MD 20832
(39.152137, -77.063416)"
BEKA CONVENIENCE STORE,615 S. FREDERICK AVENUE,GAITHERSBURG,MD,20877,ABW26431,Off Premise,BEKA MERA INC,"615 S. FREDERICK AVENUE
GAITHERSBURG, MD 20877
(39.128825, -77.185865)"
HEN QUARTER,919 ELLSWORTH DRIVE,SILVER SPRING,MD,20910,BBWLHR354,On Premise,HEN QUARTER LLC,"919 ELLSWORTH DRIVE
SILVER SPRING, MD 20910
(38.995994, -77.026346)"
RESTAURANT POLLOS EL MESON,615 SOUTH FREDERICK AVE,GAITHERSBURG,MD,20877,BBWLHR22816,On Premise,"RESTAURANT POLLOS EL MESON, LLC","615 SOUTH FREDERICK AVE
GAITHERSBURG, MD 20877
(39.128825, -77.185865)"
GOURMET ASIAN BISTRO,7224 MUNCASTER MILL ROAD,DERWOOD,MD,20855,HBW348,On/Off-Premise,"R AND S GROUP, LLC","7224 MUNCASTER MILL ROAD
DERWOOD, MD 20855
(39.146245, -77.145276)"
BETHESDA BLUES & JAZZ,7719 WISCONSIN AVE,BETHESDA,MD,20814,BBWLHR765,On Premise,"BETHESDA BLUES & JAZZ, LLC","7719 WISCONSIN AVE
BETHESDA, MD 20814
(38.9871, -77.094717)"
CALIFORNIA PIZZA KITCHEN - BETHESDA,7101 DEMOCRACY BLVD,BETHESDA,MD,20817,BBWLHR676,On Premise,"CALIFORNIA PIZZA KITCHEN, INC.","7101 DEMOCRACY BLVD
BETHESDA, MD 20817
(39.0242, -77.1459)"
EVEN HOTEL ROCKVILLE,1775 ROCKVILLE PIKE,ROCKVILLE,MD,20852,BBWLHM221,On Premise,"SES MD BEVERAGE COMPANY, LLC","1775 ROCKVILLE PIKE
ROCKVILLE, MD 20852
(39.060331, -77.1228)"
KANTUTAS RESTAURANT,2462 ENNALLS AVE,SILVER SPRING,MD,20902,BBWLHR673,On Premise,"KANTUTAS RESTAURANT, LLC","2462 ENNALLS AVE
SILVER SPRING, MD 20902
(39.040337, -77.052474)"
VICINO RISTORANTE ITALIANO,959 SLIGO AVE,SILVER SPRING,MD,20910,HBW032,On Premise,"VICINO RISTORANTE ITALIANO, IN","959 SLIGO AVE
SILVER SPRING, MD 20910
(38.990235, -77.02571)"
CHOICE WINE & BEER,"11160 VEIRS MILL ROAD, #207",SILVER SPRING,MD,20902,ABWS264,Off Premise,CHOICE WINE & BEER LLC,"11160 VEIRS MILL ROAD, #207
SILVER SPRING, MD 20902
(39.038177, -77.052681)"
THE DAILY DISH,"8301 GRUBB ROAD, UNIT A",SILVER SPRING,MD,20910,BBWLHR580,On Premise,"WJ HOLLINGER, LLC","8301 GRUBB ROAD, UNIT A
SILVER SPRING, MD 20910
(38.992263, -77.049414)"
JUANITA'S RESTAURANT,15883 REDLAND ROAD,DERWOOD,MD,20855,HBW155,On Premise,JUANA GONZALEZ,"15883 REDLAND ROAD
DERWOOD, MD 20855
(39.117921, -77.163814)"
COME TO AFRICA RESTAURANT,6834 NEW HAMPSHIRE AVE,TAKOMA PARK,MD,20912,BBWLHR573,On Premise,"COME TO AFRICA, LLC","6834 NEW HAMPSHIRE AVE
TAKOMA PARK, MD 20912
(38.973642, -76.996151)"
CHINA GOURMET RESTAURANT,"3739 UNIVERSITY BLVD, WEST",KENSINGTON,MD,20895,BBWLHR247,On Premise,"KENSINGTON RESTAURANT, INC.","3739 UNIVERSITY BLVD, WEST
KENSINGTON, MD 20895
(39.032273, -77.074317)"
TOURNAMENT PLAYERS CLUB AT AVENEL,10000 OAKLYN DRIVE,POTOMAC,MD,20854,CBWLCC018,On Premise,"TOURNAMENT PLAYERS AT AVENEL,","10000 OAKLYN DRIVE
POTOMAC, MD 20854
(38.992687, -77.195244)"
NOT YOUR AVERAGE JOE'S,"10400 OLD GEORGETOWN ROAD, 6A",BETHESDA,MD,20814,BBWLHR21761,On Premise,"NOT YOUR AVERAGE JOE'S MD, LLC","10400 OLD GEORGETOWN ROAD, 6A
BETHESDA, MD 20814
(39.025877, -77.126067)"
MANOLI CANOLI,8540 CONNECTICUT AVE,CHEVY CHASE,MD,20815,BBWLHR376,On Premise,"MANOLI CANOLI, LLC","8540 CONNECTICUT AVE
CHEVY CHASE, MD 20815
(38.995634, -77.077239)"
TROPICANA'S RESTAURANT,8638 FLOWER AVE,TAKOMA PARK,MD,20912,BBWLHR601,On Premise,EUGENIO HERNANDEZ & MIGUEL RUI,"8638 FLOWER AVE
TAKOMA PARK, MD 20912
(38.997216, -77.003321)"
DUCK DUCK GOOSE,7929 NORFOLK AVENUE,BETHESDA,MD,20814,BBWLHR24264,On Premise,"ALFRED RESTAURANT GROUP,LLC","7929 NORFOLK AVENUE
BETHESDA, MD 20814
(38.989312, -77.097941)"
CRAVE,7101 DEMOCRACY BOULEVARD,BETHESDA,MD,20817,BBWLHR872,On Premise,"CRAVE RESTAURANT BETHESDA, LLC","7101 DEMOCRACY BOULEVARD
BETHESDA, MD 20817
(39.0242, -77.1459)"
TURNTABLE,4862 CORDELL AVENUE,BETHESDA,MD,20814,BBWLHR841,On Premise,"TURNTABLE, LLC","4862 CORDELL AVENUE
BETHESDA, MD 20814
(38.989768, -77.09776)"
DOCK OF THE BAY,429 S. FREDERICK ROAD,GAITHERSBURG,MD,20877,ABW278,Off Premise,"KIM CHHENG, LLC","429 S. FREDERICK ROAD
GAITHERSBURG, MD 20877
(39.13537, -77.191716)"
CHOICE BEER & WINE,802 ROCKVILLE PIKE,ROCKVILLE,MD,20852,ABW236,Off Premise,"KELVIN AND KRIS, INC.","802 ROCKVILLE PIKE
ROCKVILLE, MD 20852
(39.077596, -77.140063)"
AMC THEATRES WHEATON 9,11190 VEIRS MILL ROAD,WHEATON,MD,20902,BBWLHR21332,On Premise,"AMC OF MARYLAND, LLC","11190 VEIRS MILL ROAD
WHEATON, MD 20902
(39.039395, -77.054369)"
EAST GRILL KARAOKE,12 N. WASHINGTON ST,ROCKVILLE,MD,20850,BBWLHR26237,On Premise,"EAST GRILL KARAOKE, LLC","12 N. WASHINGTON ST
ROCKVILLE, MD 20850
(39.084382, -77.152911)"
N-CADDIES ON CORDELL,4922 CORDELL AVENUE,BETHESDA,MD,20814,BBWLHR27463,On Premise,HOLE IN ONE OF MD LLC,"4922 CORDELL AVENUE
BETHESDA, MD 20814
(38.988809, -77.098665)"
"HALPINE BEER, WINE & DELI",1701-B8 ROCKVILLE PIKE,ROCKVILLE,MD,20852,ABW24778,Off Premise,JAI LAXMI MATA CORPORATION,"1701-B8 ROCKVILLE PIKE
ROCKVILLE, MD 20852
(39.061153, -77.123527)"
3 STAR CONVENIENCE STORE,18524 WOODFIELD ROAD,GAITHERSBURG,MD,20879,ABW194,Off Premise,"CPSS, INC.","18524 WOODFIELD ROAD
GAITHERSBURG, MD 20879
(39.161062, -77.158953)"
NEW SILVER FOUNTAIN RESTAURANT,13533 CONNECTICUT AVE,SILVER SPRING,MD,20906,BBWLHR771,On Premise,"NEW SILVER FOUNTAIN, INC","13533 CONNECTICUT AVE
SILVER SPRING, MD 20906
(39.076917, -77.080695)"
YIRASAI SUSHI & CAFE,5110 RIDGEFIELD ROAD,BETHESDA,MD,20816,HBW093,On Premise,YIRASHI SUSHI & CAFE INC,"5110 RIDGEFIELD ROAD
BETHESDA, MD 20816
(38.96613, -77.106446)"
BIG WANG'S CUISINE,16051 FREDERICK ROAD,DERWOOD,MD,20855,HBW314,On Premise,"LIBERTY HEAD, LLC","16051 FREDERICK ROAD
DERWOOD, MD 20855
(39.11883, -77.171396)"
PRITI BEER & WINE CONV MART,18065 GEORGIA AVE,OLNEY,MD,20832,ABW260,Off Premise,"ROCCI, INC","18065 GEORGIA AVE
OLNEY, MD 20832
(39.152143, -77.066752)"
FIRE STATION 1 RESTAURANT & BREWING,8131 GEORGIA AVENUE,SILVER SPRING,MD,20910,BBWLHR834,On Premise,"L&G SILVER SPRING ENTERPRISES,","8131 GEORGIA AVENUE
SILVER SPRING, MD 20910
(38.99147, -77.026546)"
RED BOWL,12051 C-4 CHESTNUT BRANCH WAY,CLARKSBURG,MD,20871,BBWLHR20257,On Premise,"RED BOWL OF CLARKSBURG, INC","12051 C-4 CHESTNUT BRANCH WAY
CLARKSBURG, MD 20871
(39.231073, -77.251252)"
MONTGOMERY VILLAGE BEER & WINE,18286 CONTOUR ROAD,GAITHERSBURG,MD,20879,ABW18682,Off Premise,"ANH & OH CORPORATION, INC","18286 CONTOUR ROAD
GAITHERSBURG, MD 20879
(39.155727, -77.198342)"
SHADY GROVE BEER & WINE,15904 SHADY GROVE ROAD,GAITHERSBURG,MD,20877,ABW102,Off Premise,KWON ENTERPRISES INC,"15904 SHADY GROVE ROAD
GAITHERSBURG, MD 20877
(39.117535, -77.183645)"
A.G. KITCHEN,931 ELLSWORTH DRIVE,SILVER SPRING,MD,20910,BBWLHR21371,On Premise,"TRG SILVER SPRING, LLC","931 ELLSWORTH DRIVE
SILVER SPRING, MD 20910
(38.995593, -77.026816)"
QUENCH,9712 TRAVILLE GATEWAY DRIVE,ROCKVILLE,MD,20850,BBWLHR860,On Premise,"QUENCH ENTERPRISES, INC","9712 TRAVILLE GATEWAY DRIVE
ROCKVILLE, MD 20850
(39.091502, -77.204217)"
PROMENADE MARKET & DELI,5225 POOKS HILL ROAD,BETHESDA,MD,20814,ABW222,Off Premise,"JAE & KIM, LLC","5225 POOKS HILL ROAD
BETHESDA, MD 20814
(39.015149, -77.10793)"
SQUISITO,15654 OLD COLUMBIA PIKE,BURTONSVILLE,MD,20866,HBW297,On Premise,"PUNCEATYME, INC","15654 OLD COLUMBIA PIKE
BURTONSVILLE, MD 20866
(39.112555, -76.932809)"
DOUBLETREE HOTEL,8120 WISCONSIN AVE,BETHESDA,MD,20814,BBWLHM212,On Premise,"TAR HEEL LESSEE,LLC,","8120 WISCONSIN AVE
BETHESDA, MD 20814
(38.991472, -77.095802)"
THE BEER & WINE CELLAR,146 CONGRESSIONAL LANE,ROCKVILLE,MD,20852,ABWS22927,Off Premise,"GOMES CELLARS, INC.","146 CONGRESSIONAL LANE
ROCKVILLE, MD 20852
(39.062283, -77.129005)"
RIVERSIDE LOUNGE,11272 GEORGIA AVE,SILVER SPRING,MD,20902,BBWLHR764,On Premise,"THE CUBANAKAN LOUNGE, INC.","11272 GEORGIA AVE
SILVER SPRING, MD 20902
(39.040444, -77.051505)"
THE GREENE TURTLE BAR & GRILLE,18101 TOWN CENTER DRIVE,OLNEY,MD,20832,BBWLHR803,On Premise,"GT OLNEY, LLC","18101 TOWN CENTER DRIVE
OLNEY, MD 20832
(39.151866, -77.062177)"
BENIHANA OF TOKYO,7935 WISCONSIN AVE,BETHESDA,MD,20814,BBWLHR040,On Premise,BENIHANA BETHESDA CORPORATION,"7935 WISCONSIN AVE
BETHESDA, MD 20814
(38.990335, -77.095422)"
JOE'S CRAB SHACK,221 RIO BLVD,GAITHERSBURG,MD,20878,BBWLHR045,On Premise,CRAB ADDISION INC.,"221 RIO BLVD
GAITHERSBURG, MD 20878
(39.117785, -77.200573)"
GEPETTO OF MARYLAND,10257 OLD GEORGETOWN ROAD,BETHESDA,MD,20814,BBWLHR850,On Premise,"GEPETTO OF MARYLAND, INC.","10257 OLD GEORGETOWN ROAD
BETHESDA, MD 20814
(39.024006, -77.124599)"
OWENS ORDINARY,11820 TRADE STREET,NORTH BETHESDA,MD,20852,BBWLHR24646,On Premise,"NEIGHBORHOOD REST. GROUP XX, LLC","11820 TRADE STREET
NORTH BETHESDA, MD 20852
"
PHOTO PRESS ART,914 EAST WEST HIGHWAY,TAKOMA PARK,MD,20912,DBW21340,On/Off-Premise,PHOTOPRESS ART LLC,"914 EAST WEST HIGHWAY
TAKOMA PARK, MD 20912
(38.975449, -76.992684)"
NEW YORK MART,15108 FREDERICK ROAD,ROCKVILLE,MD,20850,ABW23008,Off Premise,NEW YORK MART MD. INC,"15108 FREDERICK ROAD
ROCKVILLE, MD 20850
(39.105051, -77.157338)"
ZENE'S DELI & WORLDMARKET,8113 FENTON ST,SILVER SPRING,MD,20910,BDBWLHR24574,On/Off-Premise,"SOLIYANA, LLC","8113 FENTON ST
SILVER SPRING, MD 20910
(38.99109, -77.024006)"
EV & MADDY'S,"101 Gibbs Street, Unit C",Rockville,MD,20850,BBWLHR19605,On Premise,"EV & MADDY'S, LLC","101 Gibbs Street, Unit C
Rockville, MD 20850
(39.086751, -77.151984)"
EL POLLO REAL RESTAURANT,5058-C NICHOLSON LANE,ROCKVILLE,MD,20852,HBW21336,On Premise,"TRUJILLO-LIMA FOODS, LLC","5058-C NICHOLSON LANE
ROCKVILLE, MD 20852
(39.045936, -77.104216)"
ROSCOE'S NEAPOLITAN PIZZERIA,7040 CARROLL AVE,TAKOMA PARK,MD,20912,BBWLHR543,On Premise,"MU & CD, LLC","7040 CARROLL AVE
TAKOMA PARK, MD 20912
(38.975032, -77.011316)"
PACIFICA CAFE,621 CENTER POINT WAY,GAITHERSBURG,MD,20878,HBW070,On Premise,"TASTE OF HONG KONG,INC.","621 CENTER POINT WAY
GAITHERSBURG, MD 20878
(39.121921, -77.234581)"
BOWL AMERICA GAITHERSBURG,1101 CLOPPER ROAD,GAITHERSBURG,MD,20878,BBWLHR309,On Premise,"BOWL AMERICA, INC.","1101 CLOPPER ROAD
GAITHERSBURG, MD 20878
(39.146818, -77.229742)"
BRIGHTON BEER & WINE,225 MUDDY BRANCH ROAD,GAITHERSBURG,MD,20878,ABW23906,Off Premise,"NDA GROUP, INC","225 MUDDY BRANCH ROAD
GAITHERSBURG, MD 20878
(39.130342, -77.207302)"
ICHIBAN RESTAURANT,637 NORTH FREDERICK AVE.,GAITHERSBURG,MD,20879,BBWLHR168,On Premise,"YOUNG & CHANG, INC.","637 NORTH FREDERICK AVE.
GAITHERSBURG, MD 20879
(39.154425, -77.214259)"
NICK'S CHOPHOUSE,700 KING FARM BLVD,ROCKVILLE,MD,20850,BBWLHR319,On Premise,NICKY'S CHOPHOUSE LLC,"700 KING FARM BLVD
ROCKVILLE, MD 20850
(39.1118, -77.17774)"
AMERICAN LEGION POST #171,"10201 LEWIS DRIVE, P.O. BOX 171",DAMASCUS,MD,20872,CBWLC20177,On Premise,DEPT. MD DAMASCUS AMER. LG. # 171,"10201 LEWIS DRIVE, P.O. BOX 171
DAMASCUS, MD 20872
(39.2913, -77.21135)"
YIKU SUSHI,818 MUDDY BRANCH ROAD,GAITHERSBURG,MD,20878,BBWHR23411,On/Off-Premise,"JWL, LLC","818 MUDDY BRANCH ROAD
GAITHERSBURG, MD 20878
(39.113526, -77.216144)"
RICCIUTI'S BRICK OVEN PIZZA,3308 OLNEY SANDY SPRING ROAD,OLNEY,MD,20832,BBWLHR037,On Premise,CAJ LLC,"3308 OLNEY SANDY SPRING ROAD
OLNEY, MD 20832
(39.152324, -77.065277)"
AFRICAN PALACE,117 N. FREDERICK AVENUE,GAITHERSBURG,MD,20877,DBWL21494,On Premise,"AFRICAN PALACE, LLC","117 N. FREDERICK AVENUE
GAITHERSBURG, MD 20877
(39.143274, -77.200769)"
TAIPEI TOKYO,"14921 SHADY GROVE ROAD, UNIT D",ROCKVILLE,MD,20850,BBWLHR021,On Premise,"YUNG LONG, INC.","14921 SHADY GROVE ROAD, UNIT D
ROCKVILLE, MD 20850
(39.096703, -77.194789)"
KENTLANDS GOURMET,414 MAIN ST,GAITHERSBURG,MD,20878,ABW201,Off Premise,KENTLANDS GOURMET,"414 MAIN ST
GAITHERSBURG, MD 20878
(39.120979, -77.236519)"
ROCK BOTTOM BREWERY,7900 NORFOLK AVE,BETHESDA,MD,20814,BBWLHR238,On Premise,WALNUT BREWERY INC.,"7900 NORFOLK AVE
BETHESDA, MD 20814
(38.989094, -77.097551)"
MIDWAY BEER & WINE,16057 FREDERICK ROAD,DERWOOD,MD,20855,ABW279,Off Premise,SHIVA CORPORATION,"16057 FREDERICK ROAD
DERWOOD, MD 20855
(39.118865, -77.171444)"
CLASSIC BEER & WINE,891 ROCKVILLE PIKE,ROCKVILLE,MD,20852,ABWS256,Off Premise,"AREEHANT, LLC","891 ROCKVILLE PIKE
ROCKVILLE, MD 20852
(39.07453, -77.135967)"
SUYAMASTER,2302-2304 PRICE AVENUE,WHEATON,MD,20902,BBWLHR20008,On Premise,"SUYAMASTER, LLC","2302-2304 PRICE AVENUE
WHEATON, MD 20902
(39.040305, -77.050369)"
PRALINE,"4611 SANGAMORE ROAD, UNIT O",BETHESDA,MD,20816,BBWLHR408,On Premise,"PRALINE BAKERY, LLC,","4611 SANGAMORE ROAD, UNIT O
BETHESDA, MD 20816
(38.94866, -77.119725)"
"POTOMAC BEER, WINE & DELI",9700 TRAVILLE GATEWAY DR.,ROCKVILLE,MD,20850,ABW055,Off Premise,"JINHYE, INC.","9700 TRAVILLE GATEWAY DR.
ROCKVILLE, MD 20850
(39.091179, -77.20449)"
J N K BEER & WINE,14344 LAYHILL ROAD,SILVER SPRING,MD,20906,ABW068,Off Premise,S.C. KEENER LLC.,"14344 LAYHILL ROAD
SILVER SPRING, MD 20906
(39.091092, -77.044982)"
GORDON BIERSCH BREWERY RESTAURANT,"200 EAST MIDDLE LANE, UNIT A",ROCKVILLE,MD,20850,BBWLHR421,On Premise,"BIG RIVER BREWERIES, INC.","200 EAST MIDDLE LANE, UNIT A
ROCKVILLE, MD 20850
(39.085126, -77.150977)"
N-THE VILLAGE AT ROCKVILLE,9701 VEIRS DR,ROCKVILLE,MD,20850,CBWLRC26512,On Premise,"THE VILLAGE AT ROCKIVLLE, INC","9701 VEIRS DR
ROCKVILLE, MD 20850
(39.077226, -77.19424)"
"SEMINARY BEER, WINE & DELI",9458 GEORGIA AVE,SILVER SPRING,MD,20910,ABW043,Off Premise,"B.B.S.B.,INC.","9458 GEORGIA AVE
SILVER SPRING, MD 20910
(39.009892, -77.040687)"
GROVE BEER AND WINE,16825 CRABBS BRANCH WAY,DERWOOD,MD,20855,ABW199,Off Premise,AIMIE CORP.,"16825 CRABBS BRANCH WAY
DERWOOD, MD 20855
(39.130293, -77.168245)"
BURGERFI,8504 FENTON STREET,SILVER SPRING,MD,20910,HBW1071358,On Premise,"SILVER SPRING BURGER, LLC.","8504 FENTON STREET
SILVER SPRING, MD 20910
(38.995801, -77.024531)"
18/8 FINE MEN'S SALONS,7550 WISCONSIN AVE,BETHESDA,MD,20814,SBSBW23007,On Premise,"WISCONSIN, INC","7550 WISCONSIN AVE
BETHESDA, MD 20814
(38.985703, -77.094552)"
NANCY'S KITCHEN,3808 INTERNATIONAL DRIVE,SILVER SPRING,MD,20906,HBW065,On Premise,NANCY'S KITCHEN OF SILVER SPRI,"3808 INTERNATIONAL DRIVE
SILVER SPRING, MD 20906
(39.103528, -77.075426)"
CURRY PLACE,385 MUDDY BRANCH ROAD,GAITHERSBURG,MD,20878,BBWLHR24428,On Premise,"CURRY PLACE TWO, LLC","385 MUDDY BRANCH ROAD
GAITHERSBURG, MD 20878
(39.126496, -77.211286)"
TAVIRA RESTAURANT,8401 CONNECTICUT AVE,CHEVY CHASE,MD,20815,BBWLHR260,On Premise,"DUCA, LLC","8401 CONNECTICUT AVE
CHEVY CHASE, MD 20815
(38.994246, -77.077062)"
LA ANTIGUA RESTAURANT,11260 GEORGIA AVE,SILVER SPRING,MD,20902,BBWLHR403,On Premise,"LA ANTIGUA RESTAURANT, INC.","11260 GEORGIA AVE
SILVER SPRING, MD 20902
(39.040157, -77.051423)"
CUBA DE AYER,15446 OLD COLUMBIA PIKE,BURTONSVILLE,MD,20866,BBWLHR139,On Premise,"CUBA DE AYER, INC.","15446 OLD COLUMBIA PIKE
BURTONSVILLE, MD 20866
(39.109189, -76.935466)"
RANDOLPH BEER & WINE,5401 RANDOLPH ROAD,ROCKVILLE,MD,20852,DBW161,On/Off-Premise,"COAST RESOURCES, INC.","5401 RANDOLPH ROAD
ROCKVILLE, MD 20852
(39.053481, -77.107079)"
HOLIDAY INN EXPRESS & SUITES,20260 GOLDENROD LANE,GERMANTOWN,MD,20876,BBWLHM219,On Premise,"GERMANTOWN HOSPITALITY, LLC","20260 GOLDENROD LANE
GERMANTOWN, MD 20876
(39.186, -77.251846)"
WONG GEE ASIAN RESTAURANT,"2417 UNIVERSITY BLVD, WEST",SILVER SPRING,MD,20902,BBWLHR509,On Premise,WONG GEE ASIAN RESTAURANT CORP,"2417 UNIVERSITY BLVD, WEST
SILVER SPRING, MD 20902
(39.041672, -77.050516)"
LOVE SUSHI,9031 GAITHER ROAD,GAITHERSBURG,MD,20877,HBW299,On Premise,"KAWA ENTERPRISE, INC","9031 GAITHER ROAD
GAITHERSBURG, MD 20877
(39.117517, -77.185054)"
EVANGADI SPORTS BAR & LOUNGE,953 BONIFANT STREET,SILVER SPRING,MD,20910,BBWLHR24054,On Premise,"CLOUD SPORTS BAR, LLC","953 BONIFANT STREET
SILVER SPRING, MD 20910
(38.993683, -77.02569)"
AGRODOLCE,"21030 FREDERICK ROAD, UNIT J",GERMANTOWN,MD,20876,HBW184,On Premise,"AGRODOLCE,LLC","21030 FREDERICK ROAD, UNIT J
GERMANTOWN, MD 20876
(39.201462, -77.24556)"
MAMMA LENA,13507 CLOPPER ROAD,GERMANTOWN,MD,20874,BBWHR24735,On/Off-Premise,"MAMMA LENA, LLC","13507 CLOPPER ROAD
GERMANTOWN, MD 20874
(39.161818, -77.280945)"
PENANG MALAYSIAN CUISINE,4933 BETHESDA AVENUE,BETHESDA,MD,20814,BBWLHR21451,On Premise,"32168, INC","4933 BETHESDA AVENUE
BETHESDA, MD 20814
(38.980799, -77.099575)"
LA FOGATA RESTAURANT,2259 BEL PRE ROAD,SILVER SPRING,MD,20906,BBWLHR858,On Premise,"LA FOGATA RESTAURANT, INC","2259 BEL PRE ROAD
SILVER SPRING, MD 20906
(39.090489, -77.048503)"
6/12 CONVENIENT MART,14100-C DARNESTOWN ROAD,GERMANTOWN,MD,20874,ABWS223,Off Premise,NIVA LLC,"14100-C DARNESTOWN ROAD
GERMANTOWN, MD 20874
(39.103449, -77.292042)"
WILLOUGHBY MARKET,4515 WILLARD AVE,CHEVY CHASE,MD,20815,ABW175,Off Premise,CHAE UNG CHO,"4515 WILLARD AVE
CHEVY CHASE, MD 20815
(38.962385, -77.090858)"
SUSHI CHALET,323 MUDDY BRANCH ROAD,GAITHERSBURG,MD,20878,HBW118,On Premise,"PBDK,LLC","323 MUDDY BRANCH ROAD
GAITHERSBURG, MD 20878
(39.127265, -77.21014)"
BASSETT'S,19950 FISHER AVE,POOLESVILLE,MD,20837,BBWLHR262,On Premise,P.O. BOX 147,"19950 FISHER AVE
POOLESVILLE, MD 20837
(39.146172, -77.417189)"
4935 BAR & KITCHEN,4935 CORDELL AVE,BETHESDA,MD,20814,BBWLHR751,On Premise,"ALFRED RESTAURANT GROUP, LLC","4935 CORDELL AVE
BETHESDA, MD 20814
(38.988887, -77.098588)"
JULLIANO'S ITALIAN CAFE,6840 OLNEY LAYTONSVILLE ROAD,LAYTONSVILLE,MD,20882,HBW281,On Premise,"FUENTES RESTAURANT, INC.","6840 OLNEY LAYTONSVILLE ROAD
LAYTONSVILLE, MD 20882
(39.204419, -77.139762)"
URBAN WINERY,949-A BONIFANT STREET,SILVER SPRING,MD,20910,DBW21272,On/Off-Premise,URBAN WINERY,"949-A BONIFANT STREET
SILVER SPRING, MD 20910
(38.993699, -77.025653)"
ROUND HOUSE THEATRE,4545 EAST-WEST HIGHWAY,BETHESDA,MD,20814,STBW004,On Premise,"ROUND HOUSE THEATRE, INC.","4545 EAST-WEST HIGHWAY
BETHESDA, MD 20814
(38.984947, -77.091791)"
O'DONNELL'S MARKET,1073 SEVEN LOCKS ROAD,ROCKVILLE,MD,20850,HBW21614,On Premise,"O'DONNELL'S MARKET, LLC","1073 SEVEN LOCKS ROAD
ROCKVILLE, MD 20850
(39.062109, -77.160803)"
VILLAGE BEER & WINE - POOLESVILLE,"19710 FISHER AVE, UNIT G",POOLESVILLE,MD,20837,ABW238,Off Premise,"MANAKAMANA, INC.","19710 FISHER AVE, UNIT G
POOLESVILLE, MD 20837
(39.144809, -77.412165)"
GEORGIA MARKET,"13623 GEORGIA AVE, UNIT D",SILVER SPRING,MD,20906,ABW147,Off Premise,"MUHN, INC.","13623 GEORGIA AVE, UNIT D
SILVER SPRING, MD 20906
(39.079414, -77.073231)"
SUGO MACARONI BAR,12505 PARK POTOMAC AVE,POTOMAC,MD,20854,BBWLHR706,On Premise,"SUGO, LLC","12505 PARK POTOMAC AVE
POTOMAC, MD 20854
(39.060217, -77.157813)"
LEBANESE TAVERNA CAFE - TOWN CENTER,"115 GIBBS STREET, UNIT A",ROCKVILLE,MD,20850,BBWLHR434,On Premise,"LEBANESE TAVERNA ROCKVILLE, IN","115 GIBBS STREET, UNIT A
ROCKVILLE, MD 20850
(39.086116, -77.151973)"
RAINBOW RESTAURANT,"312 E. DIAMOND AVE, B-1",GAITHERSBURG,MD,20877,HBW119,On Premise,RAINBOW REST. AND CATERING SER,"312 E. DIAMOND AVE, B-1
GAITHERSBURG, MD 20877
(39.142162, -77.192704)"
ETCHISON COUNTRY STORE,7000 DAMASCUS ROAD,GAITHERSBURG,MD,20882,ABW118,Off Premise,ELK INCORPORATED,"7000 DAMASCUS ROAD
GAITHERSBURG, MD 20882
(39.255887, -77.145206)"
CARRABBAS ITALIAN GRILL,19935 CENTURY BLVD,GERMANTOWN,MD,20874,BBWLHR099,On Premise,"CARRABBAS OF GERMANTOWN, INC.","19935 CENTURY BLVD
GERMANTOWN, MD 20874
(39.183402, -77.262396)"
BEMNET SUPERMARKET & DELI,617 SLIGO AVENUE,SILVER SPRING,MD,20910,DBW18176,On/Off-Premise,"BEMNET SUPERMARKET & DELI, LLC","617 SLIGO AVENUE
SILVER SPRING, MD 20910
(38.991185, -77.014067)"
MI PUEBLITO,6 NORTH SUMMIT AVE,GAITHERSBURG,MD,20877,BBWLHR774,On Premise,"MI PUEBLITO RESTAURANT, LLC","6 NORTH SUMMIT AVE
GAITHERSBURG, MD 20877
(39.142325, -77.193381)"
BOWLMOR,15720 SHADY GROVE ROAD,GAITHERSBURG,MD,20877,BBWLHR497,On Premise,"AMF BOWLING CENTERS, INC.","15720 SHADY GROVE ROAD
GAITHERSBURG, MD 20877
(39.113715, -77.18643)"
GRAND FUSION,350 FORTUNE TERRACE,ROCKVILLE,MD,20854,HBW025,On Premise,"KYS ENTERPRISES, INC.","350 FORTUNE TERRACE
ROCKVILLE, MD 20854
(39.062399, -77.159582)"
JONATHANS A PUBLICK HOUSE,820 BALTIMORE ROAD,ROCKVILLE,MD,20851,BBWLHR082,On Premise,"MOONBURST INDUSTRIES, INC.","820 BALTIMORE ROAD
ROCKVILLE, MD 20851
(39.084495, -77.135855)"
EL AGUILA RESTAURANT - 16TH STREET,8649 16TH STREET,SILVER SPRING,MD,20910,BBWLHR213,On Premise,J.M.D. RESTAURANTS INC.,"8649 16TH STREET
SILVER SPRING, MD 20910
(38.998606, -77.039531)"
LA MADELEINE - PIKE & ROSE,11610 OLD GEORGETOWN ROAD,ROCKVILLE,MD,20852,BBWLHR18642,On Premise,"LA MADELEINE OF MARYLAND, LLC","11610 OLD GEORGETOWN ROAD
ROCKVILLE, MD 20852
(39.049174, -77.116479)"
HOUSE OF POOLESVILLE,19611 FISHER AVE,POOLESVILLE,MD,20837,BBWLHR480,On Premise,"HOUSE OF POOLESVILLE,LLC","19611 FISHER AVE
POOLESVILLE, MD 20837
(39.14421, -77.409873)"
ANDY'S BEER AND WINE,15523 NEW HAMPSHIRE AVE,SILVER SPRING,MD,20905,ABW21694,Off Premise,"JS2Y, INC","15523 NEW HAMPSHIRE AVE
SILVER SPRING, MD 20905
(39.110833, -76.995814)"
MAKI CAFE,842-C ROCKVILLE PIKE,ROCKVILLE,MD,20852,DBW152,On/Off-Premise,"MAKI, LLC","842-C ROCKVILLE PIKE
ROCKVILLE, MD 20852
(39.075496, -77.137095)"
LITTLE BENNETT GOLF COURSE,25900 PRESCOTT ROAD,CLARKSBURG,MD,20871,HBW100,On Premise,MONTGOMERY CO. REV. AUTHORITY,"25900 PRESCOTT ROAD
CLARKSBURG, MD 20871
(39.281759, -77.29496)"
DENIZENS BREWING COMPANY,1115 EAST WEST HIGHWAY,SILVER SPRING,MD,20910,DBW159,On/Off-Premise,"CITIZENS BREWING, LLC","1115 EAST WEST HIGHWAY
SILVER SPRING, MD 20910
(38.988634, -77.027726)"
MARRIOTT SUITES - BETHESDA,6711 DEMOCRACY BLVD,BETHESDA,MD,20817,BBWLHM006,On Premise,ADAM SALAMA,"6711 DEMOCRACY BLVD
BETHESDA, MD 20817
(39.021509, -77.137961)"
MEMSAHIB RESTAURANT,4840 BOILING BROOK PARKWAY,ROCKVILLE,MD,20852,BBWLHR224,On Premise,SUDARSHAN TULI,"4840 BOILING BROOK PARKWAY
ROCKVILLE, MD 20852
(39.046726, -77.098115)"
SEOUL SOON DAE,12203 VEIRS MILL ROAD,SILVER SPRING,MD,20906,BBWLHR252,On Premise,SEOUL INC.,"12203 VEIRS MILL ROAD
SILVER SPRING, MD 20906
(39.056293, -77.082626)"
GROWLERS,227 E. DIAMOND AVE.,GAITHERSBURG,MD,20877,BBWLHR660,On Premise,"GROWLERS OF GAITHERSBURG, LLC","227 E. DIAMOND AVE.
GAITHERSBURG, MD 20877
(39.142164, -77.193652)"
B & B BEER & WINE,8403 SNOUFFER SCHOOL ROAD,GAITHERSBURG,MD,20879,ABW281,Off Premise,"SOVATHA, LLC","8403 SNOUFFER SCHOOL ROAD
GAITHERSBURG, MD 20879
(39.166452, -77.171017)"
WHEATON DELI,11413 GEORGIA AVE,SILVER SPRING,MD,20902,ABW124,Off Premise,WHEATON DELI LLC,"11413 GEORGIA AVE
SILVER SPRING, MD 20902
(39.042032, -77.051833)"
PICCA POLLO A LA BRASA,13000 MIDDLEBROOK ROAD,GERMANTOWN,MD,20874,BBWLHR854,On Premise,"PICCA CHICKEN, INC","13000 MIDDLEBROOK ROAD
GERMANTOWN, MD 20874
(39.181814, -77.270033)"
SARDIS FUSION,3418 OLNEY-LAYTONSVILLE ROAD,OLNEY,MD,20832,BBWLHR21342,On Premise,"SARDIS FUSION, INC","3418 OLNEY-LAYTONSVILLE ROAD
OLNEY, MD 20832
(39.153343, -77.067257)"
HILTON GARDEN INN & HOMEWOOD SUITES,14975 SHADY GROVE ROAD,ROCKVILLE,MD,20850,BBWLHM021,On Premise,"FALLSGROVE HOTEL ASSOCIATES, L","14975 SHADY GROVE ROAD
ROCKVILLE, MD 20850
(39.100259, -77.192039)"
CAPTAIN'S MARKET,7607 MACARTHUR BLVD,CABIN JOHN,MD,20818,ABWS023,Off Premise,JAE & JAE CORPORATION,"7607 MACARTHUR BLVD
CABIN JOHN, MD 20818
(38.973444, -77.155725)"
RIO GRANDE CAFE- BETHESDA,4870 BETHESDA AVE,BETHESDA,MD,20814,BBWLHR161,On Premise,"THE MEXICAN REST., INC.","4870 BETHESDA AVE
BETHESDA, MD 20814
(38.980851, -77.098053)"
BON CHON OF GERMANTOWN,19775 FREDERICK ROAD,GERMANTOWN,MD,20876,BBWLHR21460,On Premise,"BON BON HOSPITALITY, LLC","19775 FREDERICK ROAD
GERMANTOWN, MD 20876
(39.179567, -77.238368)"
WESENYELESH INTERNATIONAL MKT,901 SILVER SPRING AVENUE,SILVER SPRING,MD,20910,ABW269,Off Premise,"WESENYELESH INTER. MARKET, LLC","901 SILVER SPRING AVENUE
SILVER SPRING, MD 20910
(38.991664, -77.024322)"
MYKONOS GRILL,121 CONGRESSIONAL LANE,ROCKVILLE,MD,20852,BBWLHR210,On Premise,"HANE RESTAURANT, INC.","121 CONGRESSIONAL LANE
ROCKVILLE, MD 20852
(39.063294, -77.127708)"
"KWIK-STOP BEER, WINE & DELI",15104 FREDERICK ROAD,ROCKVILLE,MD,20850,ABW070,Off Premise,K.S.K. CORPORATION,"15104 FREDERICK ROAD
ROCKVILLE, MD 20850
(39.10502, -77.157311)"
"BEST BEER, WINE, DELI & GROCERY","18749 NORTH FREDERICK ROAD, UNIT A",GAITHERSBURG,MD,20879,ABWS207,Off Premise,"AMBEKRUPA, LLC","18749 NORTH FREDERICK ROAD, UNIT A
GAITHERSBURG, MD 20879
(39.16348, -77.226137)"
GUAPO'S - BETHESDA,8130 WISCONSIN AVE,BETHESDA,MD,20814,BBWLHR051,On Premise,GUAPO'S BETHESDA INC.,"8130 WISCONSIN AVE
BETHESDA, MD 20814
(38.991663, -77.095844)"
FRESH GREEK GRILL,25 UNIVERSITY BLVD,SILVER SPRING,MD,20901,DBW149,On/Off-Premise,FRESH GREEK GRILL,"25 UNIVERSITY BLVD
SILVER SPRING, MD 20901
(39.0209, -77.013594)"
POTOMAC PIZZA,9812 FALLS ROAD,POTOMAC,MD,20854,BBWLHR132,On Premise,"PIZZA ZONE OF POTOMAC, INC.","9812 FALLS ROAD
POTOMAC, MD 20854
(39.016792, -77.210355)"
LOTUS NAILS,255 SPECTRUM AVENUE,GAITHERSBURG,MD,20879,SBSBW21339,On Premise,LOTUS NAILS,"255 SPECTRUM AVENUE
GAITHERSBURG, MD 20879
(39.159721, -77.22171)"
OLAZZO RESTAURANT,8235 GEORGIA AVE,SILVER SPRING,MD,20910,BBWLHR197,On Premise,"OLAZZO, INC.","8235 GEORGIA AVE
SILVER SPRING, MD 20910
(38.992675, -77.02655)"
KNIGHTS OF PYTHIAS,11011 GAME PRESERVE ROAD,GAITHERSBURG,MD,20879,CBWLFV017,On Premise,KNIGHTS OF PYTHIAS,"11011 GAME PRESERVE ROAD
GAITHERSBURG, MD 20879
(39.164058, -77.2288)"
TARA THAI - ROCKVILLE,12071 ROCKVILLE PIKE,ROCKVILLE,MD,20852,BBWLHR164,On Premise,"AQUATIC THAI, INC.","12071 ROCKVILLE PIKE
ROCKVILLE, MD 20852
(39.05493, -77.118027)"
THE CANCUN GRILL,11220 GEORGIA AVE,SILVER SPRING,MD,20902,BBWLHR670,On Premise,"SANDOVAL & SANDOVAL, INC.","11220 GEORGIA AVE
SILVER SPRING, MD 20902
(39.039249, -77.051142)"
HOUSE OF FOONG LIN,4613 WILLOW LANE,CHEVY CHASE,MD,20815,BBWLHR775,On Premise,"CFK, LLC","4613 WILLOW LANE
CHEVY CHASE, MD 20815
(38.981551, -77.091655)"
LOUISIANA KITCHEN & BAYOU BAR,4907 CORDELL AVE,BETHESDA,MD,20814,BBWLHR503,On Premise,LOUISIANA KITCHEN AND BAYOU BA,"4907 CORDELL AVE
BETHESDA, MD 20814
(38.989182, -77.098313)"
BROOKVILLE MARKET,7027 BROOKVILLE ROAD,CHEVY CHASE,MD,20815,ABW189,Off Premise,"CHEVY CHASE MARKET, INC.","7027 BROOKVILLE ROAD
CHEVY CHASE, MD 20815
(38.980533, -77.071265)"
BENNIGANS,23315 FREDERICK ROAD,CLARKSBURG,MD,20871,BBWLHR754,On Premise,"BUFFINGTON ENTERPRISES III, LL","23315 FREDERICK ROAD
CLARKSBURG, MD 20871
(39.238534, -77.279108)"
SMOKEY GLEN FARM,16407 RIFFLEFORD ROAD,GAITHERSBURG,MD,20878,BBWLHR221,On Premise,SMOKEY GLEN FARM BARBERQUERS I,"16407 RIFFLEFORD ROAD
GAITHERSBURG, MD 20878
(39.125317, -77.269085)"
MONTGOMERY GOURMET,10313 WESTLAKE DRIVE,BETHESDA,MD,20817,ABWS002,Off Premise,"YOUNG&KEUM,INC.","10313 WESTLAKE DRIVE
BETHESDA, MD 20817
(39.026316, -77.147997)"
SUSHI DAMO,"36 MARYLAND AVE, UNIT G",ROCKVILLE,MD,20850,BBWLHR427,On Premise,"DAMO DALCOM, INC.","36 MARYLAND AVE, UNIT G
ROCKVILLE, MD 20850
(39.085377, -77.150979)"
TASTEE DINER,8601 CAMERON STREET,SILVER SPRING,MD,20910,DBW033,On Premise,TASTEE DINER INC,"8601 CAMERON STREET
SILVER SPRING, MD 20910
(38.997571, -77.029684)"
MEIWAH RESTAURANT,4457 WILLARD AVE,CHEVY CHASE,MD,20815,BBWLHR176,On Premise,"HAKKA, LLC","4457 WILLARD AVE
CHEVY CHASE, MD 20815
(38.961978, -77.088231)"
CANA BEER & WINE,13505 CLOPPER ROAD,GERMANTOWN,MD,20874,ABWS270,Off Premise,"CANA BEER & WINE, INC.","13505 CLOPPER ROAD
GERMANTOWN, MD 20874
(39.161823, -77.280956)"
THE MUSIC CAFE,"26528 RIDGE ROAD, UNIT B",DAMASCUS,MD,20872,HBW311,On Premise,"THE MUSIC CAFE, INC","26528 RIDGE ROAD, UNIT B
DAMASCUS, MD 20872
(39.292, -77.204987)"
SPICE XING,"100 GIBBS STREET, UNIT B",ROCKVILLE,MD,20850,BBWLHR522,On Premise,"SETHSAN , LLC","100 GIBBS STREET, UNIT B
ROCKVILLE, MD 20850
(39.086751, -77.151984)"
MOD SUPER FAST PIZZA,909 ELLSWORTH DRIVE B-106,SILVER SPRING,MD,20910,BBWLHR21675,On Premise,"MOD SUPER FAST PIZZA, LLC","909 ELLSWORTH DRIVE B-106
SILVER SPRING, MD 20910
(38.995894, -77.026456)"
MAMMA LUCIA - ROCKVILLE,"12274 ROCKVILLE PIKE, SUITE M",ROCKVILLE,MD,20852,BBWLHR387,On Premise,"MAMMA LUCIA OF MONTGOMERY, INC","12274 ROCKVILLE PIKE, SUITE M
ROCKVILLE, MD 20852
(39.057665, -77.120508)"
HUNTER'S BAR & GRILL,10123 RIVER ROAD,POTOMAC,MD,20854,BBWLHR274,On Premise,"JBS RESTUARANT MANAGEMENT,LLC","10123 RIVER ROAD
POTOMAC, MD 20854
(39.017747, -77.208456)"
GOLDEN BULL GRAND CAFE,7 DALAMAR STREET,GAITHERSBURG,MD,20877,BBWLHR126,On Premise,SEVEN DALAMAR STREET INC.,"7 DALAMAR STREET
GAITHERSBURG, MD 20877
(39.145828, -77.205781)"
LIGHTHOUSE TOFU & BBQ,12710 TWINBROOK PARKWAY,ROCKVILLE,MD,20852,BBWLHR692,On Premise,"MYUNG GA OF MD, INC.","12710 TWINBROOK PARKWAY
ROCKVILLE, MD 20852
(39.064648, -77.1156)"
CAVA MEZZE GRILL - KENTLANDS,213 KENTLANDS BLVD.,GAITHERSBURG,MD,20878,BBWLHR865,On Premise,"CAVA MEZZE GRILL KENTLANDS, LL","213 KENTLANDS BLVD.
GAITHERSBURG, MD 20878
(39.123233, -77.236239)"
RUTH'S CHRIS STEAK HOUSE - BETHESDA,7315 WISCONSIN AVE,BETHESDA,MD,20814,BBWLHR253,On Premise,"RCSH OPERATIONS,LLC","7315 WISCONSIN AVE
BETHESDA, MD 20814
(38.982402, -77.093174)"
BISTRO PROVENCE,4933 FAIRMONT AVE,BETHESDA,MD,20814,BBWLHR584,On Premise,"BISTRO PROVENCE, LLC","4933 FAIRMONT AVE
BETHESDA, MD 20814
(38.987605, -77.097446)"
ALICIA'S MEXICAN GRILL,16533 SOUTH FREDERICK ROAD,GAITHERSBURG,MD,20877,BBWLHR728,On Premise,"ALICIA RESTAURANT, INC.","16533 SOUTH FREDERICK ROAD
GAITHERSBURG, MD 20877
(39.12674, -77.183762)"
HILTON GARDEN INN,2200 BROADBIRCH DRIVE,SILVER SPRING,MD,20904,BBWLHM213,On Premise,"SILVER SPRING BEVERAGE, LLC","2200 BROADBIRCH DRIVE
SILVER SPRING, MD 20904
(39.055867, -76.966525)"
THAI FARM,"800 KING FARM BLVD., #125",ROCKVILLE,MD,20850,BBWLHR325,On Premise,"THAI FARM, INC.","800 KING FARM BLVD., #125
ROCKVILLE, MD 20850
(39.111796, -77.177755)"
ABI AZTECA GRILL,11514 MIDDLEBROOK ROAD,GERMANTOWN,MD,20874,BBWLHR792,On Premise,"AZTECA GRILL, LLC","11514 MIDDLEBROOK ROAD
GERMANTOWN, MD 20874
(39.180413, -77.2394)"
MAIN STREET BEER & WINE,300 MAIN STREET,GAITHERSBURG,MD,20878,ABW237,Off Premise,NONE,"300 MAIN STREET
GAITHERSBURG, MD 20878
(39.122165, -77.238691)"
WORLD MARKET - ROCKVILLE,"12266 ROCKVILLE PIKE, UNIT P",ROCKVILLE,MD,20852,ABWS220,Off Premise,"COST PLUS, INC.","12266 ROCKVILLE PIKE, UNIT P
ROCKVILLE, MD 20852
(39.057654, -77.120498)"
BURNING TREE CLUB,8600 BURDETTE ROAD,BETHESDA,MD,20817,CBWLCC007,On Premise,"BURNING TREE CLUB, INC.","8600 BURDETTE ROAD
BETHESDA, MD 20817
(38.998481, -77.146378)"
MANNA R.D. RESTAURANT,8640 FLOWER AVE,TAKOMA PARK,MD,20912,BBWLHR596,On Premise,"MANNA RD, INC.","8640 FLOWER AVE
TAKOMA PARK, MD 20912
(38.997742, -77.003463)"
LA LIMENA RESTAURANT,"765 ROCKVILLE PIKE, UNIT A",ROCKVILLE,MD,20852,BBWLHR506,On Premise,"EMMY'S DESSERTS, INC.","765 ROCKVILLE PIKE, UNIT A
ROCKVILLE, MD 20852
(39.077772, -77.140569)"
CUGINIS RESTAURANT & BAR,"19616 FISHER AVE, UNIT H",POOLESVILLE,MD,20837,BBWLHR758,On Premise,"CUGINIS RESTAURANT & BAR, LLC","19616 FISHER AVE, UNIT H
POOLESVILLE, MD 20837
(39.144194, -77.409811)"
ITALIAN PINES,12166 DARNESTOWN ROAD,GAITHERSBURG,MD,20878,HBW125,On Premise,"RUA, INC.","12166 DARNESTOWN ROAD
GAITHERSBURG, MD 20878
(39.117713, -77.252579)"
LANGANO ETHIOPIAN RESTAURANT,8305 GEORGIA AVE,SILVER SPRING,MD,20910,BBWLHR738,On Premise,LANGANO LLC,"8305 GEORGIA AVE
SILVER SPRING, MD 20910
(38.993139, -77.026576)"
BETHESDA COUNTRY CLUB,7601 BRADLEY BLVD.,BETHESDA,MD,20817,CBWLCC004,On Premise,BETHESDA COUNTRY CLUB INC.,"7601 BRADLEY BLVD.
BETHESDA, MD 20817
(39.011143, -77.154611)"
MOOSE LODGE #1775,2901 BEL PRE ROAD,SILVER SPRING,MD,20906,CBWLFV006,On Premise,"WHEATON MOOSE LODGE #1775, INC","2901 BEL PRE ROAD
SILVER SPRING, MD 20906
(39.0907, -77.059394)"
GREATEST AMERICAN HOT DOGS,7206 MUNCASTER MILL ROAD,DERWOOD,MD,20855,BBWHR144,On/Off-Premise,"GREATEST AMERICA HOTDOG, INC","7206 MUNCASTER MILL ROAD
DERWOOD, MD 20855
(39.146159, -77.145086)"
BRIGGS CHANEY DELI,13832 OUTLET DRIVE,SILVER SPRING,MD,20904,DBW150,On/Off-Premise,"TALATI ENTERPRISES, INC","13832 OUTLET DRIVE
SILVER SPRING, MD 20904
(39.082799, -76.94631)"
LA CANELA,141 GIBBS STREET,ROCKVILLE,MD,20850,BBWLHR281,On Premise,MASHA CORP II,"141 GIBBS STREET
ROCKVILLE, MD 20850
(39.087005, -77.151982)"
THE YO YO CAFE,13843 OUTLET DR.,SILVER SPRING,MD,20904,BBWLHR147,On Premise,"RGRS COMPANY, INC.","13843 OUTLET DR.
SILVER SPRING, MD 20904
(39.082866, -76.946201)"
ASBURY METHODIST VILLAGE,201 RUSSELL AVENUE,GAITHERSBURG,MD,20877,CBWLRC004,On Premise,"IVA, INC","201 RUSSELL AVENUE
GAITHERSBURG, MD 20877
(39.14535, -77.197239)"
BUCA DI BEPPO,122 KENTLANDS BLVD.,GAITHERSBURG,MD,20878,BBWLHR076,On Premise,"BUCA RESTAURANTS, INC.","122 KENTLANDS BLVD.
GAITHERSBURG, MD 20878
(39.122951, -77.233776)"
REPUBLIC,6937 LAUREL AVENUE,TAKOMA PARK,MD,20912,BBWLHR812,On Premise,"BLACKWELLS LAUREL AVE, LLC","6937 LAUREL AVENUE
TAKOMA PARK, MD 20912
(38.974144, -77.012552)"
ROSE'S ONE STOP GIFT SHOP,961 BONIFANT ST,SILVER SPRING,MD,20910,ABW23473,Off Premise,"ROSE'S ONE STOP GIFT SHOP, LLC","961 BONIFANT ST
SILVER SPRING, MD 20910
(38.993581, -77.025938)"
GOOD FORTUNE CAFE,237 KENTLANDS BLVD.,GAITHERSBURG,MD,20878,HBW298,On Premise,"GOOD FORTUNE CAFE, INC.","237 KENTLANDS BLVD.
GAITHERSBURG, MD 20878
(39.123217, -77.235999)"
THE BURGER JOINT - BETHESDA,4827 FAIRMONT AVE,BETHESDA,MD,20814,BBWLHR644,On Premise,"CAPITOL BURGER, LLC","4827 FAIRMONT AVE
BETHESDA, MD 20814
(38.988846, -77.096178)"
WHEATON PARK BEER & WINE,12039 GEORGIA AVE,SILVER SPRING,MD,20902,DBW039,On/Off-Premise,"OM SHANTI, LLC","12039 GEORGIA AVE
SILVER SPRING, MD 20902
(39.052062, -77.051128)"
ONE DAY LICENSE,201 EDISON PARK DRIVE,GAITHERSBURG,MD,20878,18686,On Premise,ONE DAY LICENSE,"201 EDISON PARK DRIVE
GAITHERSBURG, MD 20878
(39.11335, -77.234001)"
OGEI'S CHICKEN & SUBS,293 MUDDY BRANCH ROAD,GAITHERSBURG,MD,20878,BBWLHR651,On Premise,TIRAZHEH INC.,"293 MUDDY BRANCH ROAD
GAITHERSBURG, MD 20878
(39.127601, -77.209722)"
ROMA PIZZA & SUB,5404 RANDOLPH ROAD,ROCKVILLE,MD,20852,DBW144,On/Off-Premise,"KAYANI, LLC","5404 RANDOLPH ROAD
ROCKVILLE, MD 20852
(39.05347, -77.107584)"
BEATESUB MARKET & CARRY OUT,8201 GEORGIA AVENUE,SILVER SPRING,MD,20910,BBWHR26282,On/Off-Premise,"BEATESUB MARKET & CARRY-OUT, INC.","8201 GEORGIA AVENUE
SILVER SPRING, MD 20910
(38.991772, -77.026534)"
COPPER CANYON GRILL- SILVER SPRING,928 ELLSWORTH DRIVE,SILVER SPRING,MD,20910,BBWLHR079,On Premise,"RED ROCK CANYON GRILL, LLC","928 ELLSWORTH DRIVE
SILVER SPRING, MD 20910
(38.995567, -77.026848)"
AMERICAN LEGION POST 268,11225 FERN STREET,SILVER SPRING,MD,20902,CBWLFV002,On Premise,WHEATON POST #268,"11225 FERN STREET
SILVER SPRING, MD 20902
(39.03981, -77.049626)"
SUSHI OISHII,9706 TRAVILLE GATEWAY DR,ROCKVILLE,MD,20850,BBWLHR685,On Premise,"SUSHI OISHII II, INC","9706 TRAVILLE GATEWAY DR
ROCKVILLE, MD 20850
(39.09134, -77.204353)"
THAI TANIUM,657 CENTER POINT WAY,GAITHERSBURG,MD,20878,BBWLHR492,On Premise,"SUNNY & P.S, INC.","657 CENTER POINT WAY
GAITHERSBURG, MD 20878
(39.121946, -77.234949)"
OLD SHANGHAI CAFE,"21040 FREDERICK ROAD, UNIT A",GERMANTOWN,MD,20876,HBW047,On Premise,"NEW CAFE CONCEPTS, INC.","21040 FREDERICK ROAD, UNIT A
GERMANTOWN, MD 20876
(39.201536, -77.245571)"
PHO 95,"785 ROCKVILLE PIKE, UNIT H",ROCKVILLE,MD,20852,HBW028,On Premise,PHO 95 INC.,"785 ROCKVILLE PIKE, UNIT H
ROCKVILLE, MD 20852
(39.077229, -77.139818)"
MARYVALE MARKET,500 NORTH HORNERS LANE,ROCKVILLE,MD,20850,ABW072,Off Premise,MARYVALE MARKET INC.,"500 NORTH HORNERS LANE
ROCKVILLE, MD 20850
(39.090901, -77.143455)"
PHO TAN VINH,8705 COLESVILLE ROAD,SILVER SPRING,MD,20910,BBWLHR846,On Premise,TAN VINH CORPORATION,"8705 COLESVILLE ROAD
SILVER SPRING, MD 20910
(38.997707, -77.026917)"
SMASHBURGER - BETHESDA,4901 CORDELL AVENUE,BETHESDA,MD,20814,BBWLHR814,On Premise,"SMASHBURGER ACQUISTION-MD, LLC","4901 CORDELL AVENUE
BETHESDA, MD 20814
(38.989275, -77.098232)"
MERIDIAN MARKET & WINE,5230 TUCKERMAN LANE,ROCKVILLE,MD,20852,ABW251,Off Premise,EMC AT MERIDIAN INC.,"5230 TUCKERMAN LANE
ROCKVILLE, MD 20852
(39.027449, -77.101293)"
SENECA CONVENIENCE,"12611 WISTERIA DRIVE, UNIT F",GERMANTOWN,MD,20874,ABWS119,Off Premise,SOOD & SOOD INC,"12611 WISTERIA DRIVE, UNIT F
GERMANTOWN, MD 20874
(39.170091, -77.261846)"
PASHA LAND,644 CENTER POINT WAY,GAITHERSBURG,MD,20878,BBWLHR646,On Premise,"SADNI ZAG, LLC","644 CENTER POINT WAY
GAITHERSBURG, MD 20878
(39.121881, -77.233984)"
RED LOBSTER,8533 GEORGIA AVE,SILVER SPRING,MD,20910,BBWLHR355,On Premise,"RL MARYLAND, INC.","8533 GEORGIA AVE
SILVER SPRING, MD 20910
(38.995611, -77.027621)"
BUFFALO WILD WINGS - GAITH,668 CLOPPER ROAD,GAITHERSBURG,MD,20878,BBWLHR784,On Premise,"WAA-GAITHERSBURG, LLC","668 CLOPPER ROAD
GAITHERSBURG, MD 20878
(39.14304, -77.222532)"
FOOD EXPRESS,16254 S. FREDERICK ROAD,GAITHERSBURG,MD,20877,ABW250,Off Premise,"DELI EXPRESS, LLC","16254 S. FREDERICK ROAD
GAITHERSBURG, MD 20877
(39.12139, -77.176032)"
ROCKVILLE BILLIARDS,2015 VEIRS MILL ROAD,ROCKVILLE,MD,20851,HBW016,On Premise,MILLENIUM Q INC.,"2015 VEIRS MILL ROAD
ROCKVILLE, MD 20851
(39.075183, -77.116423)"
WASABI ZEN,18066 GEORGIA AVE,OLNEY,MD,20832,HBW121,On Premise,"WASABI ZEN JAPANESE CUIS., INC","18066 GEORGIA AVE
OLNEY, MD 20832
(39.15223, -77.066885)"
IRENE'S PUPUSAS,12391 GEORGIA AVE,SILVER SPRING,MD,20906,BBWLHR729,On Premise,"CHIE' ENTERPRISES, LLC","12391 GEORGIA AVE
SILVER SPRING, MD 20906
(39.059565, -77.050377)"
8407,8407 RAMSEY AVE,SILVER SPRING,MD,20910,BBWLHR579,On Premise,"8407KB, LLC","8407 RAMSEY AVE
SILVER SPRING, MD 20910
(38.993918, -77.029149)"
LA FONDA CHIQUITA CAFE,6838 NEW HAMPSHIRE AVE,TAKOMA PARK,MD,20912,HBW103,On Premise,"CGDV, INC.","6838 NEW HAMPSHIRE AVE
TAKOMA PARK, MD 20912
(38.973725, -76.99606)"
RUTH'S CHRIS STEAK HOUSE - G/BURG,106 CROWN PARK AVENUE,GAITHERSBURG,MD,20878,BBWLHR857,On Premise,"RCSH OPERATIONS, LLC","106 CROWN PARK AVENUE
GAITHERSBURG, MD 20878
(39.144914, -77.195115)"
FOREST GLEN DELI,536 FOREST GLEN ROAD,SILVER SPRING,MD,20901,ABW048,Off Premise,MOO YOUNG CHUN & SONG JU CHUN,"536 FOREST GLEN ROAD
SILVER SPRING, MD 20901
(39.016639, -77.018519)"
HIMALAYAN HERITAGE,4925 BETHESDA AVE,BETHESDA,MD,20814,BBWLHR761,On Premise,HIMALAYAN HERITAGE LLC,"4925 BETHESDA AVE
BETHESDA, MD 20814
(38.980805, -77.099354)"
PHOLUSCIOUS,10048 DARNESTOWN ROAD,ROCKVILLE,MD,20850,HBW318,On Premise,"HAPPY HUB, INC.","10048 DARNESTOWN ROAD
ROCKVILLE, MD 20850
(39.096992, -77.20692)"
ARAT KILO MARKET AND RESTAURANT,818 EASLEY STREET,SILVER SPRING,MD,20910,BBWLHR23352,On Premise,"HELINA ASEGED AND SONS, LLC","818 EASLEY STREET
SILVER SPRING, MD 20910
(38.993978, -77.023649)"
CEDAR GROVE STORE,23412 RIDGE ROAD,GERMANTOWN,MD,20876,ABWS013,Off Premise,CHEAM CORPORATION,"23412 RIDGE ROAD
GERMANTOWN, MD 20876
(39.241584, -77.234987)"
PETER'S GRILL,519 EAST GUDE DRIVE,ROCKVILLE,MD,20850,BBWHR091,Off Premise,"PETER'S GRILL, INC","519 EAST GUDE DRIVE
ROCKVILLE, MD 20850
(39.106109, -77.146261)"
BLUE FIN,"9613 MEDICAL CENTER DRIVE, UNIT G",ROCKVILLE,MD,20850,BBWLHR772,On Premise,"HWANG & NA, INC","9613 MEDICAL CENTER DRIVE, UNIT G
ROCKVILLE, MD 20850
(39.104521, -77.19665)"
GREEK ISLANDS GRILL,15410 NEW HAMPSHIRE AVE,SILVER SPRING,MD,20905,BBWLHR122,On Premise,"SPIRO, INC","15410 NEW HAMPSHIRE AVE
SILVER SPRING, MD 20905
(39.109512, -76.997015)"
AMERICAN TAP ROOM - BETHESDA,7278 WOODMONT AVE,BETHESDA,MD,20814,BBWLHR603,On Premise,THOMPSON TAP ROOM LLC,"7278 WOODMONT AVE
BETHESDA, MD 20814
(38.982041, -77.096069)"
BOB'S SHANGHAI 66,305 NORTH WASHINGTON STREET,ROCKVILLE,MD,20850,HBW035,On Premise,"BOB'S NOODLE BISTRO, INC.","305 NORTH WASHINGTON STREET
ROCKVILLE, MD 20850
(39.089056, -77.153718)"
SOL AZTECA RESTAURANT,18129 TOWN CENTER DRIVE,OLNEY,MD,20832,BBWLHR179,On Premise,"SOL AZTECA, INC.","18129 TOWN CENTER DRIVE
OLNEY, MD 20832
(39.15179, -77.06198)"
DICKERSON MARKET,22145 DICKERSON ROAD,DICKERSON,MD,20842,ABW052,Off Premise,"DICKERSON SERVICES, INC.","22145 DICKERSON ROAD
DICKERSON, MD 20842
(39.218987, -77.424715)"
PETES NEW HAVEN STYLE APIZZA,962 WAYNE AVE,SILVER SPRING,MD,20910,HBW320,On Premise,M5LLC,"962 WAYNE AVE
SILVER SPRING, MD 20910
(38.994521, -77.026014)"
HUNGERFORD BEER & WINE,761 HUNGERFORD DRIVE,ROCKVILLE,MD,20850,ABW150,Off Premise,KI SUP YOON,"761 HUNGERFORD DRIVE
ROCKVILLE, MD 20850
(39.09376, -77.153305)"
CHOICE MARKET,18700 WALKERS CHOICE ROAD,MONTGOMERY VILLAGE,MD,20886,ABW24171,Off Premise,"E AND F, INC","18700 WALKERS CHOICE ROAD
MONTGOMERY VILLAGE, MD 20886
(39.163574, -77.204317)"
COASTAL FLATS,135 CROWN PARK AVENUE,GAITHERSBURG,MD,20878,BBWLHR853,On Premise,COASTAL FLATS - CROWN,"135 CROWN PARK AVENUE
GAITHERSBURG, MD 20878
(39.114382, -77.206)"
EURO MART,822 ROCKVILLE PIKE,ROCKVILLE,MD,20852,ABW242,Off Premise,EURO MART,"822 ROCKVILLE PIKE
ROCKVILLE, MD 20852
(39.07669, -77.138799)"
BRIO TUSCAN GRILL,20 PASEO DRIVE,NORTH BETHESDA,MD,20852,BBWLHR697,On Premise,BRIO TUSCAN GRILLE OF BETHESDA,"20 PASEO DRIVE
NORTH BETHESDA, MD 20852
(39.043188, -77.111944)"
KING FARM WINE & BEER,"402 KING FARM BLVD., UNIT 100",ROCKVILLE,MD,20850,DBW036,On/Off-Premise,"FLORES ENTERPRISES, LLC","402 KING FARM BLVD., UNIT 100
ROCKVILLE, MD 20850
(39.113878, -77.172402)"
HOLA BEER & WINE,"8035 SNOUFFER SCHOOL ROAD, #H",GAITHERSBURG,MD,20879,DBW139,On/Off-Premise,BOB'S 168 INC.,"8035 SNOUFFER SCHOOL ROAD, #H
GAITHERSBURG, MD 20879
(39.160773, -77.163002)"
FIVE STAR PREMIER RESIDENCES OF CC,8100 CONNECTICUT AVE,CHEVY CHASE,MD,20815,BBWLHR693,On Premise,"FVE MANAGERS, INC.","8100 CONNECTICUT AVE
CHEVY CHASE, MD 20815
(38.993052, -77.077248)"
"CURACION NAILS, BODY AND SUCCESS",11308 GRANDVIEW AVE SUITE 200,SILVER SPRING,MD,20902,SBSBW23227,On Premise,CURACION NAILS BODY & SUCSESS SANT,"11308 GRANDVIEW AVE SUITE 200
SILVER SPRING, MD 20902
(39.04096, -77.053105)"
OLNEY GRILLE,3464 OLNEY LAYTONSVILLE ROAD,OLNEY,MD,20832,BBWLHR267,On Premise,"OLNEY GRILLE, INC.","3464 OLNEY LAYTONSVILLE ROAD
OLNEY, MD 20832
(39.153711, -77.068041)"
FINNEGAN'S WAKE IRISH PUB,100-F GIBBS STREET,ROCKVILLE,MD,20850,BBWLHR21337,On Premise,"FINNEGAN'S WAKE IRISH PUB,LLC","100-F GIBBS STREET
ROCKVILLE, MD 20850
(39.086065, -77.151972)"
GENTLEMAN JIM'S RESTAURANT,18917 EARHART COURT,GAITHERSBURG,MD,20879,BBWLHR266,On Premise,"GENTLEMAN'S, INC.","18917 EARHART COURT
GAITHERSBURG, MD 20879
(39.167351, -77.172918)"
TANDOORI NIGHTS - BETHESDA,7236 WOODMONT AVE,BETHESDA,MD,20814,BBWLHR671,On Premise,"TANDOORI NIGHTS BETHESDA, LLC","7236 WOODMONT AVE
BETHESDA, MD 20814
(38.981839, -77.096017)"
VFW POST 2562,11316 FERN STREET,SILVER SPRING,MD,20902,CBWLFV001,On Premise,SILVER SPRING MEMORIAL VFW,"11316 FERN STREET
SILVER SPRING, MD 20902
(39.040787, -77.049442)"
THAI PAVILION,"29 MARYLAND AVE, SUITE 308",ROCKVILLE,MD,20850,BBWLHR225,On Premise,"THAITANIUM,LLC","29 MARYLAND AVE, SUITE 308
ROCKVILLE, MD 20850
(39.086378, -77.151052)"
LA MALINCHE,8622 COLESVILLE ROAD,SILVER SPRING,MD,20910,BBWLHR750,On Premise,"BSZ & BROTHERS, LLC","8622 COLESVILLE ROAD
SILVER SPRING, MD 20910
(38.99664, -77.027678)"
RADISSON HOTEL DC - ROCKVILLE,3 RESEARCH COURT,ROCKVILLE,MD,20850,BBWLHM23744,On Premise,AIL HOSPITALITY LLC,"3 RESEARCH COURT
ROCKVILLE, MD 20850
(39.107734, -77.187044)"
HWA GAE JANG TUH,2104 VEIRS MILL ROAD,ROCKVILLE,MD,20851,BBWLHR524,On Premise,"PIAO & LIANG COMPANY, INC","2104 VEIRS MILL ROAD
ROCKVILLE, MD 20851
(39.074989, -77.11546)"
RED LOBSTER RESTAURANT,15700 SHADY GROVE ROAD,GAITHERSBURG,MD,20877,BBWLHR065,On Premise,"RL MARYLAND, INC.","15700 SHADY GROVE ROAD
GAITHERSBURG, MD 20877
(39.113282, -77.186629)"
LA FERME,7101 BROOKVILLE ROAD,CHEVY CHASE,MD,20815,BBWLHR228,On Premise,LA FERME INCORPORATED,"7101 BROOKVILLE ROAD
CHEVY CHASE, MD 20815
(38.981284, -77.071491)"
BONEFISH GRILL,82 MARKET STREET,GAITHERSBURG,MD,20878,BBWLHR143,On Premise,"BONEFISH OF GAITHERSBURG, INC.","82 MARKET STREET
GAITHERSBURG, MD 20878
(39.123892, -77.234892)"
T.G.I. FRIDAY'S - ROCKVILLE,12147 ROCKVILLE PIKE,ROCKVILLE,MD,20852,BBWLHR016,On Premise,TGI FRIDAY'S OF ROCKVILLE INC.,"12147 ROCKVILLE PIKE
ROCKVILLE, MD 20852
(39.05772, -77.120353)"
APPLEBEE'S,21048 FREDERICK ROAD,GERMANTOWN,MD,20876,BBWLHR645,On Premise,POTOMAC FAMILY DINING GROUP,"21048 FREDERICK ROAD
GERMANTOWN, MD 20876
(39.201882, -77.245624)"
MINERVA INDIAN CUISINE,16240 FREDERICK ROAD,GAITHERSBURG,MD,20877,BBWLHR054,On Premise,MINERVA HOSPITALITY,"16240 FREDERICK ROAD
GAITHERSBURG, MD 20877
(39.121379, -77.176015)"
NAGOYA SUSHI,"402 KING FARM BLVD., #130",ROCKVILLE,MD,20850,HBW174,On Premise,"TAN'S RESTAURANT GROUP, LLC","402 KING FARM BLVD., #130
ROCKVILLE, MD 20850
(39.113878, -77.172402)"
METRO BEER & WINE,15921 FREDERICK ROAD,ROCKVILLE,MD,20855,ABW285,Off Premise,"VEER BEVERAGES, LLC","15921 FREDERICK ROAD
ROCKVILLE, MD 20855
(39.116496, -77.167542)"
CHIPOTLE MEXICAN GRILL - SS,907 ELLSWORTH DRIVE,SILVER SPRING,MD,20910,BBWLHR542,On Premise,CHIPTOLE MEXICAN GRILL OF MARY,"907 ELLSWORTH DRIVE
SILVER SPRING, MD 20910
(38.995935, -77.026411)"
GESTE FOODS & WINE,4801 EDGEMOOR LANE,BETHESDA,MD,20814,ABW268,Off Premise,"GESTE FOODS AND WINES, LLC","4801 EDGEMOOR LANE
BETHESDA, MD 20814
(38.98486, -77.095636)"
"TRAN DINH BEER,WINE & DELI","20 MONTGOMERY VILLAGE AVE, UNIT D",GAITHERSBURG,MD,20879,DBW141,On/Off-Premise,"TRAN DINH BEER,WINE, & DELI, I","20 MONTGOMERY VILLAGE AVE, UNIT D
GAITHERSBURG, MD 20879
(39.155093, -77.208527)"
POLLO BRASERO REST. & CARRYOUT,14336 LAYHILL ROAD,SILVER SPRING,MD,20906,HBW246,On Premise,"JULROC, INC.","14336 LAYHILL ROAD
SILVER SPRING, MD 20906
(39.091027, -77.044969)"
EL SITIO RESTAURANT,8210 PINEY BRANCH ROAD,SILVER SPRING,MD,20910,BBWLHR437,On Premise,"J.B. MARTINEZ, INC.","8210 PINEY BRANCH ROAD
SILVER SPRING, MD 20910
(38.993183, -77.009346)"
BRANDED 72,387 EAST GUDE DRIVE,ROCKVILLE,MD,20850,BBWLHR516,On Premise,"OB RANCH TRADING CO., LLC","387 EAST GUDE DRIVE
ROCKVILLE, MD 20850
(39.106325, -77.148787)"
LOS CHORROS RESTAURANT,2420 BLUERIDGE AVE,SILVER SPRING,MD,20902,BBWLHR173,On Premise,BLUERIDGE 2420 INC.,"2420 BLUERIDGE AVE
SILVER SPRING, MD 20902
(39.043091, -77.051731)"
COURTYARD BY MARRIOTT - GAITH,204 BOARDWALK PLACE,GAITHERSBURG,MD,20878,BBWLHM018,On Premise,COURTYARD MANAGEMENT CORPORATI,"204 BOARDWALK PLACE
GAITHERSBURG, MD 20878
(39.116607, -77.198084)"
ASADUR'S MARKET,5536 RANDOLPH ROAD,ROCKVILLE,MD,20852,ABW239,Off Premise,"MEHRANIAN, LLC","5536 RANDOLPH ROAD
ROCKVILLE, MD 20852
(39.053298, -77.112104)"
TALBOTT BEER & WINE,1071 ROCKVILLE PIKE,ROCKVILLE,MD,20852,ABW047,Off Premise,"ARESTI, INC.","1071 ROCKVILLE PIKE
ROCKVILLE, MD 20852
(39.07085, -77.132063)"
AMERICAN TAP ROOM - ROCKVILLE,36-A MARYLAND AVENUE,ROCKVILLE,MD,20850,BBWLHR837,On Premise,"FOOD3GROUP, LLC","36-A MARYLAND AVENUE
ROCKVILLE, MD 20850
(39.085377, -77.150979)"
VILLA MAYA RESTAURANT,5532 NORBECK ROAD,ROCKVILLE,MD,20853,BBWLHR628,On Premise,SOL MAYA CORPORATION,"5532 NORBECK ROAD
ROCKVILLE, MD 20853
(39.095753, -77.110784)"
FINE CUISINE CATERING,"13000 WISTERIA DRIVE, UNIT B",GERMANTOWN,MD,20874,CATBWL007,On Premise,"FINE CUISINE, INC.","13000 WISTERIA DRIVE, UNIT B
GERMANTOWN, MD 20874
(39.177529, -77.271155)"
HILTON WASHINGTON DC N GAITHERSBURG,620 PERRY PARKWAY,GAITHERSBURG,MD,20877,BBWLHM013,On Premise,PERRY PARKWAY HOTEL ASSOC.OP.,"620 PERRY PARKWAY
GAITHERSBURG, MD 20877
(39.14864, -77.213005)"
MICHAEL'S NOODLES,10038 DARNESTOWN ROAD,ROCKVILLE,MD,20850,HBW182,On Premise,"MICHAEL'S NOODLES, INC.","10038 DARNESTOWN ROAD
ROCKVILLE, MD 20850
(39.09698, -77.20685)"
COPPER CANYON GRILL - GAITHERSBURG,100 BOARDWALK PLACE,GAITHERSBURG,MD,20877,BBWLHR340,On Premise,"CANYON GRILL ENTERPRISES, LLC","100 BOARDWALK PLACE
GAITHERSBURG, MD 20877
(39.11681, -77.19978)"
MASA HIBACHI STEAKHOUSE & SUSHI,"921 ELLSWORTH DRIVE, UNIT J",SILVER SPRING,MD,20910,BBWLHR705,On Premise,JE DING COROPORATION,"921 ELLSWORTH DRIVE, UNIT J
SILVER SPRING, MD 20910
(38.995603, -77.026805)"
LILY'S PLACE,11305 ELKIN STREET,WHEATON,MD,20902,BBWLHR347,On Premise,"LILY'S PLACE, INC","11305 ELKIN STREET
WHEATON, MD 20902
(39.040427, -77.050363)"
"OLLIE'S BEER, WINE AND DELI",2011-A VIERS MILL ROAD,ROCKVILLE,MD,20851,ABW287,Off Premise,"SREYPICH, LLC","2011-A VIERS MILL ROAD
ROCKVILLE, MD 20851
(39.075193, -77.116458)"
"ARIA, BEER, WINE & DELI",4800 AUBURN AVENUE,BETHESDA,MD,20814,ABW280,Off Premise,"MARKET AT GALLERY, INC.","4800 AUBURN AVENUE
BETHESDA, MD 20814
(38.990813, -77.099129)"
MILLER'S ALE HOUSE,1471 ROCKVILLE PIKE,ROCKVILLE,MD,20852,BBWLHR740,On Premise,"MILLER'S MONT. CO. ALE HOUSE,","1471 ROCKVILLE PIKE
ROCKVILLE, MD 20852
(39.06563, -77.12722)"
EL GAVILAN RESTAURANT,8805 FLOWER AVE,SILVER SPRING,MD,20901,BBWLHR227,On Premise,ABY & ASSOCIATES LTD.,"8805 FLOWER AVE
SILVER SPRING, MD 20901
(38.99984, -77.003981)"
COUNTRY BOY BEER & WINE,2211 RANDOLPH ROAD,SILVER SPRING,MD,20902,ABW140,Off Premise,THOMAS BARNSLEY & JAMES BARNSL,"2211 RANDOLPH ROAD
SILVER SPRING, MD 20902
(39.059411, -77.04736)"
N-TILTED KILT,11160 VEIRS MILL RD,WHEATON,MD,20902,BBWLHR24273,On Premise,"AC RESTAURANTS WHEATON, LLC","11160 VEIRS MILL RD
WHEATON, MD 20902
(39.038177, -77.052681)"
KALDI'S COFFEE,918 SILVER SPRING AVENUE,SILVER SPRING,MD,20910,BBWLHR22788,On Premise,KALDI'S INC,"918 SILVER SPRING AVENUE
SILVER SPRING, MD 20910
(38.991616, -77.025703)"
CHINA CANTEEN,808 HUNGERFORD DRIVE,ROCKVILLE,MD,20850,HBW031,On Premise,"CHINA MASTER,INC.","808 HUNGERFORD DRIVE
ROCKVILLE, MD 20850
(39.094801, -77.153222)"
CHEVY CHASE CLUB,6100 CONNECTICUT AVE,CHEVY CHASE,MD,20815,CBWLCC008,On Premise,"CHEVY CHASE CLUB, INC.","6100 CONNECTICUT AVE
CHEVY CHASE, MD 20815
(38.972797, -77.077201)"
FOUND. FOR ADV. EDUC. IN SCIENCES,9101 OLD GEORGETOWN ROAD,BETHESDA,MD,20814,CBWLFV003,On Premise,FOUNDATION FOR ADV. EDUC. IN T,"9101 OLD GEORGETOWN ROAD
BETHESDA, MD 20814
(39.004899, -77.110773)"
OUTBACK STEAKHOUSE - SILVER SPRING,13703 GEORGIA AVE,SILVER SPRING,MD,20906,BBWLHR472,On Premise,"OUTBACK OF ASPEN HILL, INC.","13703 GEORGIA AVE
SILVER SPRING, MD 20906
(39.080206, -77.074327)"
VASILIS MEDITERRANEAN GRILL,353 MAIN STREET,GAITHERSBURG,MD,20878,HBW019,On Premise,"VASILIS KENTLAND, INC","353 MAIN STREET
GAITHERSBURG, MD 20878
(39.121264, -77.237612)"
NEEDWOOD GOLF COURSE,6724 NEEDWOOD ROAD,DERWOOD,MD,20855,HBW229,On Premise,MONTGOMERY CO. REV.AUTHORITY,"6724 NEEDWOOD ROAD
DERWOOD, MD 20855
(39.122971, -77.1365)"
RED ROBIN,20001 CENTURY BLVD,GERMANTOWN,MD,20874,BBWLHR332,On Premise,RED ROBIN OF MONTGOMERY CO INC,"20001 CENTURY BLVD
GERMANTOWN, MD 20874
(39.184088, -77.260943)"
K TOWN BISTRO,3784 HOWARD AVE,KENSINGTON,MD,20895,BKBWHR002,On Premise,"K TOWN BISTRO, LLC","3784 HOWARD AVE
KENSINGTON, MD 20895
(39.027822, -77.074112)"
SUSHI HOUSE,"1331 ROCKVILLE PIKE, UNIT D",ROCKVILLE,MD,20852,HBW214,On Premise,"SUSHI HOUSE, INC.","1331 ROCKVILLE PIKE, UNIT D
ROCKVILLE, MD 20852
(39.06857, -77.129875)"
POTOMAC PIZZA - TRAVILLE,9709 TRAVILLE GATEWAY DRIVE,ROCKVILLE,MD,20850,BBWLHR449,On Premise,"TRAVILLE, LLC","9709 TRAVILLE GATEWAY DRIVE
ROCKVILLE, MD 20850
(39.091394, -77.204308)"
WILDWOOD KITCHEN,10223 OLD GEORGETOWN ROAD,BETHESDA,MD,20814,BBWLHR744,On Premise,"RW FRIT WILDWOOD, LLC","10223 OLD GEORGETOWN ROAD
BETHESDA, MD 20814
(39.022969, -77.123843)"
SEASON'S 52,11414 ROCKVILLE PIKE,ROCKVILLE,MD,20852,BBWLHR638,On Premise,"GMR MONTGOMERY COUNTY, INC","11414 ROCKVILLE PIKE
ROCKVILLE, MD 20852
(39.043196, -77.111151)"
EL ESTERON RESTAURANT,8500 DAKOTA DRIVE,GAITHERSBURG,MD,20878,DBW134,On/Off-Premise,"EL ESTERON RESTAURANT, INC.","8500 DAKOTA DRIVE
GAITHERSBURG, MD 20878
(39.127172, -77.176171)"
BELBY DISCOUNT BEER & WINE,888 ROCKVILLE PIKE,ROCKVILLE,MD,20852,DBW109,On/Off-Premise,"CKCE, INC","888 ROCKVILLE PIKE
ROCKVILLE, MD 20852
(39.074677, -77.135929)"
RODMAN'S GOURMET BEER & WINE,5148 NICHOLSON LANE,KENSINGTON,MD,20895,DBW002,On/Off-Premise,"W.F.F.& B., INC.","5148 NICHOLSON LANE
KENSINGTON, MD 20895
(39.045102, -77.105555)"
SHOPPERS FOOD WAREHOUSE,18066 MATENY ROAD,GERMANTOWN,MD,20874,DBW013,On/Off-Premise,SHOPPERS FOOD WAREHOUSE CORP.,"18066 MATENY ROAD
GERMANTOWN, MD 20874
(39.146999, -77.272673)"
HICKORY BAR & GRILL,15420 OLD COLUMBIA PIKE #B,BURTONSVILLE,MD,20866,BBWLHR22789,On Premise,"KIARA, LLC","15420 OLD COLUMBIA PIKE #B
BURTONSVILLE, MD 20866
(39.108781, -76.936057)"
THE BUKHARA,9736 TRAVILLE GATEWAY DRIVE,ROCKVILLE,MD,20850,BBWLHR19312,On Premise,"BTS, LLC","9736 TRAVILLE GATEWAY DRIVE
ROCKVILLE, MD 20850
(39.091824, -77.203927)"
OUTBACK STEAKHOUSE - GERMANTOWN,12609 WISTERIA DRIVE,GERMANTOWN,MD,20874,BBWLHR471,On Premise,"OUTBACK OF GERMANTOWN, INC.","12609 WISTERIA DRIVE
GERMANTOWN, MD 20874
(39.17007, -77.261826)"
KNIGHTS OF COLUMBUS #2169,9707 ROSENSTEEL AVE,SILVER SPRING,MD,20910,CBWLFV007,On Premise,FATHER ROSENSTEEL KNIGHTS OF COLUMBUS CLUBHOUSE ASSOCIATION,"9707 ROSENSTEEL AVE
SILVER SPRING, MD 20910
(39.015852, -77.050818)"
LA MADELEINE - CROWN,242 CROWN PARK AVENUE,GAITHERSBURG,MD,20878,BBWLHR859,On Premise,"LA MADELEINE OF MD, LLC","242 CROWN PARK AVENUE
GAITHERSBURG, MD 20878
(39.145842, -77.194384)"
HILLANDALE BEER & WINE,10117 NEW HAMPSHIRE AVE,SILVER SPRING,MD,20903,ABW183,Off Premise,SATH INC.,"10117 NEW HAMPSHIRE AVE
SILVER SPRING, MD 20903
(39.020761, -76.976693)"
LA CASA DEL MOFONGO,"9441 GEORGIA AVE, # 4",SILVER SPRING,MD,20910,BBWLHR786,On Premise,"LA CASA DEL MOFONGO, LLC.","9441 GEORGIA AVE, # 4
SILVER SPRING, MD 20910
(39.009433, -77.040516)"
EL CHANGARRO,107-B EAST DIAMOND AVENUE,GAITHERSBURG,MD,20877,DBW23613,On/Off-Premise,DELMA CORP,"107-B EAST DIAMOND AVENUE
GAITHERSBURG, MD 20877
(39.141933, -77.195635)"
FINEWINE.COM,20 GRAND CORNER AVE,GAITHERSBURG,MD,20878,DBW24475,On/Off-Premise,"FINEWINE.COM,INC","20 GRAND CORNER AVE
GAITHERSBURG, MD 20878
(39.118713, -77.202358)"
REDWOOD,7121 BETHESDA LANE,BETHESDA,MD,20814,BBWLHR485,On Premise,"INDEPENDENT CONCEPTS, LLC","7121 BETHESDA LANE
BETHESDA, MD 20814
(38.98184, -77.097727)"
THE CHEESECAKE FACTORY,7101 DEMOCRACY BOULEVARD,BETHESDA,MD,20817,BBWLHR816,On Premise,"THE CHEESECAKE FACT. REST.,INC","7101 DEMOCRACY BOULEVARD
BETHESDA, MD 20817
(39.0242, -77.1459)"
KAO THAI RESTAURANT,8650 COLESVILLE ROAD,SILVER SPRING,MD,20910,DBW137,On Premise,"KAO THAI, LLC","8650 COLESVILLE ROAD
SILVER SPRING, MD 20910
(38.997104, -77.027346)"
KIN DA,6923 LAUREL AVENUE,TAKOMA PARK,MD,20912,HBW19789,On Premise,"PRASOBSUK, INC.","6923 LAUREL AVENUE
TAKOMA PARK, MD 20912
(38.97404, -77.01264)"
SAPHIRE,7940 WISCONSIN AVE,BETHESDA,MD,20814,BBWLHR334,On Premise,"OK, INC.","7940 WISCONSIN AVE
BETHESDA, MD 20814
(38.990332, -77.09556)"
UPCOUNTY FINE WINE & BEER,23229 STRINGTOWN ROAD,CLARKSBURG,MD,20871,ABWS240,Off Premise,ESHAAN LLC,"23229 STRINGTOWN ROAD
CLARKSBURG, MD 20871
(39.238487, -77.276366)"
PAUL KEE,"11305 GEORGIA AVE, UNIT B",SILVER SPRING,MD,20902,HBW300,On Premise,"CWL RESTUARANT, INC.","11305 GEORGIA AVE, UNIT B
SILVER SPRING, MD 20902
(39.040455, -77.051351)"
MOA RESTAURANT,12300 WILKINS AVE,ROCKVILLE,MD,20852,BBWLHR678,On Premise,"MOA RESTAURANT, INC","12300 WILKINS AVE
ROCKVILLE, MD 20852
(39.058047, -77.112918)"
SICHUAN JIN RIVER,410 HUNGERFORD DRIVE,ROCKVILLE,MD,20850,HBW247,On Premise,GOLDEN SPRING INTERNATIONAL CO,"410 HUNGERFORD DRIVE
ROCKVILLE, MD 20850
(39.088102, -77.150726)"
IKKO,1215 EAST-WEST HIGHWAY,SILVER SPRING,MD,20910,DBW124,On/Off-Premise,"POMEGRANATE, INC.","1215 EAST-WEST HIGHWAY
SILVER SPRING, MD 20910
(38.990346, -77.029301)"
MARUICHI,1047 ROCKVILLE PIKE,ROCKVILLE,MD,20852,DBW053,On/Off-Premise,MARUICHI INC.,"1047 ROCKVILLE PIKE
ROCKVILLE, MD 20852
(39.070975, -77.132181)"
POTOMAC PIZZA - CHEVY CHASE,19 WISCONSIN CIRCLE,CHEVY CHASE,MD,20815,BBWLHR411,On Premise,"PIZZA ZONE OF CHEVY CHASE, INC","19 WISCONSIN CIRCLE
CHEVY CHASE, MD 20815
(38.962057, -77.085606)"
GUI LIN RESTAURANT,10054 DARNESTOWN ROAD,ROCKVILLE,MD,20850,HBW072,On Premise,K.K. LEE INC.,"10054 DARNESTOWN ROAD
ROCKVILLE, MD 20850
(39.096998, -77.206961)"
CRISTINA'S ITALIAN RISTORANTE,"2666 UNIVERSITY BLVD, WEST",SILVER SPRING,MD,20902,BBWLHR196,On Premise,"KONTOS, INC.","2666 UNIVERSITY BLVD, WEST
SILVER SPRING, MD 20902
(39.040322, -77.054724)"
L'ACADEMIE DE CUISINE - BETHESDA,5021 WILSON LANE,BETHESDA,MD,20814,SCSBW001,On Premise,"L'ACADEMIE DE CUISINE, INC.","5021 WILSON LANE
BETHESDA, MD 20814
(38.987324, -77.099566)"
SUPER BOWL NOODLE HOUSE,785-G ROCKVILLE PIKE,ROCKVILLE,MD,20852,HBW328,On Premise,"SML NOODLE HOUSE, INC","785-G ROCKVILLE PIKE
ROCKVILLE, MD 20852
(39.077229, -77.139818)"
RATTLEWOOD GOLF COURSE,13501 PENN SHOP ROAD,MOUNT AIRY,MD,21771,HBW186,On Premise,MONT.CO. REVENUE AUTHORITY,"13501 PENN SHOP ROAD
MOUNT AIRY, MD 21771
(39.34468, -77.192858)"
SUMMER HOUSE,11825 GRANDPARK AVENUE,ROCKVILLE,MD,20852,BBWLHR873,On Premise,"ROCKVILLE RESTAURANT,LLC","11825 GRANDPARK AVENUE
ROCKVILLE, MD 20852
(39.049841, -77.117195)"
MI RANCHO - GERMANTOWN,"19725 GERMANTOWN ROAD, UNIT A",GERMANTOWN,MD,20874,BBWLHR145,On Premise,19725A INC.,"19725 GERMANTOWN ROAD, UNIT A
GERMANTOWN, MD 20874
(39.180367, -77.263863)"
KAPNOS KOUZINA,4900 HAMPDEN LANE,BETHESDA,MD,20814,BBWLHR23924,On Premise,"BETHKAP, LLC","4900 HAMPDEN LANE
BETHESDA, MD 20814
(38.982694, -77.096334)"
"POOLESVILLE BEER, WINE & DELI",19716 FISHER AVE,POOLESVILLE,MD,20837,ABW188,Off Premise,"JOANIE, INC.","19716 FISHER AVE
POOLESVILLE, MD 20837
(39.144975, -77.412784)"
ODALIS,8215 GEORGIA AVE,SILVER SPRING,MD,20910,BBWLHR794,On Premise,"ODALIS RESTAURANT, LLC","8215 GEORGIA AVE
SILVER SPRING, MD 20910
(38.992128, -77.026542)"
CHINA JADE,16805 CRABBS BRANCH WAY,DERWOOD,MD,20855,HBW237,On Premise,"JIN SHENG, INC.","16805 CRABBS BRANCH WAY
DERWOOD, MD 20855
(39.130085, -77.168097)"
BEERS AND CHEERS TOO,678 QUINCE ORCHARD ROAD,GAITHERSBURG,MD,20878,DBW23668,On/Off-Premise,"BEERS & CHEERS TOO, LLC","678 QUINCE ORCHARD ROAD
GAITHERSBURG, MD 20878
(39.139619, -77.22206)"
PI PIZZERIA,7137 WISCONSIN AVENUE,BETHESDA,MD,20814,BBWLHR24738,On Premise,"PI BETHESDA, LLC","7137 WISCONSIN AVENUE
BETHESDA, MD 20814
(38.980665, -77.092358)"
SHOPHOUSE - PIKE,11584 OLD GEORGETOWN ROAD,NORTH BETHESDA,MD,20852,BBWLHR19151,,"SHOPHOUSE MARYLAND, LLC.","11584 OLD GEORGETOWN ROAD
NORTH BETHESDA, MD 20852
(39.048953, -77.117628)"
CAVA MEZZE GRILL- SILVER SPRING,8515 FENTON STREET,SILVER SPRING,MD,20910,BBWLHR24010,On Premise,"CAVA MEZZE GRILL SILVER SPRING, LLC","8515 FENTON STREET
SILVER SPRING, MD 20910
(38.995818, -77.02458)"
AIRPARK BEER AND WINE,"7601 AIRPARK ROAD, UNIT G",GAITHERSBURG,MD,20879,ABWS208,Off Premise,CRUNCHKIDS LLC,"7601 AIRPARK ROAD, UNIT G
GAITHERSBURG, MD 20879
(39.169576, -77.154867)"
TOMMY JOE'S BAR & GRILL,7940 NORFOLK AVENUE,BETHESDA,MD,20814,BBWLHR19871,On Premise,SOCIAL HEIGHTS RESTAURANT LLC,"7940 NORFOLK AVENUE
BETHESDA, MD 20814
(38.989331, -77.09795)"
BARKING MAD CAFE,239 SPECTRUM AVE,GAITHERSBURG,MD,20879,BBWLHR21715,On Premise,"RENEGADES COFFEE COMPANY, LLC","239 SPECTRUM AVE
GAITHERSBURG, MD 20879
(39.15983, -77.221982)"
FISH TACO OF BETHESDA,10305 OLD GEORGETOWN ROAD,BETHESDA,MD,20814,BBWLHR24030,On Premise,"FISH TACO OF BETHESDA, INC","10305 OLD GEORGETOWN ROAD
BETHESDA, MD 20814
(39.024851, -77.125197)"
LAHINCH TAVERN & GRILL,7747 TUCKERMAN LANE,POTOMAC,MD,20854,BBWLHR24688,On Premise,"CLARE, INC","7747 TUCKERMAN LANE
POTOMAC, MD 20854
(39.039261, -77.156227)"
MONTGOMERY COUNTRY CLUB,20908 GOLF VIEW DRIVE,GAITHERSBURG,MD,20882,CBWLCC24652,On Premise,"EAGL BEVERAGE HOLDINGS, LLC","20908 GOLF VIEW DRIVE
GAITHERSBURG, MD 20882
(39.20027, -77.13373)"
KIELBASA FACTORY,1073 ROCKVILLE PIKE,ROCKVILLE,MD,20852,DBW092,On/Off-Premise,"KIELBASA FACTORY, INC.","1073 ROCKVILLE PIKE
ROCKVILLE, MD 20852
(39.070839, -77.132053)"
DIYA BISTRO,917 QUINCE ORCHARD ROAD,GAITHERSBURG,MD,20878,BBWLHR24863,On Premise,"917, LLC","917 QUINCE ORCHARD ROAD
GAITHERSBURG, MD 20878
(39.127445, -77.237669)"
HELEN'S THE BAR,11120 ROCKVILLE PIKE,ROCKVILLE,MD,20852,BBWLHR21280,On Premise,"HELEN'S-THE BAR, INC","11120 ROCKVILLE PIKE
ROCKVILLE, MD 20852
(39.03906, -77.109069)"
TALLY HO RESTUARANT,9923 FALLS RD,POTOMAC,MD,20854,HBW22790,On Premise,TALLY HO,"9923 FALLS RD
POTOMAC, MD 20854
(39.01873, -77.208639)"
WORLD OF BEER,196-B EAST MONTGOMERY AVENUE,ROCKVILLE,MD,20850,BBWLHR22600,On Premise,"WOB ROCKVILLE, LLC","196-B EAST MONTGOMERY AVENUE
ROCKVILLE, MD 20850
(39.08408, -77.150463)"
SPENCERVILLE DELI,2215 SPENCERVILLE RD,SPENCERVILLE,MD,20868,DBW25583,On/Off-Premise,"SPENCERVILLE DELI, LLC","2215 SPENCERVILLE RD
SPENCERVILLE, MD 20868
(39.116415, -76.965577)"
MELLOW MUSHROOM,33 MARYLAND AVENUE,ROCKVILLE,MD,20850,DBWLHR22664,On Premise,"SITA RESTAURANTS, LLC","33 MARYLAND AVENUE
ROCKVILLE, MD 20850
(39.085575, -77.150996)"
N-GALLERY MARKET & CAFE,11710 OLD GEORGETOWN ROAD,ROCKVILLE,MD,20852,ABW26094,Off Premise,"HARVEY CROP, INC.","11710 OLD GEORGETOWN ROAD
ROCKVILLE, MD 20852
(39.049768, -77.113264)"
KENTLAND'S PLACE BEER & WINE,78 MARKET STREET,GAITHERSBURG,MD,20878,ABWS23801,Off Premise,"KENTLAND'S LEE, LLC","78 MARKET STREET
GAITHERSBURG, MD 20878
(39.123646, -77.234835)"
SAMOVAR,201 N. WASHINGTON STREET,ROCKVILLE,MD,20850,BBWLHR21341,On Premise,IKBOL LLC,"201 N. WASHINGTON STREET
ROCKVILLE, MD 20850
(39.086088, -77.152969)"
ARADA MARKET,6844 NEW HAMPSHIRE AVE,TAKOMA PARK,MD,20912,ABW24781,Off Premise,"ARADA INTERNATIONAL FOOD CORP, INC","6844 NEW HAMPSHIRE AVE
TAKOMA PARK, MD 20912
(38.97431, -76.995421)"
LONG BRANCH BEER & WINE,649 UNIVERSITY BLVD,SILVER SPRING,MD,20901,ABW041,Off Premise,"LONG BRANCH BEER & WINE, INC.","649 UNIVERSITY BLVD
SILVER SPRING, MD 20901
(38.999923, -76.995534)"
TEX'S PLACE,14630 SOUTHLAWN LANE,ROCKVILLE,MD,20850,BBWHR071,On Premise,S & K TEX'S PLACE INC,"14630 SOUTHLAWN LANE
ROCKVILLE, MD 20850
(39.094975, -77.14065)"
"MILESTONE BEER, WINE & DELI","21030 FREDERICK ROAD, UNIT D",GERMANTOWN,MD,20876,ABWS020,Off Premise,"KAMDJOU, INC.","21030 FREDERICK ROAD, UNIT D
GERMANTOWN, MD 20876
(39.201403, -77.245551)"
BETHESDA CRAB HOUSE,4958 BETHESDA AVE,BETHESDA,MD,20814,BBWHR079,On Premise,MAINE AVENUE SEAFOOD INC,"4958 BETHESDA AVE
BETHESDA, MD 20814
(38.980778, -77.10029)"
BETHESDA CURRY KITCHEN,4860 CORDELL AVENUE,BETHESDA,MD,20814,BBWLHR337,On Premise,"BHAIRAVI, LLC","4860 CORDELL AVENUE
BETHESDA, MD 20814
(38.989858, -77.097636)"
SUMA,4921 BETHESDA AVE,BETHESDA,MD,20814,BBWLHR24689,On Premise,"BETHESDA AVENUE REST. GROUP, LLC","4921 BETHESDA AVE
BETHESDA, MD 20814
(38.980808, -77.099271)"
VUK,4924 ST. ELMO AVE,BETHESDA,MD,20814,BBWLHR25767,On Premise,"CALZONEZONE, LLC","4924 ST. ELMO AVE
BETHESDA, MD 20814
(38.988282, -77.097987)"
LA MADELEINE - BETHESDA,7607 OLD GEORGETOWN ROAD,BETHESDA,MD,20817,BBWLHR047,On Premise,"LA MADELEINE OF MARYLAND, LLC","7607 OLD GEORGETOWN ROAD
BETHESDA, MD 20817
(38.985743, -77.095856)"
COLESVILLE BEER & WINE,13468 NEW HAMPSHIRE AVE,SILVER SPRING,MD,20904,ABWS038,Off Premise,BYUNG HUN PARK,"13468 NEW HAMPSHIRE AVE
SILVER SPRING, MD 20904
(39.076971, -77.001803)"
CHEESESTEAK MIKE'S,10222 NEW HAMPSHIRE AVE,SILVER SPRING,MD,20903,BBWHR126,On Premise,"DJS OH, LLC","10222 NEW HAMPSHIRE AVE
SILVER SPRING, MD 20903
(39.022912, -76.978095)"
HUNAN CITY,9429 GEORGIA AVE,SILVER SPRING,MD,20910,DBW040,On/Off-Premise,YAN WING INC.,"9429 GEORGIA AVE
SILVER SPRING, MD 20910
(39.009293, -77.040466)"
CHEESE & WINE SHOPPE,2501 ENNALLS AVE,SILVER SPRING,MD,20902,DBW1060593,On/Off-Premise,"KYUNG & RAPHAEL, INC.","2501 ENNALLS AVE
SILVER SPRING, MD 20902
(39.039973, -77.053024)"
RODMANS PARTY BOUTIQUE,4301 RANDOLPH ROAD,SILVER SPRING,MD,20906,DBW067,On/Off-Premise,"DISC. DRUGS WISCONSIN, INC.","4301 RANDOLPH ROAD
SILVER SPRING, MD 20906
(39.055656, -77.083411)"
ROOTS MARKET,16800 GEORGIA AVE,OLNEY,MD,20832,DBW078,On/Off-Premise,"ROOTS OLNEY, LLC","16800 GEORGIA AVE
OLNEY, MD 20832
(39.131892, -77.0707)"
BOCA BOTANA'S,239 MUDDY BRANCH ROAD,GAITHERSBURG,MD,20878,BBWLHR21334,On Premise,BOCA BOTANA'S INC,"239 MUDDY BRANCH ROAD
GAITHERSBURG, MD 20878
(39.128618, -77.208309)"
QUINCY'S BETHESDA BAR & GRILLE,4922 DEL RAY AVENUE,BETHESDA,MD,20814,BBWLHR23612,On Premise,4922 DEL RAY LLC,"4922 DEL RAY AVENUE
BETHESDA, MD 20814
(38.989251, -77.099419)"
YEKTA KABOBI,1488 ROCKVILLE PIKE,ROCKVILLE,MD,20852,BBWHR103,On Premise,YEKTA DELI & IMPORTED GROCERIE,"1488 ROCKVILLE PIKE
ROCKVILLE, MD 20852
(39.065488, -77.126898)"
LENOX BEER & WINE GOURMET MKT,"1400 EAST-WEST HIGHWAY, UNIT A",SILVER SPRING,MD,20910,ABW219,Off Premise,"BTG HOLDINGS, INC.","1400 EAST-WEST HIGHWAY, UNIT A
SILVER SPRING, MD 20910
(38.994203, -77.033271)"
HORNET'S NEST GRILLE,9876 MAIN ST,DAMASCUS,MD,20872,HBW24736,On Premise,"HNG, LLC","9876 MAIN ST
DAMASCUS, MD 20872
(39.288345, -77.203819)"
CURRY PLACE,12951 WISTERIA DRIVE,GERMANTOWN,MD,20874,BBWHR124,On/Off-Premise,CURRY PLACE LLC,"12951 WISTERIA DRIVE
GERMANTOWN, MD 20874
(39.176957, -77.270181)"
BALDUCCI'S,10323 OLD GEORGETOWN ROAD,BETHESDA,MD,20814,BBWHR014,Off Premise,BALDUCCI'S MARYLAND LLC,"10323 OLD GEORGETOWN ROAD
BETHESDA, MD 20814
(39.024686, -77.125087)"
LEDO PIZZA - BETHESDA,5245 RIVER ROAD,BETHESDA,MD,20816,BBWHR017,On Premise,"RIVER ROAD PIZZA, INC.","5245 RIVER ROAD
BETHESDA, MD 20816
(38.965448, -77.104631)"
JAVA NATION,10516 CONNECTICUT AVENUE,KENSINGTON,MD,20895,BKBWHR71919,On Premise,"JAVA NATION, INC","10516 CONNECTICUT AVENUE
KENSINGTON, MD 20895
(39.028674, -77.076305)"
THE WINE HARVEST AT PARK POTOMAC,12525 PARK POTOMAC AVE,POTOMAC,MD,20854,BBWHR106,On/Off-Premise,"WHPP, LLC","12525 PARK POTOMAC AVE
POTOMAC, MD 20854
(39.061522, -77.157886)"
NIWANO HANA,887 ROCKVILLE PIKE,ROCKVILLE,MD,20852,BBWHR009,On Premise,"HANA ENTERPRISES, INC.","887 ROCKVILLE PIKE
ROCKVILLE, MD 20852
(39.075222, -77.136967)"
GAITHERSBURG SUPERMARKET,220 EAST DIAMOND AVE,GAITHERSBURG,MD,20877,ABW23750,Off Premise,"GAITHERSBURG SUPERMARKET, INC","220 EAST DIAMOND AVE
GAITHERSBURG, MD 20877
(39.142071, -77.194462)"
FLOWER DELICATESSEN,8707 FLOWER AVE,SILVER SPRING,MD,20901,BBWHR044,Off Premise,"MFM, INC.","8707 FLOWER AVE
SILVER SPRING, MD 20901
(38.998543, -77.003672)"
SIU'S ASIAN BISTRO,12271 TECH ROAD,SILVER SPRING,MD,20904,BBWHR104,On Premise,"GINGER ASIAN BISTRO, LLC","12271 TECH ROAD
SILVER SPRING, MD 20904
(39.057296, -76.967895)"
GRILLMARX STEAKHOUSE & RAW BAR,12011 SNOWDEN FARM PARKWAY,CLARKSBURG,MD,20871,BBWLHR829,On Premise,"GRILLMARX CB, LLC","12011 SNOWDEN FARM PARKWAY
CLARKSBURG, MD 20871
(39.228519, -77.250549)"
TAPP'D BETHESDA,4915 SAINT ELMO AVE,BETHESDA,MD,20814,BBWLHR396,On Premise,"UNION JACK OF BETHESDA, LLC","4915 SAINT ELMO AVE
BETHESDA, MD 20814
(38.988538, -77.097736)"
TOKYO SUSHI,18301 LEAMAN FARM ROAD,GERMANTOWN,MD,20874,BBWHR142,On/Off-Premise,"ASIA CAFE 3, INC.","18301 LEAMAN FARM ROAD
GERMANTOWN, MD 20874
(39.158125, -77.278846)"
SHANGRI'LA,7345 A WISCONSIN AVE,BETHESDA,MD,20814,BBWHR24780,On/Off-Premise,"SHANGRILA MANAGEMENT, LLC","7345 A WISCONSIN AVE
BETHESDA, MD 20814
(38.983065, -77.093514)"
GEPETTO CATERING COMPANY,4505 QUEENSBURY ROAD,RIVERDALE,MD,20737,CATBWL26369,On Premise,"GEPETTO CATERING COMPANY, INC.","4505 QUEENSBURY ROAD
RIVERDALE, MD 20737
(38.963028, -76.938235)"
SUGARLOAF WINE CELLAR,12955 WISTERIA DR,GERMANTOWN,MD,20874,DBW25768,On/Off-Premise,"VHVP GROUP, LLC","12955 WISTERIA DR
GERMANTOWN, MD 20874
(39.177529, -77.271155)"
TARA THAI- MONTGOMERY MALL,7101 DEMOCRACY BLVD.,BETHESDA,MD,20817,BBWLHR21714,On Premise,"NORTH ASIATIC, INC","7101 DEMOCRACY BLVD.
BETHESDA, MD 20817
(39.0242, -77.1459)"
MOTI'S MARKET,4860 BOILING BROOK PARKWAY,ROCKVILLE,MD,20852,BBWHR114,Off Premise,"ADAD, LLC","4860 BOILING BROOK PARKWAY
ROCKVILLE, MD 20852
(39.04702, -77.098189)"
MAMA WOK,9900 KEY WEST AVE,ROCKVILLE,MD,20850,BBWHR030,On Premise,"HHCC, INC.","9900 KEY WEST AVE
ROCKVILLE, MD 20850
(39.101127, -77.211708)"
CHICKEN BASKET,1336 EAST GUDE DRIVE,ROCKVILLE,MD,20850,BBWHR022,Off Premise,"CJK GROUP, INC.","1336 EAST GUDE DRIVE
ROCKVILLE, MD 20850
(39.096763, -77.135091)"
SAL'S ITALIAN KITCHEN,"7945 MACARTHUR BOULEVARD, #107",CABIN JOHN,MD,20818,BBWLHR867,On Premise,"CJ2, INC","7945 MACARTHUR BOULEVARD, #107
CABIN JOHN, MD 20818
(38.9747, -77.162727)"
FRANKLY...PIZZA!,10417 ARMORY AVENUE,KENSINGTON,MD,20895,BKBWHR005,On Premise,"FRANKLY...FOOD, LLC","10417 ARMORY AVENUE
KENSINGTON, MD 20895
(39.027488, -77.074782)"
EL PATIO,5240 RANDOLPH ROAD,ROCKVILLE,MD,20852,BBWHR113,On Premise,"EL PATIO INTERNATIONAL, INC.","5240 RANDOLPH ROAD
ROCKVILLE, MD 20852
(39.053407, -77.105447)"
L'ACADEMIE DE CUISINE - GAITH,16006 INDUSTRIAL DRIVE,GAITHERSBURG,MD,20877,SCSBW002,On Premise,"L'ACADEMIE DE CUISINE, INC.","16006 INDUSTRIAL DRIVE
GAITHERSBURG, MD 20877
(39.118099, -77.189688)"
GUDE DELI,14809 SOUTHLAWN LANE,ROCKVILLE,MD,20850,BBWHR080,Off Premise,"C&C BUSINESS ENTERPRISE, INC.","14809 SOUTHLAWN LANE
ROCKVILLE, MD 20850
(39.098696, -77.136222)"
N-GUSTO ITALIAN GRILL-BETHESDA,4733 ELM STREET,BETHESDA,MD,20814,BBWLHR26103,On Premise,"GUSTO BETHESDA, LLC","4733 ELM STREET
BETHESDA, MD 20814
(38.982164, -77.095681)"
EATHAI,"4011 E. NORBECK RD, UNIT E",ROCKVILLE,MD,20853,HBW25816,On Premise,"121 FOOD & SERVICE, inc","4011 E. NORBECK RD, UNIT E
ROCKVILLE, MD 20853
(39.109481, -77.077695)"
PARKWAY DELICATESSEN,8317 GRUBB ROAD,SILVER SPRING,MD,20910,BBWHR031,Off Premise,G.G.S. INCORPORATED,"8317 GRUBB ROAD
SILVER SPRING, MD 20910
(38.992227, -77.04924)"
SOUTHLAWN RESTAURANT,663 LOFSTRAND LANE,ROCKVILLE,MD,20850,BBWHR006,On Premise,SUNG SOOK YOON,"663 LOFSTRAND LANE
ROCKVILLE, MD 20850
(39.094306, -77.137741)"
DENISE BAKERI & DELI,25901 FREDERICK AVE,CLARKSBURG,MD,20871,BBWHR133,On Premise,"DENISE BAKERY, INC","25901 FREDERICK AVE
CLARKSBURG, MD 20871
(39.281096, -77.31494)"
PIZZA CS,"1596 ROCKVILLE PIKE, UNIT B",ROCKVILLE,MD,20850,BBWHR115,On Premise,"PIZZA CS, LLC","1596 ROCKVILLE PIKE, UNIT B
ROCKVILLE, MD 20850
(39.06281, -77.124769)"
DAWSONS MARKET,225 N. WASHINGTON STREET,ROCKVILLE,MD,20850,BBWHR129,On/Off-Premise,"ET ROCKVILLE, LLC","225 N. WASHINGTON STREET
ROCKVILLE, MD 20850
(39.085821, -77.152964)"
AMERICAN DANCE INSTITUTE,1570 EAST JEFFERSON STREET,ROCKVILLE,MD,20852,STBW005,On Premise,1570 EAST JEFFERSON STREET,"1570 EAST JEFFERSON STREET
ROCKVILLE, MD 20852
(39.062997, -77.129636)"
ARMAND'S PIZZERIA & GRILLE,190 HALPINE ROAD,ROCKVILLE,MD,20852,BBWHR137,On/Off-Premise,"SAPHRO, LLC.","190 HALPINE ROAD
ROCKVILLE, MD 20852
(39.060989, -77.125548)"
NOT YOUR AVERAGE JOE'S,245 KENTLANDS BLVD.,GAITHERSBURG,MD,20878,BBWLHR720,On Premise,"NOT YOUR AVERAGE JOE'S MD, LLC","245 KENTLANDS BLVD.
GAITHERSBURG, MD 20878
(39.123269, -77.236808)"
BEEFSTEAK,7101 DEMOCRACY BOULEVARD,BETHESDA,MD,20817,DBW25940,On Premise,"BEEFSTEAK OPERATOR, LLC","7101 DEMOCRACY BOULEVARD
BETHESDA, MD 20817
(39.0242, -77.1459)"
ROCKVILLE MOOSE LODGE #1540,13755 TRAVILAH ROAD,ROCKVILLE,MD,20850,CBWLFV018,On Premise,LOYAL ORDER OF MOOSE ROCKVILLE,"13755 TRAVILAH ROAD
ROCKVILLE, MD 20850
(39.080418, -77.239874)"
THAYEKARI INDIAN BISTRO,19833 CENTURY BOULEVARD,GERMANTOWN,MD,20874,BBWHR140,On/Off-Premise,"THAYEKARI, LLC","19833 CENTURY BOULEVARD
GERMANTOWN, MD 20874
(39.181304, -77.266593)"
BROADWAY PIZZA,7965 TUCKERMAN LANE,POTOMAC,MD,20854,BBWHR012,On Premise,BROADWAY PIZZA LLC .,"7965 TUCKERMAN LANE
POTOMAC, MD 20854
(39.040278, -77.15795)"
TAPABAR,4901 FAIRMONT AVE,BETHESDA,MD,20814,BBWLHR24687,On Premise,BOLD BITE 1 INC,"4901 FAIRMONT AVE
BETHESDA, MD 20814
(38.988316, -77.096758)"
BLACK MARKET BISTRO,4600 WAVERLY AVE,GARRETT PARK,MD,20895,BBWHR004,On Premise,"M.W. TAPPAN, LLC,","4600 WAVERLY AVE
GARRETT PARK, MD 20895
(39.038526, -77.093264)"
MEXICAN GRILL,19710-K FISHER AVE,POOLESVILLE,MD,20837,BBWLHR25584,On Premise,"MEXICAN GRILL, LLC","19710-K FISHER AVE
POOLESVILLE, MD 20837
(39.144824, -77.412219)"
SENECA MEADOWS BEER & WINE,"20640 SENECA MEADOWS PARKWAY,",GERMANTOWN,MD,20876,ABW271,Off Premise,"ARIDI ENTERPRISE, INC","20640 SENECA MEADOWS PARKWAY,
GERMANTOWN, MD 20876
(39.198135, -77.254908)"
N-MEDIUM RARE,4904 FAIRMONT AVE,BETHESDA,MD,20814,BBWLHR25766,On Premise,"MEDIUM RARE BETHESDA, LLC","4904 FAIRMONT AVE
BETHESDA, MD 20814
(38.987839, -77.097231)"
FOOD STOP MINI MART,4820 BOILING BROOK PARKWAY,ROCKVILLE,MD,20852,ABWS091,Off Premise,"BOILING BROOK PARKWAY FOODS, I","4820 BOILING BROOK PARKWAY
ROCKVILLE, MD 20852
(39.047707, -77.099397)"
EVALASH AND NAIL LOUNGE,10225A OLD GEORGETOWN ROAD,BETHESDA,MD,20814,SBSBW18692,On Premise,EVALASH AND NAIL LOUNGE,"10225A OLD GEORGETOWN ROAD
BETHESDA, MD 20814
(39.022915, -77.123804)"
BOULEVARD TAVERN,311 KENTLANDS BOULEVARD,GAITHERSBURG,MD,20878,BBWLHR838,On Premise,"BLVD TAVERN, LLC","311 KENTLANDS BOULEVARD
GAITHERSBURG, MD 20878
(39.123291, -77.237156)"
SHEGER SPRING CAFE,900 SILVER SPRING AVENUE,SILVER SPRING,MD,20910,BBWLHR21274,On Premise,"SHEGER SPRING CAFE, LLC","900 SILVER SPRING AVENUE
SILVER SPRING, MD 20910
(38.991699, -77.024028)"
BALAGGER RESTUARANT,8081 GEORGIA AVE,SILVER SPRING,MD,20910,BBWLHR25668,On Premise,AGGER INC,"8081 GEORGIA AVE
SILVER SPRING, MD 20910
(38.990148, -77.026573)"
EL SOL SALVADOREAN & MEXICAN REST.,13881 OUTLET DRIVE,SILVER SPRING,MD,20904,BBWHR441,On Premise,"HERJACAIM, INC.","13881 OUTLET DRIVE
SILVER SPRING, MD 20904
(39.082719, -76.94644)"
FINE WINE OF WHEATON,11211 GEORGIA AVENUE,WHEATON,MD,20902,ABW273,Off Premise,"MJ HOLDINGS, INC","11211 GEORGIA AVENUE
WHEATON, MD 20902
(39.038862, -77.050857)"
GOURMET BEER & WINE,"11510 ROCKVILLE PIKE, UNIT E",ROCKVILLE,MD,20852,ABWS166,Off Premise,MASSOUD OMIDVAR,"11510 ROCKVILLE PIKE, UNIT E
ROCKVILLE, MD 20852
(39.045006, -77.111963)"
THE THAI CUISINE RESTAURANT,757 HUNGERFORD DRIVE,ROCKVILLE,MD,20850,HBW285,On Premise,THE THAI CUISINE RESTAURANT 20,"757 HUNGERFORD DRIVE
ROCKVILLE, MD 20850
(39.093247, -77.15334)"
GIO'S CHICKEN,13643 GEORGIA AVENUE,SILVER SPRING,MD,20906,BBWHR22686,On/Off-Premise,"CHICKEN RICO ASPEN HILL, INC.","13643 GEORGIA AVENUE
SILVER SPRING, MD 20906
(39.078957, -77.072584)"
BETHESDA CO-OP,6500 SEVEN LOCKS ROAD,CABIN JOHN,MD,20818,ABWS099,Off Premise,"BETHESDA COMMUNITY FOOD STORE,","6500 SEVEN LOCKS ROAD
CABIN JOHN, MD 20818
(38.975109, -77.161522)"
TAIPEI CAFE,802 HUNGERFORD DRIVE,ROCKVILLE,MD,20850,BBWHR138,On/Off-Premise,"BROTHERS BISTRO, LLC","802 HUNGERFORD DRIVE
ROCKVILLE, MD 20850
(39.094245, -77.153434)"
WOODMOOR SUPERMARKET,10129 COLESVILLE ROAD,SILVER SPRING,MD,20901,ABWS044,Off Premise,"CHOI MARKET, INC.","10129 COLESVILLE ROAD
SILVER SPRING, MD 20901
(39.021087, -77.012089)"
MIDDLE EAST CUISINE,7006 CARROLL AVE,TAKOMA PARK,MD,20912,BBWLHR041,On Premise,"3H BROTHERS, INC.","7006 CARROLL AVE
TAKOMA PARK, MD 20912
(38.97481, -77.011983)"
YOSHIYA SUSHI,9122 ROTHBURY DRIVE,MONTGOMERY VILLAGE,MD,20886,BBWHR118,On Premise,YOSHIYA SUSHI,"9122 ROTHBURY DRIVE
MONTGOMERY VILLAGE, MD 20886
(39.185435, -77.188651)"
MUSE PAINTBAR,217 BOARDWALK PLACE,GAITHERSBURG,MD,20878,HBW25582,On Premise,"MUSE PAINTBAR, LLC","217 BOARDWALK PLACE
GAITHERSBURG, MD 20878
(39.116904, -77.198506)"
MARKET ON THE BOULEVARD,7945 MACARTHUR BLVD,CABIN JOHN,MD,20818,BBWHR085,Off Premise,"NEXKIM, INC.","7945 MACARTHUR BLVD
CABIN JOHN, MD 20818
(38.9747, -77.162727)"
THE MARKET AT RIVER FALLS,10124 RIVER ROAD,POTOMAC,MD,20854,ABWS19213,Off Premise,"JAAT, INC.","10124 RIVER ROAD
POTOMAC, MD 20854
(39.017405, -77.208116)"
DAD'S BEER & WINE,603 HUNGERFORD DRIVE,ROCKVILLE,MD,20850,ABWS203,Off Premise,"DAD'S BEER & WINE, LLC","603 HUNGERFORD DRIVE
ROCKVILLE, MD 20850
(39.091973, -77.153201)"
KENSINGTON SUB & PIZZA,"3701 UNIVERSITY BLVD., WEST",KENSINGTON,MD,20895,BBWHR003,Off Premise,KENSINGTON SUB & PIZZA,"3701 UNIVERSITY BLVD., WEST
KENSINGTON, MD 20895
(39.033356, -77.073205)"
N-GUSTO ITALIAN GRILL-SS,8512 FENTON STREET,SILVER SPRING,MD,20910,BBWLHR26102,On Premise,"GUSTO SILVER SPRING, LLC","8512 FENTON STREET
SILVER SPRING, MD 20910
(38.995876, -77.024605)"
INFERNO PIZZERIA,12207 DARNESTOWN ROAD,GAITHERSBURG,MD,20878,HBW22015,On Premise,"PIZZERIA INFERNO, LLC","12207 DARNESTOWN ROAD
GAITHERSBURG, MD 20878
(39.118159, -77.254335)"
MAMA WOK & TERIYAKI,595 HUNGERFORD DRIVE,ROCKVILLE,MD,20850,BBWHR086,On Premise,"3CCL, LLC","595 HUNGERFORD DRIVE
ROCKVILLE, MD 20850
(39.091536, -77.153058)"
APOLLO RESTAURANT,12 N WASHINGTON ST,ROCKVILLE,MD,20850,BBWLHR24434,On Premise,"DABKE, LLC","12 N WASHINGTON ST
ROCKVILLE, MD 20850
(39.084382, -77.152911)"
MOSAIC CUISINE & CAFE,186 HALPINE ROAD,ROCKVILLE,MD,20852,BBWLHR010,On Premise,"GINOU, INC.","186 HALPINE ROAD
ROCKVILLE, MD 20852
(39.060295, -77.126871)"
PINES OF ROME,4709 HAMPDEN LANE,BETHESDA,MD,20814,BBWHR045,On Premise,"LA TAVERNA, INC.","4709 HAMPDEN LANE
BETHESDA, MD 20814
(38.982808, -77.094381)"
VFW POST NO. 350,6420 ORCHARD AVE,TAKOMA PARK,MD,20912,CBWLFV1,On Premise,POST NO. 350 VFW OF THE U.S,"6420 ORCHARD AVE
TAKOMA PARK, MD 20912
(38.96899, -77.002326)"
AJI-NIPPON RESTAURANT,6937 ARLINGTON RD,BETHESDA,MD,20814,BBWHR089,On Premise,"ASAHI FUSION, INC.","6937 ARLINGTON RD
BETHESDA, MD 20814
(38.97936, -77.098649)"
GUAPO'S - GAITHERSBURG,411 NORTH FREDERICK AVE,GAITHERSBURG,MD,20877,BBWLHR639,On Premise,"GUAPOS OF ROCKVILLE PIKE, INC.","411 NORTH FREDERICK AVE
GAITHERSBURG, MD 20877
(39.146303, -77.204463)"
FULL ON CRAFT EATS & DRINKS,4007-D NORBECK ROAD,ROCKVILLE,MD,20853,BBWHR136,On Premise,"FULL ON CRAFT EATS&DRINKS, LLC","4007-D NORBECK ROAD
ROCKVILLE, MD 20853
(39.10949, -77.076962)"
ATTMAN'S DELI,7913 TUCKERMAN LANE,POTOMAC,MD,20854,BBWHR132,On Premise,ATTMANS DELICATESSEN CABIN JOH,"7913 TUCKERMAN LANE
POTOMAC, MD 20854
(39.039786, -77.157035)"
ADDIS BEER & WINE,730 SLIGO AVENUE,SILVER SPRING,MD,20910,ABW275,Off Premise,"730 SLIGO BEER & WINE, INC","730 SLIGO AVENUE
SILVER SPRING, MD 20910
(38.990094, -77.019327)"
LEDO PIZZA - OLNEY,3472 OLNEY LAYTONSVILLE ROAD,OLNEY,MD,20832,BBWHR116,On Premise,"C.KENNETH CARGILE,INC","3472 OLNEY LAYTONSVILLE ROAD
OLNEY, MD 20832
(39.154395, -77.069141)"
THAI TASTE,11315 FERN STREET,WHEATON,MD,20902,BBWHR139,On/Off-Premise,MAX'S PROJECTS CORP,"11315 FERN STREET
WHEATON, MD 20902
(39.040715, -77.049457)"
TYBER BIERHAUS,7525 OLD GEORGETOWN ROAD,BETHESDA,MD,20814,BBWLHR836,On Premise,"HELLO HOSPITALITY VI, LLC.","7525 OLD GEORGETOWN ROAD
BETHESDA, MD 20814
(38.985153, -77.094867)"
LEDO PIZZA AND PASTA,1319-H ROCKVILLE PIKE,ROCKVILLE,MD,20852,BDBWLHR25818,On/Off-Premise,"RICAR ENTERPRISES, LLC","1319-H ROCKVILLE PIKE
ROCKVILLE, MD 20852
(39.068857, -77.130157)"
MOBY DICK SEAFOOD,11220 TRIANGLE LANE,SILVER SPRING,MD,20902,BBWHR023,On Premise,HO KANG,"11220 TRIANGLE LANE
SILVER SPRING, MD 20902
(39.03902, -77.051708)"
PERUVIAN COUNTRY CHICKEN,10118 COLESVILLE ROAD,SILVER SPRING,MD,20901,BBWHR135,On/Off-Premise,PERUVIAN COUNTRY CHICKEN LLC.,"10118 COLESVILLE ROAD
SILVER SPRING, MD 20901
(39.020772, -77.01246)"
MIDDLEBROOK DISCOUNT B & W,19601 FREDERICK ROAD,GERMANTOWN,MD,20876,ABW257,Off Premise,"SOHRABS, INC","19601 FREDERICK ROAD
GERMANTOWN, MD 20876
(39.177455, -77.238444)"
WISTERIA BEER & WINE,"13200 WISTERIA DRIVE, UNIT #4",GERMANTOWN,MD,20874,ABWS276,Off Premise,"WISTERIA BEER & WINE, LLC","13200 WISTERIA DRIVE, UNIT #4
GERMANTOWN, MD 20874
(39.179962, -77.274795)"
THE GREENE TURTLE,15660 OLD COLUMBIA PIKE,BURTONSVILLE,MD,20866,BBWLHR18694,On Premise,GT BURTONSVILLE LLC,"15660 OLD COLUMBIA PIKE
BURTONSVILLE, MD 20866
(39.112047, -76.932571)"
PETERS CARRY OUT,8017 WISCONSIN AVE,BETHESDA,MD,20814,BBWHR029,Off Premise,PETERS CARRY OUT,"8017 WISCONSIN AVE
BETHESDA, MD 20814
(38.990897, -77.09554)"
OLNEY THEATRE CENTER,2001 OLNEY-SANDY SPRING ROAD,OLNEY,MD,20832,SBWLCPA003,On Premise,OLNEY THEATRE CENTER FOR THE A,"2001 OLNEY-SANDY SPRING ROAD
OLNEY, MD 20832
(39.144357, -77.045915)"
FAMOUS DAVE'S,20600 SENECA MEADOWS PKWY,GERMANTOWN,MD,20876,BBWLHR805,On Premise,FAMOUS DAVE'S RIBS OF MARYLAND,"20600 SENECA MEADOWS PKWY
GERMANTOWN, MD 20876
(39.198574, -77.256639)"
OLNEY ALE HOUSE,2000 OLNEY SANDY SPRING ROAD,SANDY SPRING,MD,20832,BBWHR027,On Premise,OOAH LLC,"2000 OLNEY SANDY SPRING ROAD
SANDY SPRING, MD 20832
(39.144404, -77.042868)"
PIZZERIA DAMARCO,8008 WOODMONT AVE,BETHESDA,MD,20814,BBWHR109,On Premise,"LIONSGATE RESTAURANT, LLC","8008 WOODMONT AVE
BETHESDA, MD 20814
(38.990253, -77.096487)"
CALIFORNIA GRILL,14 BUREAU DRIVE,GAITHERSBURG,MD,20877,BBWLHR24575,On Premise,CALIFORNIA GRILL S.S.D.N inc,"14 BUREAU DRIVE
GAITHERSBURG, MD 20877
(39.142705, -77.217416)"
JERRY'S PIZZA & SUBS-OLNEY,18100 GEORGIA AVENUE,OLNEY,MD,20832,BBWHR24644,On Premise,"JERRY'S OLNEY, LLC","18100 GEORGIA AVENUE
OLNEY, MD 20832
(39.153859, -77.066953)"
HANARO RESTAURANT AND LOUNGE,7820 NORFOLK AVE,BETHESDA,MD,20814,BBWLHR24554,On Premise,"TWMK, LLC","7820 NORFOLK AVE
BETHESDA, MD 20814
(38.988882, -77.097195)"
N-NAZRET MARKET,8120 GEORGIA AVE,SILVER SPRING,MD,20910,ABW26251,Off Premise,"NAZRET IMPORT, LLC","8120 GEORGIA AVE
SILVER SPRING, MD 20910
(38.990718, -77.026721)"
ARTS ON THE GREEN,311 KENT SQUARE ROAD,GAITHERSBURG,MD,20878,STBW1072567,On Premise,CITY OF GAITHERSBURG,"311 KENT SQUARE ROAD
GAITHERSBURG, MD 20878
(39.118543, -77.239216)"
CALIENTE RESTAURANT & BAR,2442 ENNALLS AVE,SILVER SPRING,MD,20902,BBWLHR763,On Premise,"CALIENTE RESTAURANT & BAR, COR","2442 ENNALLS AVE
SILVER SPRING, MD 20902
(39.040227, -77.052594)"
CONGRESSIONAL COUNTRY CLUB,8500 RIVER ROAD,POTOMAC,MD,20854,CBWLCC010,On Premise,"CONGRESSIONAL COUNTRY CLUB, IN","8500 RIVER ROAD
POTOMAC, MD 20854
"
CRISFIELD SEAFOOD RESTAURANT,8012 GEORGIA AVE,SILVER SPRING,MD,20910,BBWHR024,On Premise,"CRISFIELD SEAFOOD REST CO, INC","8012 GEORGIA AVE
SILVER SPRING, MD 20910
(38.988362, -77.02673)"
BIBIM,923 SLIGO AVENUE,SILVER SPRING,MD,20910,BBWLHR871,On Premise,"923 SLIGO, LLC","923 SLIGO AVENUE
SILVER SPRING, MD 20910
(38.990229, -77.025001)"
MODERN MARKET,4930 ELM STREET #90,BETHESDA,MD,20814,BBWLHR26245,On Premise,"MODMARKET,LLC","4930 ELM STREET #90
BETHESDA, MD 20814
(38.982105, -77.097386)"
LA CASITA,2 E. DIAMOND AVE,GAITHERSBURG,MD,20877,BBWLHR25458,On Premise,"ARBAIZA FOOD GROUP, INC","2 E. DIAMOND AVE
GAITHERSBURG, MD 20877
(39.141713, -77.19864)"
SMASHBURGER,1800 ROCKVILLE PIKE,ROCKVILLE,MD,20852,BBWLHR25023,On Premise,"ASHFORD HOLDINGS EAST, LLC","1800 ROCKVILLE PIKE
ROCKVILLE, MD 20852
(39.059727, -77.122055)"
SOCIETY RESTAURANT AND LOUNGE,8229 GEORGIA AVENUE,SILVER SPRING,MD,20910,BBWLHR25164,On Premise,D&H DINING INC,"8229 GEORGIA AVENUE
SILVER SPRING, MD 20910
(38.992557, -77.026544)"
GODAVARI,9011 GAITHER RD,GAITHERSBURG,MD,20877,HBW26044,On Premise,"RUTVIZ, LLC","9011 GAITHER RD
GAITHERSBURG, MD 20877
(39.117487, -77.184404)"
URBAN CRAWFISH,670 QUINCE ORCHARD RD,GAITHERSBURG,MD,20878,BBWLHR25273,On Premise,"PHO EATERY, INC","670 QUINCE ORCHARD RD
GAITHERSBURG, MD 20878
(39.140289, -77.22182)"
BAR LOUIE - WHEATON,11160 VEIRS MILL ROAD SPACE FSU7K,WHEATON,MD,20902,BBWLHR25459,On Premise,"BL RESTAURANT OPERATIONS, LLC","11160 VEIRS MILL ROAD SPACE FSU7K
WHEATON, MD 20902
(39.038177, -77.052681)"
EL BOTANERO,800 PLEASANT DR,ROCKVILLE,MD,20850,BBWLHR24075,On Premise,"JMK, LLC","800 PLEASANT DR
ROCKVILLE, MD 20850
(39.113719, -77.171168)"
DOWNTOWN CROWN WINE & BEER,303 COPLEY PLACE,GAITHERSBURG,MD,20878,DBW155,On/Off-Premise,"CROWN BEER & WINE, LLC.","303 COPLEY PLACE
GAITHERSBURG, MD 20878
(39.114276, -77.207679)"
LA FONDA PAISA & GROCERY STORE,7914 GEORGIA AVE,SILVER SPRING,MD,20910,DBW064,On/Off-Premise,LA FONDA INC.,"7914 GEORGIA AVE
SILVER SPRING, MD 20910
(38.985545, -77.026635)"
GOSHEN PLAZA BEER & WINE,9150 ROTHBURY DR.,MONTGOMERY VILLAGE,MD,20886,DBW029,On/Off-Premise,"LAKSHMI LLC,","9150 ROTHBURY DR.
MONTGOMERY VILLAGE, MD 20886
(39.185376, -77.188252)"
GILLY'S CRAFT BEER & FINE WINE,2009 CHAPMAN AVE,ROCKVILLE,MD,20852,DBW095,On/Off-Premise,"GILCHRIST & COMPANIES, INC.","2009 CHAPMAN AVE
ROCKVILLE, MD 20852
(39.055897, -77.116825)"
WATKINS MILL BEER & WINE,857 RUSSELL AVE,GAITHERSBURG,MD,20879,DBW052,On/Off-Premise,"VELVILI ENTERPRISES, INC.","857 RUSSELL AVE
GAITHERSBURG, MD 20879
(39.156702, -77.21197)"
TG SILVER SPRING MART,8211 FENTON STREET,SILVER SPRING,MD,20910,DBW1057690,On/Off-Premise,TG SILVER SPRING MART,"8211 FENTON STREET
SILVER SPRING, MD 20910
(38.992091, -77.024045)"
ROCKLANDS BARBEQUE AND GRILLING CO.,"891 ROCKVILLE PIKE, UNIT A",ROCKVILLE,MD,20852,DBW087,On/Off-Premise,"SNEDEKER, INC.","891 ROCKVILLE PIKE, UNIT A
ROCKVILLE, MD 20852
(39.075009, -77.136656)"
EUROPEAN DELIGHT,"1488 ROCKVILLE PIKE, UNIT I",ROCKVILLE,MD,20852,ABWS191,Off Premise,"ILHOM, INC.","1488 ROCKVILLE PIKE, UNIT I
ROCKVILLE, MD 20852
(39.065488, -77.126898)"
TACO BAR II,"10003 FIELDS ROAD, SUITE B",GAITHERSBURG,MD,20878,ABW003,Off Premise,"TACO BAR,LLC","10003 FIELDS ROAD, SUITE B
GAITHERSBURG, MD 20878
(39.116282, -77.206621)"
GIL'S RESTAURANT,8200 PINEY BRANCH ROAD,SILVER SPRING,MD,20910,BBWLHR684,On Premise,GILS RESTAURANT PARTNERSHIP,"8200 PINEY BRANCH ROAD
SILVER SPRING, MD 20910
(38.992939, -77.009469)"
BEERS AND CHEERS,19827 CENTURY BLVD,GERMANTOWN,MD,20874,DBW061,On/Off-Premise,GRAND CREW ENTERPRISES INC,"19827 CENTURY BLVD
GERMANTOWN, MD 20874
(39.18098, -77.267192)"
THE WINE HARVEST,114 MARKET STREET,GAITHERSBURG,MD,20878,DBW055,On/Off-Premise,"MEYRO ENTERPRISES,LLC","114 MARKET STREET
GAITHERSBURG, MD 20878
(39.122794, -77.234921)"
SEAFOOD IN THE BUFF,12132 GEORGIA AVE,SILVER SPRING,MD,20902,DBW060,On/Off-Premise,NONE,"12132 GEORGIA AVE
SILVER SPRING, MD 20902
(39.053767, -77.050771)"
RUSSIAN GOURMET,11431 ROCKVILLE PIKE,ROCKVILLE,MD,20852,ABW113,Off Premise,"RUSSIAN GOURMET, LLC","11431 ROCKVILLE PIKE
ROCKVILLE, MD 20852
(39.044099, -77.111346)"
ACROSS THE STREET TOO/TRAVILAH BEER,10046 DARNESTOWN ROAD,ROCKVILLE,MD,20850,DBW006,On/Off-Premise,TRAVILAH BEER AND WINE COMPANY,"10046 DARNESTOWN ROAD
ROCKVILLE, MD 20850
(39.096989, -77.206906)"
GRAPE EXPECTATIONS,20207 GOSHEN ROAD,GAITHERSBURG,MD,20879,DBW086,On/Off-Premise,"LUVANDY NARA, INC.","20207 GOSHEN ROAD
GAITHERSBURG, MD 20879
(39.188337, -77.18633)"
ABYSSINIA RESTAURANT,8221 GEORGIA AVE,SILVER SPRING,MD,20910,BBWLHR561,On Premise,"SOLO & AD, INC.","8221 GEORGIA AVE
SILVER SPRING, MD 20910
(38.992334, -77.026542)"
RINCON PERUANO,210 EAST DIAMOND AVENUE,GAITHERSBURG,MD,20877,BBWLHR25675,On Premise,RINCON PERUANO GAITHERSBURG LLC,"210 EAST DIAMOND AVENUE
GAITHERSBURG, MD 20877
(39.142132, -77.193941)"
P.F. CHANG'S CHINA BISTRO - C/CHASE,"5406 WISCONSIN AVE, SUITE-B",CHEVY CHASE,MD,20815,BBWLHR753,On Premise,"P.F. CHANG'S CHINA BISTRO, INC","5406 WISCONSIN AVE, SUITE-B
CHEVY CHASE, MD 20815
(38.961285, -77.086043)"
M & N PIZZA,7750 OLD GEORGETOWN ROAD,BETHESDA,MD,20814,ABW216,Off Premise,"M & N ENTERPRISE, LLC","7750 OLD GEORGETOWN ROAD
BETHESDA, MD 20814
(38.986813, -77.097647)"
N-TAKOMA BEVERAGE,6917 LAUREL AVENUE,TAKOMA PARK,MD,20912,BDBWLHR26663,On/Off-Premise,"TAKOMA BEVERAGE COMPANY, LLC","6917 LAUREL AVENUE
TAKOMA PARK, MD 20912
(38.973996, -77.012678)"
AFI SILVER THEATRE&CULTURAL CENTER,8633 COLESVILLE ROAD,SILVER SPRING,MD,20910,SBWLCPA1059463,On Premise,AMERICAN FILM INSTITUTE,"8633 COLESVILLE ROAD
SILVER SPRING, MD 20910
(38.996874, -77.027574)"
